{"version": 0.6, "generator": "Overpass API 0.7.62.8 e802775f", "osm3s": {"timestamp_osm_base": "2025-11-29T19:21:31Z", "copyright": "The data included in this document is from www.openstreetmap.org. The data is made available under ODbL."}, "elements": [{"type": "node", "id": 2018031439, "lat": 19.0705394, "lon": 72.8988757, "tags": {"name": "R S Mani Supermarket", "shop": "supermarket"}}, {"type": "node", "id": 2456716264, "lat": 19.0887329, "lon": 72.8376577, "tags": {"addr:housenumber": "Acme Mall", "addr:street": "Swami Vivekanand Road", "name": "Reliance Retail ", "shop": "supermarket"}}, {"type": "node", "id": 2457609056, "lat": 19.0844444, "lon": 72.8364463, "tags": {"name": "Society Stores", "shop": "supermarket"}}, {"type": "node", "id": 2930713325, "lat": 19.0621201, "lon": 72.9088413, "tags": {"addr:city": "MUMBAI", "addr:housenumber": "00", "addr:postcode": "400089", "addr:street": "P.L. Lokhande Marg", "name": "super market", "operator": "sunita zen", "shop": "supermarket"}}, {"type": "node", "id": 3048177681, "lat": 19.0383672, "lon": 72.8537587, "tags": {"addr:city": "Mumbai", "addr:street": "60 Feet Road", "name": "Azad Timber Mart", "shop": "supermarket"}}, {"type": "node", "id": 3202729954, "lat": 19.0609035, "lon": 72.9053072, "tags": {"addr:city": "MUMBAI", "addr:housenumber": "456", "addr:postcode": "123", "addr:street": "P.L. Lokhande Marg", "name": "apna super market", "operator": "sona", "shop": "supermarket"}}, {"type": "node", "id": 3204405483, "lat": 19.0632141, "lon": 72.8847166, "tags": {"name": "nehru nagar market", "shop": "supermarket"}}, {"type": "node", "id": 3206026956, "lat": 19.0581886, "lon": 72.8901758, "tags": {"name": "dolls shops", "shop": "supermarket"}}, {"type": "node", "id": 3215560185, "lat": 19.064604, "lon": 72.8997447, "tags": {"addr:city": "MUMBAI", "addr:housenumber": "near gulshan baug cafe", "addr:postcode": "400089", "addr:street": "P.L. Lokhande Marg", "name": "DWARKA Super market", "shop": "supermarket"}}, {"type": "node", "id": 3216946229, "lat": 19.0597585, "lon": 72.8880756, "tags": {"addr:city": "MUMBAI chembur", "addr:postcode": "400071", "addr:street": "THAKKAR BAPPA COLONY", "name": "FOOTWEAR", "operator": "AJAY", "shop": "supermarket"}}, {"type": "node", "id": 3518529217, "lat": 19.0935528, "lon": 72.8838529, "tags": {"addr:city": "Mumabi", "addr:postcode": "400072", "addr:street": "90 Feet Road", "name": "Big Bazzar", "shop": "supermarket"}}, {"type": "node", "id": 3529565707, "lat": 19.0700082, "lon": 72.8785142, "tags": {"name": "kurla market", "shop": "supermarket"}}, {"type": "node", "id": 3617444120, "lat": 19.0523615, "lon": 72.8242439}, {"type": "node", "id": 3617444122, "lat": 19.0523734, "lon": 72.8243751}, {"type": "node", "id": 3617444124, "lat": 19.0524459, "lon": 72.8242354}, {"type": "node", "id": 3617444125, "lat": 19.0524602, "lon": 72.8243663}, {"type": "node", "id": 4309613193, "lat": 19.0567563, "lon": 72.8394652, "tags": {"addr:city": "Bandra, Mumbai", "addr:postcode": "400050", "addr:street": "Gurunanak Marg", "name": "Sahakari Bhandar", "shop": "supermarket"}}, {"type": "node", "id": 4350861908, "lat": 19.0555664, "lon": 72.8319284, "tags": {"addr:city": "Bandra, Mumbai", "addr:postcode": "400050", "addr:street": "Ramdas Naik Road", "brand": "Nature's Basket", "brand:wikidata": "Q28174237", "brand:wikipedia": "en:Nature's Basket", "name": "Nature's Basket", "shop": "supermarket"}}, {"type": "node", "id": 4569909367, "lat": 19.0669359, "lon": 72.9044168, "tags": {"addr:city": "cheedanagar, chembur,mumbai", "addr:housenumber": "Shop No 2&3, PCAG Building", "addr:postcode": "400089", "addr:street": "Road No 4", "name": "Amrut Stores", "opening_hours": "09:00-21:00", "operator": "Amrut Grain Stores", "phone": "+912225259437, +912225253782, +912225252023", "shop": "supermarket"}}, {"type": "node", "id": 5125466819, "lat": 19.0967081, "lon": 72.8902067, "tags": {"name": "Grocery Outlet", "shop": "supermarket"}}, {"type": "node", "id": 7944302261, "lat": 19.0549226, "lon": 72.9046335, "tags": {"addr:city": "Chembur, Mumbai", "addr:housenumber": "ground floor, Amul Appartments", "addr:postcode": "400071", "addr:street": "St. Anthony's Road", "name": "A.P.MANI AND SONS", "shop": "supermarket"}}, {"type": "node", "id": 7944563278, "lat": 19.0874949, "lon": 72.8964888, "tags": {"name": "grocery store", "shop": "supermarket"}}, {"type": "node", "id": 7953949108, "lat": 19.0811794, "lon": 72.8560323, "tags": {"name": "Amin dry fruits store", "shop": "supermarket"}}, {"type": "node", "id": 8251738919, "lat": 19.0714599, "lon": 72.8387514, "tags": {"addr:postcode": "400052", "addr:street": "5th Road, SV raod", "name": "Rare Earth", "organic": "only", "shop": "supermarket"}}, {"type": "node", "id": 8447958683, "lat": 19.0798254, "lon": 72.8556587, "tags": {"addr:city": "Mumbai", "addr:postcode": "400055", "addr:street": "Jawaharlal Nehru Road", "name": "st charles", "opening_hours": "Mo-Su 09:00-21:00", "shop": "supermarket"}}, {"type": "node", "id": 9021942517, "lat": 19.0493544, "lon": 72.9065813, "tags": {"name:en": "Ratna Departmental Store", "shop": "supermarket"}}, {"type": "node", "id": 9024157517, "lat": 19.0456054, "lon": 72.9029338, "tags": {"brand": "Nature's Basket", "brand:wikidata": "Q28174237", "name": "Nature's Basket", "name:en": "Nature's Basket", "shop": "supermarket"}}, {"type": "node", "id": 10227697404, "lat": 19.0764242, "lon": 72.8345363, "tags": {"name": "Food Square", "name:en": "Food Square", "shop": "supermarket"}}, {"type": "node", "id": 10811219256, "lat": 19.0816714, "lon": 72.8460061}, {"type": "node", "id": 10811219257, "lat": 19.081677, "lon": 72.8460981}, {"type": "node", "id": 10811219258, "lat": 19.0814954, "lon": 72.8461228}, {"type": "node", "id": 10811219259, "lat": 19.0814898, "lon": 72.846104}, {"type": "node", "id": 10811219260, "lat": 19.0814553, "lon": 72.8461051}, {"type": "node", "id": 10811219261, "lat": 19.0814431, "lon": 72.8460215}, {"type": "node", "id": 11217402649, "lat": 19.0936354, "lon": 72.8838547, "tags": {"addr:city": "Mumabi", "addr:district": "maharastara", "addr:housenumber": "jarimari", "addr:postcode": "400072", "addr:street": "90 Feet Road", "name": "thethar", "opening_hours": "Mo-Su 09:00-21:00", "payment:cash": "yes", "payment:credit_cards": "yes", "phone": "8591199151", "shop": "supermarket"}}, {"type": "node", "id": 11298191069, "lat": 19.0314768, "lon": 72.8468509, "tags": {"addr:city": "Mumbai", "addr:district": "Mumbai", "addr:housenumber": "Matunga", "addr:postcode": "400016", "addr:street": "Senapati Bapat Marg", "name:en": "Reliance Smart Bazaar", "shop": "supermarket"}}, {"type": "node", "id": 11400865995, "lat": 19.081222, "lon": 72.8923176, "tags": {"brand": "DMart", "brand:wikidata": "Q5203271", "name": "DMart", "shop": "supermarket"}}, {"type": "node", "id": 11451515800, "lat": 19.0950201, "lon": 72.8836496, "tags": {"name": "Reliance Smart", "shop": "supermarket"}}, {"type": "node", "id": 11451995918, "lat": 19.0842678, "lon": 72.8848036, "tags": {"addr:district": "Mumbai", "addr:postcode": "400070", "addr:suburb": "Mumbai suburb", "brand": "7-Eleven", "name": "7-Eleven", "opening_hours": "Mo-Su 7:00-23:00", "shop": "supermarket"}}, {"type": "node", "id": 11579725641, "lat": 19.0569925, "lon": 72.88988, "tags": {"name": "Kute General Store", "shop": "supermarket"}}, {"type": "node", "id": 11591072336, "lat": 19.0995522, "lon": 72.8457581, "tags": {"name": "HEERSON", "opening_hours": "Mo-Su 09:00-22:05", "payment:american_express": "yes", "payment:app": "yes", "payment:cash": "yes", "payment:credit_cards": "yes", "payment:diners_club": "yes", "shop": "supermarket"}}, {"type": "node", "id": 11716428237, "lat": 19.0393647, "lon": 72.9117787, "tags": {"name": "St. Thomas Stores", "shop": "supermarket"}}, {"type": "node", "id": 11716428250, "lat": 19.0375722, "lon": 72.9095705, "tags": {"name": "Apna Kirana Store", "shop": "supermarket"}}, {"type": "node", "id": 11716428251, "lat": 19.0371982, "lon": 72.9094392, "tags": {"name": "Dilip Kirana Stores", "shop": "supermarket"}}, {"type": "node", "id": 11716428252, "lat": 19.0375045, "lon": 72.909417, "tags": {"shop": "supermarket"}}, {"type": "node", "id": 11716428259, "lat": 19.0374877, "lon": 72.911769, "tags": {"name": "Raj depot", "shop": "supermarket"}}, {"type": "node", "id": 11962654785, "lat": 19.0765454, "lon": 72.8802586, "tags": {"addr:city": "Mumbai", "addr:district": "Mumbai Suburban", "addr:housenumber": "250", "addr:postcode": "400070", "addr:street": "MEHBOOB E SUBHANI MASJID, 250 BHALEKAR WADI, New Mill Rd, beside MADINA HOTEL, Kurla West,", "name": "Kohinoor Enterprises", "opening_hours": "Mo-Su 07:00-22:00", "operator": "Kohinoor Enterprises", "payment:cash": "yes", "payment:credit_cards": "yes", "payment:debit_cards": "yes", "payment:mastercard": "yes", "payment:visa": "yes", "phone": "07860404303", "shop": "supermarket"}}, {"type": "node", "id": 12192784839, "lat": 19.0626852, "lon": 72.8306355, "tags": {"name": "The Urban Platter Store", "name:en": "The Urban Platter Store", "name:hi": "\u0926 \u0905\u0930\u094d\u092c\u0928 \u092a\u094d\u0932\u0948\u091f\u0930 \u0938\u094d\u091f\u094b\u0930", "name:mr": "\u0926 \u0905\u0930\u094d\u092c\u0928 \u092a\u094d\u0932\u0945\u091f\u0930 \u0938\u094d\u091f\u094b\u0930", "shop": "supermarket"}}, {"type": "node", "id": 12504150991, "lat": 19.0524551, "lon": 72.82431}, {"type": "node", "id": 12504150992, "lat": 19.0524359, "lon": 72.824312}, {"type": "node", "id": 12504150993, "lat": 19.0524342, "lon": 72.8242937}, {"type": "node", "id": 12504150994, "lat": 19.0524511, "lon": 72.824292}, {"type": "node", "id": 12600517519, "lat": 19.0603186, "lon": 72.8499975, "tags": {"name": "Meena Bazar", "shop": "supermarket"}}, {"type": "node", "id": 12770280946, "lat": 19.0289427, "lon": 72.8570014, "tags": {"brand": "Supplyco Super Market", "level": "0", "name": "Arife Lamoulde", "shop": "supermarket", "wheelchair": "no"}}, {"type": "node", "id": 12843082708, "lat": 19.084711, "lon": 72.8347972, "tags": {"brand": "Nature's Basket", "brand:wikidata": "Q28174237", "level": "3", "name": "Nature's Basket", "shop": "supermarket"}}, {"type": "node", "id": 12921345552, "lat": 19.0600078, "lon": 72.8425391, "tags": {"name": "Mahaveer Supermarket", "shop": "supermarket"}}, {"type": "node", "id": 13122745701, "lat": 19.0185516, "lon": 72.8306911, "tags": {"addr:postcode": "400028", "addr:street": "Raobahadur S.K. Bole Marg", "level": "0", "name": "\u0930\u093f\u0932\u093e\u092f\u0902\u0938 \u0938\u094d\u092e\u093e\u0930\u094d\u091f \u0938\u0941\u092a\u0930 \u0938\u094d\u091f\u094b\u0930", "name:en": "Reliance Smart Superstore", "opening_hours": "Mo-Su 07:00-23:00", "phone": "18008910001", "shop": "supermarket", "website": "https://stores.reliancesmartbazaar.com/reliance-smart-superstore-hypermarket-dadar-mumbai-280646/Home"}}, {"type": "node", "id": 13142733051, "lat": 19.0189086, "lon": 72.8328522, "tags": {"name": "\u0938\u094d\u092e\u093e\u0930\u094d\u091f \u0938\u0939\u0915\u093e\u0930\u0940 \u092d\u093e\u0902\u0921\u093e\u0930", "name:en": "Smart Sahkari Bhandar - Agar Bazar", "name:mr": "\u0938\u094d\u092e\u093e\u0930\u094d\u091f \u0938\u0939\u0915\u093e\u0930\u0940 \u092d\u093e\u0902\u0921\u093e\u0930", "opening_hours": "Mo-Su 12:00-09:00", "payment:credit_cards": "yes", "payment:debit_cards": "yes", "shop": "supermarket"}}, {"type": "node", "id": 13286977837, "lat": 19.0928401, "lon": 72.8371837, "tags": {"addr:city": "LOLOLO", "addr:district": "OKOKOK", "addr:housenumber": "123", "addr:postcode": "400097", "addr:street": "LALALA", "air_conditioning": "yes", "changing_table": "yes", "diet:gluten_free": "yes", "diet:halal": "yes", "diet:meat": "yes", "diet:mediterranean": "yes", "diet:non-vegetarian": "yes", "diet:vegan": "yes", "diet:vegetarian": "yes", "name": "IKEA", "opening_hours": "Mo-Su 10:00-21:00", "payment:cards": "yes", "payment:cash": "yes", "payment:credit_cards": "yes", "payment:debit_cards": "yes", "payment:google_pay": "yes", "payment:mastercard": "yes", "phone": "+919345286355", "shop": "supermarket"}}, {"type": "way", "id": 356284931, "nodes": [3617444120, 3617444124, 12504150994, 12504150993, 12504150992, 12504150991, 3617444125, 3617444122, 3617444120], "tags": {"addr:city": "Mumbai", "addr:housenumber": "100A", "addr:postcode": "400050", "addr:street": "Hill Road", "building": "yes", "name": "Patel Provision Stores", "payment:cash": "yes", "payment:coins": "yes", "payment:contactless": "yes", "payment:credit_cards": "yes", "payment:girocard": "yes", "payment:maestro": "yes", "payment:visa": "yes", "phone": "+91 022 2640 3517", "shop": "supermarket"}}, {"type": "way", "id": 1162458608, "nodes": [10811219256, 10811219257, 10811219258, 10811219259, 10811219260, 10811219261, 10811219256], "tags": {"building": "yes", "name": "Smart Buy", "shop": "supermarket"}}]}