{"version": 0.6, "generator": "Overpass API 0.7.62.8 e802775f", "osm3s": {"timestamp_osm_base": "2025-11-29T05:52:52Z", "copyright": "The data included in this document is from www.openstreetmap.org. The data is made available under ODbL."}, "elements": [{"type": "node", "id": 540928640, "lat": 12.2955488, "lon": 76.6411661, "tags": {"addr:postcode": "570004", "addr:street": "Kanthraj urs road", "alt_name": "Mahesh Prasad", "amenity": "restaurant", "cuisine": "indian", "int_name": "Mahesh Prasad", "name": "Hotel Mahesh Prasad", "name:kn": "\u0cb9\u0ccb\u0c9f\u0cc6\u0cb2\u0ccd \u0cae\u0cb9\u0cc7\u0cb6\u0ccd \u0caa\u0ccd\u0cb0\u0cb8\u0cbe\u0ca6\u0ccd", "old_name": "Mahesh Prasad"}}, {"type": "node", "id": 601688264, "lat": 12.309104, "lon": 76.6623707, "tags": {"addr:city": "Mysore", "addr:housenumber": "3", "addr:postcode": "570010", "addr:street": "Nazarabad Main Road", "amenity": "restaurant", "name": "Sandesh The Prince", "phone": "+91 821 243 6777", "website": "https://sandeshtheprince.com"}}, {"type": "node", "id": 1153301848, "lat": 12.310994, "lon": 76.6593118, "tags": {"addr:city": "Mysuru", "addr:street": "Bangalore Nilgiri Road", "alt_name": "Pia Vista", "amenity": "restaurant", "cuisine": "international", "int_name": "Pia Vista", "name": "Pai Vista", "old_name": "Pia Vista"}}, {"type": "node", "id": 1153301916, "lat": 12.3110944, "lon": 76.6550151, "tags": {"amenity": "restaurant", "cuisine": "indian", "diet:vegan": "yes", "diet:vegetarian": "yes", "name": "RRR Hotel"}}, {"type": "node", "id": 1153302101, "lat": 12.3100755, "lon": 76.6528438, "tags": {"amenity": "restaurant", "cuisine": "indian", "name": "Indra Cafe's Paras"}}, {"type": "node", "id": 1153369413, "lat": 12.3104659, "lon": 76.6578166, "tags": {"amenity": "restaurant", "cuisine": "indian", "name": "Arun Darshan"}}, {"type": "node", "id": 1153369464, "lat": 12.3100962, "lon": 76.6566137, "tags": {"amenity": "restaurant", "cuisine": "indian", "name": "Hotel Zameera"}}, {"type": "node", "id": 1153369633, "lat": 12.3103638, "lon": 76.6577443, "tags": {"amenity": "restaurant", "cuisine": "indian", "name": "Hotel Iyengar's"}}, {"type": "node", "id": 1153369741, "lat": 12.3104513, "lon": 76.6579302, "tags": {"amenity": "restaurant", "cuisine": "indian", "name": "Hotel Santosh"}}, {"type": "node", "id": 1450352851, "lat": 12.3085469, "lon": 76.6603582, "tags": {"addr:city": "Mysuru", "addr:housenumber": "73/1", "addr:postcode": "570010", "addr:street": "Guest House Road", "amenity": "restaurant", "cuisine": "regional;indian", "diet:vegetarian": "yes", "name": "Om Shanti", "phone": "+919880232055", "website": "https://www.hotelsiddharta.com/"}}, {"type": "node", "id": 1575086660, "lat": 12.2877653, "lon": 76.6733827, "tags": {"amenity": "restaurant", "name": "Jambalaya", "name:kn": "\u0c9c\u0c82\u0cac\u0cb2\u0caf"}}, {"type": "node", "id": 1636804091, "lat": 12.2959592, "lon": 76.6386458, "tags": {"alt_name": "Sindoora", "amenity": "restaurant", "cuisine": "indian", "int_name": "Sindoora", "name": "Sindoora", "name:kn": "\u0cb8\u0cbf\u0c82\u0ca7\u0cc2\u0cb0", "old_name": "Sindoora"}}, {"type": "node", "id": 1636849945, "lat": 12.3008834, "lon": 76.6404911, "tags": {"alt_name": "Jade Garden", "amenity": "restaurant", "cuisine": "indian", "int_name": "Jade Garden", "name": "Jade Garden", "old_name": "Jade Garden"}}, {"type": "node", "id": 1638073734, "lat": 12.3086497, "lon": 76.6583683, "tags": {"amenity": "restaurant", "internet_access": "wlan", "name": "Parklane Hotel", "tourism": "hotel", "wheelchair": "yes"}}, {"type": "node", "id": 1639007585, "lat": 12.2883471, "lon": 76.6495066, "tags": {"alt_name": "GTR", "amenity": "restaurant", "check_date": "2024-03-23", "cuisine": "indian", "int_name": "GTR", "name": "Gayatri Tiffin Room", "old_name": "GTR", "opening_hours": "Mo off; Tu-Su 07:00-11:00,15:30-20:00"}}, {"type": "node", "id": 1658623511, "lat": 12.3045108, "lon": 76.6437878, "tags": {"alt_name": "Jal Paan", "amenity": "restaurant", "cuisine": "international", "int_name": "Jal Paan", "name": "Jal Paan", "name:kn": "\u0c9c\u0cb2\u0ccd \u0caa\u0cbe\u0ca8\u0ccd", "old_name": "Jal Paan"}}, {"type": "node", "id": 1658623688, "lat": 12.3047676, "lon": 76.6438602, "tags": {"alt_name": "Maharaja", "amenity": "restaurant", "cuisine": "indian", "int_name": "Maharaja", "name": "Maharaja", "old_name": "Maharaja"}}, {"type": "node", "id": 1798325781, "lat": 12.3121835, "lon": 76.6405428, "tags": {"addr:housename": "Quorum", "addr:street": "Hunsur road", "alt_name": "Quorum", "amenity": "restaurant", "cuisine": "international", "designation": "Quorum", "int_name": "Quorum", "name": "The Quorum", "old_name": "Quorum", "source": "Quorum"}}, {"type": "node", "id": 1818603813, "lat": 12.2926082, "lon": 76.6716845, "tags": {"amenity": "restaurant", "name": "Olive Garden"}}, {"type": "node", "id": 2039565038, "lat": 12.3101549, "lon": 76.6464063, "tags": {"amenity": "restaurant", "name": "Nalapaak", "name:kn": "\u0ca8\u0cb3\u0caa\u0cbe\u0c95"}}, {"type": "node", "id": 2039568210, "lat": 12.3104405, "lon": 76.6464143, "tags": {"amenity": "restaurant", "name": "Hotel Sringar"}}, {"type": "node", "id": 2041861215, "lat": 12.3067174, "lon": 76.651169, "tags": {"amenity": "restaurant", "diet:vegetarian": "only", "name": "Rajabhavan Hotel"}}, {"type": "node", "id": 3264867281, "lat": 12.2941487, "lon": 76.6589281, "tags": {"amenity": "restaurant", "cuisine": "indian", "name": "Kamath Madhuvan", "name:kn": "\u0c95\u0cbe\u0cae\u0ca4\u0ccd \u0cae\u0ca6\u0cc1\u0cb5\u0ca8"}}, {"type": "node", "id": 3277984105, "lat": 12.3102725, "lon": 76.6581207, "tags": {"amenity": "restaurant", "name": "Madwadi Gujrathi"}}, {"type": "node", "id": 3303963653, "lat": 12.2985799, "lon": 76.6682884, "tags": {"amenity": "restaurant", "name": "Mayura Rhino Canteen"}}, {"type": "node", "id": 3390693762, "lat": 12.2956979, "lon": 76.6396186, "tags": {"amenity": "restaurant", "name": "Sindhoor Restaurant"}}, {"type": "node", "id": 4114513705, "lat": 12.3151382, "lon": 76.6449229, "tags": {"addr:street": "Jhansi Lakshmibai Road", "amenity": "restaurant", "brand": "Adyar Ananda Bhavan", "brand:wikidata": "Q15178238", "cuisine": "indian", "diet:vegetarian": "only", "indoor_seating": "yes", "name": "Adyar Ananda Bhavan", "name:kn": "\u0c85\u0ca8\u0c82\u0ca6 \u0cad\u0cb5\u0ca8", "opening_hours": "Mo-Su 07:00-23:00", "outdoor_seating": "no", "payment:credit_cards": "yes", "payment:debit_cards": "yes", "shop": "confectionery", "smoking": "no", "website": "http://sabsweets.in", "wheelchair": "no"}}, {"type": "node", "id": 4281990898, "lat": 12.3199187, "lon": 76.6527084, "tags": {"amenity": "restaurant", "name": "Hazrath Khwaja Ghareeb Un Nawaz Hotel"}}, {"type": "node", "id": 4440837946, "lat": 12.3085598, "lon": 76.6655397, "tags": {"addr:housenumber": "79", "addr:street": "Nazarbad Main road", "amenity": "restaurant", "name": "Vinayaka Mylaria", "opening_hours": "Mo, Tu, Th-Su 06:30-01:30, 15:00-20:30"}}, {"type": "node", "id": 4460023094, "lat": 12.3016843, "lon": 76.6418029, "tags": {"addr:postcode": "570005", "amenity": "restaurant", "name": "Ramanna Ahara Gudi", "name:en": "Ramanna Ahara Gudi"}}, {"type": "node", "id": 4472120190, "lat": 12.2969875, "lon": 76.6410841, "tags": {"amenity": "restaurant", "name": "Sambhrama Hotel", "name:en": "Sambhrama Hotel"}}, {"type": "node", "id": 4662805490, "lat": 12.30123, "lon": 76.6545342, "tags": {"amenity": "restaurant", "cuisine": "breakfast;diner;indian;local", "diet:vegetarian": "yes", "name": "Hotel Udupi", "name:de": "Hotel Udupi", "name:en": "Hotel Udupi", "name:kn": "\u0c89\u0ca1\u0cc1\u0caa\u0cbf"}}, {"type": "node", "id": 5039340724, "lat": 12.3058496, "lon": 76.6523069, "tags": {"addr:housenumber": "194/2", "addr:street": "Sayyaji Rao Road", "amenity": "restaurant", "name": "Cafe Aramane", "name:en": "Cafe Aramane", "name:fr": "Cafe Aramane", "phone": "08212434434"}}, {"type": "node", "id": 6117489129, "lat": 12.3180112, "lon": 76.6525938, "tags": {"amenity": "restaurant", "cuisine": "regional", "name": "Hanumanthu Biryani Original 1930"}}, {"type": "node", "id": 6117496113, "lat": 12.3123207, "lon": 76.6451228, "tags": {"amenity": "restaurant"}}, {"type": "node", "id": 6224968488, "lat": 12.3117283, "lon": 76.6496335, "tags": {"amenity": "restaurant", "name": "Tibet Restaurant"}}, {"type": "node", "id": 6832323686, "lat": 12.2994928, "lon": 76.652673, "tags": {"addr:floor": "G", "addr:postcode": "570004", "amenity": "restaurant", "check_date": "2024-08-03", "cuisine": "indian", "level": "0", "name": "Mylary Agrahara", "name:en": "Mylary Agrahara", "opening_hours": "Mo-Su 07:00-12:30, 15:00-20:00", "phone": "+919900635618", "wheelchair": "limited"}}, {"type": "node", "id": 6857703585, "lat": 12.298879, "lon": 76.6526018, "tags": {"amenity": "restaurant", "name": "New Lakshmi Bavana"}}, {"type": "node", "id": 7068976385, "lat": 12.312295, "lon": 76.6484584, "tags": {"amenity": "restaurant", "name": "Ashoka Hotel", "name:kn": "\u0c85\u0cb6\u0ccb\u0c95"}}, {"type": "node", "id": 7076914185, "lat": 12.2991888, "lon": 76.6409796, "tags": {"amenity": "restaurant", "name": "Vaibhav annexe"}}, {"type": "node", "id": 7174452685, "lat": 12.3110043, "lon": 76.6594241, "tags": {"amenity": "restaurant", "name": "Gufha"}}, {"type": "node", "id": 7174452785, "lat": 12.3084678, "lon": 76.6644764, "tags": {"amenity": "restaurant", "name": "Guru"}}, {"type": "node", "id": 8188055595, "lat": 12.3195081, "lon": 76.6619325, "tags": {"addr:full": "17/1, Lashkar Mohalla, Mysore - Bangalore Road, Earangere, Mandi Mohalla, Earangere, Gayathri Puram, Mysuru, Karnataka", "addr:state": "Karnataka", "amenity": "restaurant", "name": "Balaji Restaurant"}}, {"type": "node", "id": 8188055634, "lat": 12.3177141, "lon": 76.6646127, "tags": {"addr:full": "Abba Rd, Earangere, Nazarbad, Mysuru, Karnataka", "addr:state": "Karnataka", "amenity": "restaurant", "name": "Akshaya Pure Veg Restaurent"}}, {"type": "node", "id": 8188055732, "lat": 12.3127335, "lon": 76.6677398, "tags": {"addr:full": "25, opp Chamundi Vihara Stadium, Hyderali Road, Vasantha Mahal Rd, Doora, Mysuru, Karnataka", "addr:state": "Karnataka", "amenity": "restaurant", "diet:vegetarian": "only", "name": "GOAL Villa Park - Pure Vegetarian Restaurant"}}, {"type": "node", "id": 8188056154, "lat": 12.3080392, "lon": 76.6604908, "tags": {"addr:full": "73/1, Guest House Road Nazarbad, Doora, Mysuru, Karnataka", "addr:state": "Karnataka", "amenity": "restaurant", "diet:vegetarian": "only", "name": "Om Shanthi (Hotel Siddharta) - Vegetarian Restaurant"}}, {"type": "node", "id": 8188056278, "lat": 12.3055775, "lon": 76.6498367, "tags": {"addr:full": "139, Ramavilas Rd, NEAR JAGANMOHAN PALACE, Chamrajpura, Mysuru, Karnataka", "addr:state": "Karnataka", "amenity": "restaurant", "check_date": "2023-02-15", "diet:vegetarian": "only", "name": "The Veg Kitchen Vegetarian Restaurant"}}, {"type": "node", "id": 8188056530, "lat": 12.302408, "lon": 76.644039, "tags": {"addr:full": "442 mathrushree complex, Chamaraja Double Road, Near, Ramaswamy Cirlce, Sunnadakeri, Rahmania Mohalla, Mysuru, Karnataka", "addr:state": "Karnataka", "amenity": "restaurant", "name": "Udupi Ruchi Veg Restaurant"}}, {"type": "node", "id": 8188056994, "lat": 12.2876652, "lon": 76.6596801, "tags": {"addr:full": "Opposite JSS College of Arts Commerce and Science, Chamundipuram, Mysuru, Karnataka", "addr:state": "Karnataka", "amenity": "restaurant", "name": "Shaktidhama Restaurant", "name:kn": "\u0cb6\u0c95\u0ccd\u0ca4\u0cbf\u0ca7\u0cbe\u0cae"}}, {"type": "node", "id": 10266999388, "lat": 12.3139668, "lon": 76.6586769, "tags": {"amenity": "restaurant", "name": "Hotel Samrat"}}, {"type": "node", "id": 11114310142, "lat": 12.3053858, "lon": 76.6631291, "tags": {"addr:street": "Lokaranjan Mahal Road", "amenity": "restaurant", "name": "Hotel Anand Vihar"}}, {"type": "node", "id": 11454500728, "lat": 12.3122609, "lon": 76.6482446, "tags": {"amenity": "restaurant", "check_date": "2023-12-26", "name": "Maddur Tiffanys", "opening_hours": "06:00-22:00"}}, {"type": "node", "id": 11661938330, "lat": 12.2982223, "lon": 76.6470421}, {"type": "node", "id": 11661938331, "lat": 12.2982328, "lon": 76.6471467}, {"type": "node", "id": 11661938332, "lat": 12.297934, "lon": 76.6471628}, {"type": "node", "id": 11661938333, "lat": 12.2979261, "lon": 76.6470608}, {"type": "way", "id": 1254511630, "nodes": [11661938330, 11661938331, 11661938332, 11661938333, 11661938330], "tags": {"amenity": "restaurant", "building": "yes", "diet:vegetarian": "yes", "name": "Hotel Harigovindas", "name:kn": "\u0cb9\u0ccb\u0c9f\u0cc6\u0cb2\u0ccd\u200c \u0cb9\u0cb0\u0cbf\u0c97\u0ccb\u0cb5\u0cbf\u0c82\u0ca6\u0cbe\u0cb8\u0ccd\u200c"}}]}