{"version": 0.6, "generator": "Overpass API 0.7.62.8 e802775f", "osm3s": {"timestamp_osm_base": "2025-11-29T05:52:52Z", "copyright": "The data included in this document is from www.openstreetmap.org. The data is made available under ODbL."}, "elements": [{"type": "node", "id": 540651230, "lat": 12.3063337, "lon": 76.6451531, "tags": {"amenity": "bank", "name": "ICICI Bank (Main Branch)", "name:kn": "\u0c88 \u0cb8\u0cbf \u0c88 \u0cb8\u0cbf \u0c88 \u0cac\u0ccd\u0caf\u0cbe\u0c82\u0c95\u0ccd (\u0cae\u0cc1\u0c96\u0ccd\u0caf \u0cb6\u0cbe\u0c96\u0cc6 )", "operator": "ATM"}}, {"type": "node", "id": 540924263, "lat": 12.2951146, "lon": 76.6418418, "tags": {"amenity": "bank", "atm": "yes", "brand": "Canara Bank", "brand:pa": "\u0a15\u0a47\u0a28\u0a30\u0a3e \u0a2c\u0a48\u0a02\u0a15", "brand:ur": "\u06a9\u06cc\u0646\u0631\u0627 \u0628\u06cc\u0646\u06a9", "brand:wikidata": "Q2003777", "brand:wikipedia": "en:Canara Bank", "brand:wikipedia:pa": "\u0a15\u0a47\u0a28\u0a30\u0a3e \u0a2c\u0a48\u0a02\u0a15", "name": "Canara Bank", "name:kn": "\u0c95\u0cc6\u0ca8\u0cb0\u0cbe \u0cac\u0ccd\u0caf\u0cbe\u0c82\u0c95\u0ccd", "name:pa": "\u0a15\u0a47\u0a28\u0a30\u0a3e \u0a2c\u0a48\u0a02\u0a15", "name:ur": "\u06a9\u06cc\u0646\u0631\u0627 \u0628\u06cc\u0646\u06a9", "website": "https://www.canarabank.com/"}}, {"type": "node", "id": 1153369580, "lat": 12.3139028, "lon": 76.6563078, "tags": {"amenity": "bank", "brand": "State Bank of India", "brand:wikidata": "Q1340361", "brand:wikipedia": "en:State Bank of India", "name": "State Bank of India", "name:kn": "\u0cad\u0cbe\u0cb0\u0ca4\u0cc0\u0caf \u0cb8\u0ccd\u0c9f\u0cc7\u0c9f\u0ccd \u0cac\u0ccd\u0caf\u0cbe\u0c82\u0c95\u0ccd", "short_name": "SBI", "website": "https://www.sbi.co.in"}}, {"type": "node", "id": 1636836240, "lat": 12.2978723, "lon": 76.6432846, "tags": {"addr:postcode": "570004", "addr:street": "JLB Road", "alt_name": "Vijaya Bank", "amenity": "bank", "atm": "yes", "int_name": "Vijaya Bank", "name": "Vijaya Bank", "name:kn": "\u0cb5\u0cbf\u0c9c\u0caf \u0cac\u0ccd\u0caf\u0cbe\u0c82\u0c95\u0cc1", "old_name": "Vijaya Bank"}}, {"type": "node", "id": 1636836769, "lat": 12.2978723, "lon": 76.6432846, "tags": {"addr:city": "Mysuru", "addr:street": "Jhansi Lakshmibai Road", "alt_name": "Vijaya Bank", "amenity": "bank", "atm": "yes", "int_name": "Vijaya Bank", "name": "Vijaya Bank", "name:kn": "\u0cb5\u0cbf\u0c9c\u0caf \u0cac\u0ccd\u0caf\u0cbe\u0c82\u0c95\u0cc1", "old_name": "Vijaya Bank"}}, {"type": "node", "id": 1636864310, "lat": 12.295892, "lon": 76.641981, "tags": {"amenity": "bank", "atm": "yes", "brand:wikidata": "Q1340361", "brand:wikipedia": "en:State Bank of India", "name": "State Bank of India", "name:kn": "\u0cae\u0cc8\u0cb8\u0cc2\u0cb0\u0cc1 \u0cac\u0ccd\u0caf\u0cbe\u0c82\u0c95\u0ccd\u200c", "short_name": "SBI", "website": "https://www.sbi.co.in"}}, {"type": "node", "id": 3215305288, "lat": 12.3090002, "lon": 76.6380724}, {"type": "node", "id": 3215305289, "lat": 12.3088754, "lon": 76.6384946}, {"type": "node", "id": 3215305290, "lat": 12.3088252, "lon": 76.6384863}, {"type": "node", "id": 3215305291, "lat": 12.3088735, "lon": 76.6380515}, {"type": "node", "id": 3279674182, "lat": 12.3060935, "lon": 76.6471562, "tags": {"amenity": "bank", "atm": "yes", "brand": "Syndicate Bank", "brand:wikidata": "Q2004088", "name": "Syndicate Bank", "name:en": "Syndicate Bank", "name:kn": "\u0cb8\u0cbf\u0c82\u0ca1\u0cbf\u0c95\u0cc7\u0c9f\u0ccd \u0cac\u0ccd\u0caf\u0cbe\u0c82\u0c95\u0ccd", "website": "https://www.syndicatebank.in", "wikimedia_commons": "Category:Syndicate Bank"}}, {"type": "node", "id": 3390730016, "lat": 12.3092893, "lon": 76.6524423, "tags": {"amenity": "bank", "atm": "yes", "brand": "Canara Bank", "brand:en": "Canara Bank", "brand:hi": "\u0915\u0947\u0928\u0930\u093e \u092c\u0948\u0902\u0915", "brand:kn": "\u0c95\u0cc6\u0ca8\u0cb0\u0cbe \u0cac\u0ccd\u0caf\u0cbe\u0c82\u0c95\u0ccd", "brand:pa": "\u0a15\u0a47\u0a28\u0a30\u0a3e \u0a2c\u0a48\u0a02\u0a15", "brand:pnb": "\u06a9\u06cc\u0646\u0631\u0627 \u0628\u06cc\u0646\u06a9", "brand:ur": "\u06a9\u06cc\u0646\u0631\u0627 \u0628\u06cc\u0646\u06a9", "brand:wikidata": "Q2003777", "brand:wikipedia": "en:Canara Bank", "brand:wikipedia:pa": "\u0a15\u0a47\u0a28\u0a30\u0a3e \u0a2c\u0a48\u0a02\u0a15", "name": "Canara Bank", "name:en": "Canara Bank", "name:hi": "\u0915\u0947\u0928\u0930\u093e \u092c\u0948\u0902\u0915", "name:kn": "\u0c95\u0cc6\u0ca8\u0cb0\u0cbe \u0cac\u0ccd\u0caf\u0cbe\u0c82\u0c95\u0ccd", "name:pa": "\u0a15\u0a47\u0a28\u0a30\u0a3e \u0a2c\u0a48\u0a02\u0a15", "name:pnb": "\u06a9\u06cc\u0646\u0631\u0627 \u0628\u06cc\u0646\u06a9", "name:ur": "\u06a9\u06cc\u0646\u0631\u0627 \u0628\u06cc\u0646\u06a9", "website": "https://www.canarabank.com/"}}, {"type": "node", "id": 3390821809, "lat": 12.313578, "lon": 76.6564205, "tags": {"amenity": "bank", "brand": "Indian Overseas Bank", "brand:wikidata": "Q2003611", "brand:wikipedia": "en:Indian Overseas Bank", "name": "Indian Overseas Bank", "name:en": "Indian Overseas Bank", "name:kn": "\u0c90 \u0c93 \u0cac\u0cbf", "short_name": "IOB", "website": "https://www.iob.in"}}, {"type": "node", "id": 3713179902, "lat": 12.3088401, "lon": 76.6381945}, {"type": "node", "id": 3713179903, "lat": 12.3088593, "lon": 76.6380721}, {"type": "node", "id": 3713179904, "lat": 12.30887, "lon": 76.6380739}, {"type": "node", "id": 3713179905, "lat": 12.3088702, "lon": 76.6381995}, {"type": "node", "id": 3713179906, "lat": 12.3088854, "lon": 76.6384309}, {"type": "node", "id": 3713179907, "lat": 12.3089169, "lon": 76.6384361}, {"type": "node", "id": 3713179909, "lat": 12.3089687, "lon": 76.638106}, {"type": "node", "id": 3713179910, "lat": 12.3089943, "lon": 76.6381102}, {"type": "node", "id": 8187961335, "lat": 12.3103502, "lon": 76.6475116, "tags": {"addr:full": "Shivrampet Branch, Vinoba Rd, Devaraja Mohalla, Shivarampet, Mysuru, Karnataka", "addr:state": "Karnataka", "amenity": "bank", "brand": "State Bank of India", "brand:wikidata": "Q1340361", "name": "State Bank of India", "name:kn": "\u0cad\u0cbe\u0cb0\u0ca4\u0cc0\u0caf \u0cb8\u0ccd\u0c9f\u0cc7\u0c9f\u0ccd \u0cac\u0ccd\u0caf\u0cbe\u0c82\u0c95\u0ccd", "short_name": "SBI"}}, {"type": "node", "id": 8187961383, "lat": 12.3100697, "lon": 76.6478763, "tags": {"addr:full": "1252, NS Road, Near More Megamart, Shivarampet, Mysuru, Karnataka", "addr:state": "Karnataka", "amenity": "bank", "brand": "Andhra Bank", "brand:wikidata": "Q2003476", "name": "Andhra Bank", "name:kn": "\u0c86\u0c82\u0ca7\u0ccd\u0cb0 \u0cac\u0ccd\u0caf\u0cbe\u0c82\u0c95\u0ccd"}}, {"type": "node", "id": 8187961614, "lat": 12.3083969, "lon": 76.6640574, "tags": {"addr:full": "Nazarbad Branch, No.1, Ground Floor, Mahalakshmi Krupa, Zoo Rd, Nazarbad, Mysuru, Karnataka", "addr:state": "Karnataka", "amenity": "bank", "brand": "Karnataka Bank", "brand:wikidata": "Q2042632", "name": "Karnataka Bank", "name:kn": "\u0c95\u0cb0\u0ccd\u0ca8\u0cbe\u0c9f\u0c95 \u0cac\u0ccd\u0caf\u0cbe\u0c82\u0c95\u0cc1"}}, {"type": "node", "id": 8187961704, "lat": 12.3075039, "lon": 76.6438426, "tags": {"addr:full": "P B No 8 NO 1149/1173, Bazar Street, Muda, Jhansi Rani Lakshmi Bai Rd, K.G Koppal, Nanjangud, Chamarajapuram Mohalla, Chamrajpura, Mysuru, Karnataka", "addr:state": "Karnataka", "amenity": "bank", "name": "Vijaya Bank", "name:kn": "\u0cb5\u0cbf\u0c9c\u0caf \u0cac\u0ccd\u0caf\u0cbe\u0c82\u0c95\u0cc1"}}, {"type": "node", "id": 8187961906, "lat": 12.3037381, "lon": 76.6616404, "tags": {"addr:full": "PB, 952, Tank Bund Rd, Indira Nagar, Ittige Gudu, Mysuru, Karnataka", "addr:state": "Karnataka", "amenity": "bank", "branch": "Ittigegud Branch", "brand": "State Bank of India", "brand:wikidata": "Q1340361", "name": "State Bank of India", "name:kn": "\u0cad\u0cbe\u0cb0\u0ca4\u0cc0\u0caf \u0cb8\u0ccd\u0c9f\u0cc7\u0c9f\u0ccd \u0cac\u0ccd\u0caf\u0cbe\u0c82\u0c95\u0ccd", "short_name": "SBI"}}, {"type": "node", "id": 8187961922, "lat": 12.3034735, "lon": 76.6522759, "tags": {"addr:full": "New Santhepet Branch, Shop No. 94, Corporation Building, New Sayyaji Rao Road, Agrahara, Chamrajpura, Mysuru, Karnataka", "addr:state": "Karnataka", "amenity": "bank", "brand": "State Bank of India", "brand:wikidata": "Q1340361", "name": "State Bank of India", "name:kn": "\u0cad\u0cbe\u0cb0\u0ca4\u0cc0\u0caf \u0cb8\u0ccd\u0c9f\u0cc7\u0c9f\u0ccd \u0cac\u0ccd\u0caf\u0cbe\u0c82\u0c95\u0ccd", "short_name": "SBI"}}, {"type": "node", "id": 8187962200, "lat": 12.298492, "lon": 76.6491025, "tags": {"addr:full": "Medar Block, Yadavagiri, Mysuru, Karnataka", "addr:state": "Karnataka", "amenity": "bank", "name": "The Railway Co-operative Bank"}}, {"type": "node", "id": 8187962332, "lat": 12.2941781, "lon": 76.646951, "tags": {"addr:full": "Lakshmipuram, Mysuru, Karnataka", "addr:state": "Karnataka", "amenity": "bank", "brand": "Corporation Bank", "brand:wikidata": "Q2003387", "name": "Corporation Bank", "name:kn": "\u0c95\u0cbe\u0cb0\u0ccd\u0caa\u0ccb\u0cb0\u0cc7\u0cb6\u0ca8\u0ccd \u0cac\u0ccd\u0caf\u0cbe\u0c82\u0c95\u0ccd"}}, {"type": "node", "id": 8187962356, "lat": 12.2927792, "lon": 76.6388215, "tags": {"addr:full": "1433/A, 6th Cross Road, Jayanagar, Krishnamurthy Puram, Mysuru, Karnataka", "addr:state": "Karnataka", "amenity": "bank", "name": "Agastya Co-operative Bank"}}, {"type": "way", "id": 315414953, "nodes": [3215305288, 3713179910, 3713179909, 3713179907, 3713179906, 3215305289, 3215305290, 3713179905, 3713179902, 3713179903, 3713179904, 3215305291, 3215305288], "tags": {"addr:postcode": "570005", "amenity": "bank", "brand:wikidata": "Q1340361", "brand:wikipedia": "en:State Bank of India", "building": "yes", "name": "State Bank of India", "name:kn": "\u0cad\u0cbe\u0cb0\u0ca4\u0cc0\u0caf \u0cb8\u0ccd\u0c9f\u0cc7\u0c9f\u0ccd \u0cac\u0ccd\u0caf\u0cbe\u0c82\u0c95\u0ccd", "short_name": "SBI", "website": "https://www.sbi.co.in"}}]}