{"version": 0.6, "generator": "Overpass API 0.7.62.8 e802775f", "osm3s": {"timestamp_osm_base": "2025-11-29T19:15:26Z", "copyright": "The data included in this document is from www.openstreetmap.org. The data is made available under ODbL."}, "elements": [{"type": "node", "id": 423747687, "lat": 12.9684571, "lon": 77.6014051}, {"type": "node", "id": 423747689, "lat": 12.9678483, "lon": 77.6022713}, {"type": "node", "id": 423747690, "lat": 12.9676285, "lon": 77.6018841}, {"type": "node", "id": 429697565, "lat": 12.9762752, "lon": 77.5767096, "tags": {"name": "Hotel Hindustan", "name:kn": "\u0cb9\u0cca\u0c9f\u0cc6\u0cb2\u0ccd \u0cb9\u0cbf\u0c82\u0ca6\u0cc1\u0cb8\u0ccd\u0ca5\u0cbe\u0ca8", "tourism": "hotel"}}, {"type": "node", "id": 429698095, "lat": 12.9769025, "lon": 77.5763491, "tags": {"addr:city": "Gandhi Nagar, Bangalore", "addr:housenumber": "10", "addr:postcode": "560009", "addr:street": "2nd Cross, 6th Main Road", "name": "Hotel Anand Regency", "phone": "+91-80-41139572", "tourism": "hotel"}}, {"type": "node", "id": 430047632, "lat": 12.9876628, "lon": 77.5842338}, {"type": "node", "id": 456029958, "lat": 12.9932258, "lon": 77.5717309, "tags": {"addr:street": "Sampige Road", "name": "Sri Krishna Lodge", "tourism": "hotel"}}, {"type": "node", "id": 459478508, "lat": 12.9675378, "lon": 77.5952332}, {"type": "node", "id": 459478509, "lat": 12.967631, "lon": 77.5949668}, {"type": "node", "id": 459815988, "lat": 12.9717341, "lon": 77.5952057}, {"type": "node", "id": 461755232, "lat": 12.9934167, "lon": 77.5813911}, {"type": "node", "id": 461755234, "lat": 12.992427, "lon": 77.583323}, {"type": "node", "id": 461755237, "lat": 12.9920254, "lon": 77.5804496}, {"type": "node", "id": 461755242, "lat": 12.9911741, "lon": 77.5825028}, {"type": "node", "id": 461755267, "lat": 12.9944553, "lon": 77.5866102}, {"type": "node", "id": 461755270, "lat": 12.9924704, "lon": 77.5885619}, {"type": "node", "id": 461755380, "lat": 12.9873001, "lon": 77.5853586}, {"type": "node", "id": 461755381, "lat": 12.9864443, "lon": 77.5852778}, {"type": "node", "id": 461789651, "lat": 12.9843087, "lon": 77.5836303}, {"type": "node", "id": 461789658, "lat": 12.9839184, "lon": 77.5854176}, {"type": "node", "id": 578114640, "lat": 12.9897794, "lon": 77.58002}, {"type": "node", "id": 578114642, "lat": 12.9898657, "lon": 77.5805917}, {"type": "node", "id": 578114655, "lat": 12.9895333, "lon": 77.5814721}, {"type": "node", "id": 595406585, "lat": 12.943205, "lon": 77.5847176}, {"type": "node", "id": 661983027, "lat": 12.9825244, "lon": 77.5944641}, {"type": "node", "id": 661983028, "lat": 12.9821111, "lon": 77.5945094}, {"type": "node", "id": 661983029, "lat": 12.9827213, "lon": 77.5947439}, {"type": "node", "id": 661983030, "lat": 12.9828455, "lon": 77.5944035}, {"type": "node", "id": 663683086, "lat": 12.9822391, "lon": 77.594459, "tags": {"addr:city": "Bangalore", "addr:postcode": "560001", "addr:street": "Raj Bhavan Road", "name": "The Capitol", "tourism": "hotel"}}, {"type": "node", "id": 665068826, "lat": 12.9796632, "lon": 77.5865917}, {"type": "node", "id": 665068841, "lat": 12.9800375, "lon": 77.5864001}, {"type": "node", "id": 1005525039, "lat": 12.980445, "lon": 77.604525, "tags": {"addr:city": "Bangalore", "addr:housenumber": "66", "addr:postcode": "560001", "addr:street": "Infantry Road", "email": "enquiry@theinfantryhotel.com", "fax": "+918025592276", "internet_access": "yes", "internet_access:fee": "yes", "name": "The Infantry Hotel", "phone": "+918025591800", "tourism": "hotel", "website": "http://www.hotelinfantrycourt.com"}}, {"type": "node", "id": 1006462322, "lat": 12.980921, "lon": 77.576491, "tags": {"addr:city": "Gandhi Nagar, Bangalore", "addr:housenumber": "22/4", "addr:postcode": "560009", "addr:street": "Race Course Road", "email": "reservations@hotelmaurya.com", "fax": "+91-80-22256685", "name": "Hotel Maurya", "phone": "+91-80-22254111", "tourism": "hotel", "website": "https://www.hotelmaurya.com/"}}, {"type": "node", "id": 1006462329, "lat": 12.9839472, "lon": 77.5780127}, {"type": "node", "id": 1006492448, "lat": 12.989096, "lon": 77.572253, "tags": {"addr:city": "Seshadripuram, Bangalore", "addr:housenumber": "1", "addr:postcode": "560020", "addr:street": "Railway Platform Road", "name": "Hotel Swathi", "name:kn": "\u0cb8\u0ccd\u0cb5\u0ca4\u0cbf", "phone": "+91-80-23561123", "tourism": "hotel"}}, {"type": "node", "id": 1026441566, "lat": 12.9850452, "lon": 77.579248, "tags": {"addr:city": "Bangalore", "addr:housenumber": "2A-2B", "addr:postcode": "560001", "addr:street": "Crescent Road, High Ground", "email": "reservation@nalapadhotels.net", "internet_access": "yes", "internet_access:fee": "yes", "name": "Nalapad's Hotel Bangalore International", "smoking": "dedicated", "stars": "3", "tourism": "hotel", "website": "http://www.nalapad.com", "wheelchair": "no"}}, {"type": "node", "id": 1044323510, "lat": 12.9727609, "lon": 77.5701982, "tags": {"addr:city": "Chickpet, Bangalore", "addr:housenumber": "6", "addr:postcode": "560053", "addr:street": "Cottonpet Main Road", "name": "Sudha Lodge", "phone": "+91-80-26705420", "tourism": "hotel"}}, {"type": "node", "id": 1044325327, "lat": 12.9717886, "lon": 77.5705791, "tags": {"addr:housenumber": "13", "addr:street": "Cottonpete Main Road", "name": "Radha Krishna Delux Lodge", "tourism": "hotel"}}, {"type": "node", "id": 1061341352, "lat": 12.9665776, "lon": 77.5951759}, {"type": "node", "id": 1061341359, "lat": 12.9675829, "lon": 77.5963911}, {"type": "node", "id": 1061341361, "lat": 12.9666091, "lon": 77.5964789}, {"type": "node", "id": 1080055848, "lat": 12.974344, "lon": 77.5712299, "tags": {"addr:city": "Bangalore", "addr:street": "Tank Bund Road", "name": "Hotel Mahaveer", "name:kn": "\u0cae\u0cb9\u0cbe\u0cb5\u0cc0\u0cb0", "tourism": "hotel"}}, {"type": "node", "id": 1087884426, "lat": 12.944337, "lon": 77.620028, "tags": {"addr:city": "Bangalore", "addr:housenumber": "3", "addr:postcode": "560095", "name": "Hotel Ganga Sagar", "phone": "+91-80-25704880", "tourism": "hotel"}}, {"type": "node", "id": 1116484557, "lat": 12.9853747, "lon": 77.5792337}, {"type": "node", "id": 1213656725, "lat": 12.9539135, "lon": 77.6398402}, {"type": "node", "id": 1213657227, "lat": 12.9536077, "lon": 77.6390234}, {"type": "node", "id": 1213657366, "lat": 12.9540601, "lon": 77.6390995}, {"type": "node", "id": 1232939382, "lat": 12.9729763, "lon": 77.5948551}, {"type": "node", "id": 1232939387, "lat": 12.9722616, "lon": 77.5942855}, {"type": "node", "id": 1232939416, "lat": 12.9728515, "lon": 77.5954034}, {"type": "node", "id": 1232939458, "lat": 12.9725427, "lon": 77.5955431}, {"type": "node", "id": 1232939467, "lat": 12.9720732, "lon": 77.5943429}, {"type": "node", "id": 1274328898, "lat": 12.9353574, "lon": 77.6293981, "tags": {"name": "Maple's", "tourism": "hotel"}}, {"type": "node", "id": 1306429239, "lat": 12.984215, "lon": 77.6005578, "tags": {"internet_access": "wlan", "name": "Hotel Ramada", "name:kn": "\u0cb0\u0cae\u0ca1", "tourism": "hotel"}}, {"type": "node", "id": 1314943420, "lat": 12.980883, "lon": 77.575992, "tags": {"addr:city": "Bangalore", "addr:housenumber": "5/43", "addr:postcode": "560009", "addr:street": "Race Course Road", "email": "jpcelestial@fortunehotels.in", "fax": "+91-80-41476060", "internet_access": "yes", "name": "Fortune Park JP Celestial Hotel", "phone": "+91-80-40441234; +91-80-39884433", "tourism": "hotel", "website": "https://www.fortunehotels.in/"}}, {"type": "node", "id": 1375978230, "lat": 12.9342871, "lon": 77.6161496, "tags": {"name": "Terminus", "tourism": "hotel"}}, {"type": "node", "id": 1375978288, "lat": 12.9335142, "lon": 77.6151725, "tags": {"name": "Blue Petal Business Hotel", "tourism": "hotel"}}, {"type": "node", "id": 1468516364, "lat": 12.9372193, "lon": 77.619574, "tags": {"addr:city": "Bangalore", "addr:housenumber": "95", "addr:postcode": "560095", "addr:street": "5th Cross Road 60 FEET ROAD", "air_conditioning": "yes", "atm": "yes", "brand": "HOTEL", "description": "SERVICED APARTMENTS & ROOMS", "email": "4SEASONSSUITES@GMAIL.COM", "internet_access": "yes", "name": "4 Seasons Suites", "name:en": "4 SEASONS SUITES", "rooms": "20", "tourism": "hotel", "website": "https://4SEASONSSSUITES.IN", "wheelchair": "limited"}}, {"type": "node", "id": 1470634306, "lat": 12.9363256, "lon": 77.6222355, "tags": {"addr:city": "Bangalore", "addr:postcode": "560095", "addr:street": "17th E Main", "name": "Casa De Bengaluru", "smoking": "separated", "tourism": "hotel"}}, {"type": "node", "id": 1472876995, "lat": 12.9409092, "lon": 77.6278297, "tags": {"tourism": "hotel"}}, {"type": "node", "id": 1473221155, "lat": 12.9726938, "lon": 77.6193889}, {"type": "node", "id": 1473221156, "lat": 12.9727224, "lon": 77.6188401}, {"type": "node", "id": 1473221161, "lat": 12.9728717, "lon": 77.6198723}, {"type": "node", "id": 1473221163, "lat": 12.973021, "lon": 77.6199522}, {"type": "node", "id": 1473308088, "lat": 12.938785, "lon": 77.6300973, "tags": {"cuisine": "international", "name": "Shilton Royale", "tourism": "hotel"}}, {"type": "node", "id": 1473330368, "lat": 12.9383855, "lon": 77.6310907, "tags": {"name": "CHef Inn Residency", "tourism": "hotel"}}, {"type": "node", "id": 1474432220, "lat": 12.9330194, "lon": 77.6105953, "tags": {"addr:street": "Tavarekere Main Road", "name": "Inn", "tourism": "hotel"}}, {"type": "node", "id": 1474819129, "lat": 12.9353977, "lon": 77.6090855, "tags": {"addr:street": "Hosur road", "name": "Libra", "tourism": "hotel"}}, {"type": "node", "id": 1509292090, "lat": 12.9478373, "lon": 77.5970782, "tags": {"name": "Hotel Mayflower", "tourism": "hotel"}}, {"type": "node", "id": 1536592059, "lat": 12.9726288, "lon": 77.6001079}, {"type": "node", "id": 1536592066, "lat": 12.9724282, "lon": 77.5995994}, {"type": "node", "id": 1536592068, "lat": 12.9730978, "lon": 77.5997106}, {"type": "node", "id": 1536592069, "lat": 12.9723296, "lon": 77.6000646}, {"type": "node", "id": 1536592071, "lat": 12.9727061, "lon": 77.5996437}, {"type": "node", "id": 1536592073, "lat": 12.9730703, "lon": 77.6001717}, {"type": "node", "id": 1548828176, "lat": 12.983979, "lon": 77.5846362}, {"type": "node", "id": 1548828177, "lat": 12.9845306, "lon": 77.5853436}, {"type": "node", "id": 1607662968, "lat": 12.9738266, "lon": 77.619964}, {"type": "node", "id": 1607662992, "lat": 12.9739237, "lon": 77.6189882}, {"type": "node", "id": 1623992301, "lat": 13.012896, "lon": 77.5547189}, {"type": "node", "id": 1623992338, "lat": 13.0123056, "lon": 77.5554954}, {"type": "node", "id": 1623992439, "lat": 13.0129032, "lon": 77.5554909}, {"type": "node", "id": 1623992502, "lat": 13.0122984, "lon": 77.5547249}, {"type": "node", "id": 1636730958, "lat": 12.9782535, "lon": 77.5799774}, {"type": "node", "id": 1636730971, "lat": 12.9783606, "lon": 77.5800593}, {"type": "node", "id": 1636730987, "lat": 12.9781305, "lon": 77.580055}, {"type": "node", "id": 1636731069, "lat": 12.9782673, "lon": 77.5797565}, {"type": "node", "id": 1636731072, "lat": 12.9780845, "lon": 77.5800401}, {"type": "node", "id": 1636731090, "lat": 12.978139, "lon": 77.5797481}, {"type": "node", "id": 1636731096, "lat": 12.9782891, "lon": 77.5801671}, {"type": "node", "id": 1636731108, "lat": 12.9780931, "lon": 77.5799016}, {"type": "node", "id": 1636731110, "lat": 12.9781293, "lon": 77.579904}, {"type": "node", "id": 1637588134, "lat": 12.9780729, "lon": 77.579383, "tags": {"addr:city": "Be\u1e45ga\u1e37\u016bru", "addr:neighborhood": "G\u0101m\u0310dh\u012bngar", "addr:state": "KA", "email": "goldenresidency@gmail.com", "facebook": "https://www.facebook.com/people/Golden-Residency/100083489050660/", "internet_access": "wlan", "internet_access:fee": "customers", "name": "Golden Residency", "name:es": "Residencia Golden", "name:fr": "R\u00e9sidence Golden", "name:it": "Residenza Golden", "name:pt": "Resid\u00eancia Golden", "phone": "+91 80 4147 6435", "tourism": "hotel"}}, {"type": "node", "id": 1637588143, "lat": 12.9775086, "lon": 77.5793777, "tags": {"name": "Hotel Kanthi Comforts", "tourism": "hotel"}}, {"type": "node", "id": 1652785560, "lat": 12.9654789, "lon": 77.5898062}, {"type": "node", "id": 1652785561, "lat": 12.9654334, "lon": 77.5901013}, {"type": "node", "id": 1653909253, "lat": 12.9656255, "lon": 77.5895554, "tags": {"name": "Hotel Geo", "tourism": "hotel"}}, {"type": "node", "id": 1671637200, "lat": 12.9937551, "lon": 77.5866721}, {"type": "node", "id": 1671637253, "lat": 12.9937668, "lon": 77.5854189}, {"type": "node", "id": 1749472997, "lat": 12.9956838, "lon": 77.597473}, {"type": "node", "id": 1749473000, "lat": 12.9972876, "lon": 77.5985502}, {"type": "node", "id": 1757024875, "lat": 12.9757997, "lon": 77.6203538}, {"type": "node", "id": 1757024876, "lat": 12.9758934, "lon": 77.6210801}, {"type": "node", "id": 1772649601, "lat": 12.9604081, "lon": 77.5709546, "tags": {"name": "Prakash Cafe & Lodge", "tourism": "hotel"}}, {"type": "node", "id": 1786236040, "lat": 12.9684323, "lon": 77.5964096, "tags": {"name": "Villa Lavelle", "tourism": "hotel"}}, {"type": "node", "id": 1798913046, "lat": 12.9717723, "lon": 77.5729725, "tags": {"name": "Ramakrishna Lodge", "tourism": "hotel"}}, {"type": "node", "id": 1808746086, "lat": 12.9747844, "lon": 77.6202416}, {"type": "node", "id": 1808746088, "lat": 12.9748549, "lon": 77.6201837}, {"type": "node", "id": 1808746089, "lat": 12.9748796, "lon": 77.6211536}, {"type": "node", "id": 1837595295, "lat": 12.9948655, "lon": 77.596919}, {"type": "node", "id": 1837595297, "lat": 12.9951204, "lon": 77.5962384}, {"type": "node", "id": 1837595298, "lat": 12.9951916, "lon": 77.5961723}, {"type": "node", "id": 1837595310, "lat": 12.996957, "lon": 77.5959059}, {"type": "node", "id": 1837595311, "lat": 12.9969893, "lon": 77.5961653}, {"type": "node", "id": 1837595315, "lat": 12.9976229, "lon": 77.5987754}, {"type": "node", "id": 1837595318, "lat": 12.998215, "lon": 77.5959877}, {"type": "node", "id": 1837595321, "lat": 12.9986649, "lon": 77.5970995}, {"type": "node", "id": 1838375768, "lat": 12.98982, "lon": 77.5947591}, {"type": "node", "id": 1842489794, "lat": 12.9727746, "lon": 77.6186104}, {"type": "node", "id": 1842489801, "lat": 12.9729827, "lon": 77.6177384}, {"type": "node", "id": 1842489804, "lat": 12.9730314, "lon": 77.6175575}, {"type": "node", "id": 1842489964, "lat": 12.9742716, "lon": 77.6177001}, {"type": "node", "id": 1851701770, "lat": 12.9560897, "lon": 77.6055497, "tags": {"name": "Confident Propos", "tourism": "hotel"}}, {"type": "node", "id": 1851705414, "lat": 12.966478, "lon": 77.5964623}, {"type": "node", "id": 1851705424, "lat": 12.9664833, "lon": 77.59611}, {"type": "node", "id": 1851705428, "lat": 12.966573, "lon": 77.5964638}, {"type": "node", "id": 1851705429, "lat": 12.9665783, "lon": 77.5961115}, {"type": "node", "id": 1931886476, "lat": 12.9774012, "lon": 77.5758001}, {"type": "node", "id": 1931886479, "lat": 12.9776364, "lon": 77.5757953}, {"type": "node", "id": 1931886481, "lat": 12.9774056, "lon": 77.5760268}, {"type": "node", "id": 1931886487, "lat": 12.9776409, "lon": 77.576022}, {"type": "node", "id": 1931910416, "lat": 12.9813835, "lon": 77.5753478, "tags": {"name": "Hotel Tourist", "tourism": "hotel"}}, {"type": "node", "id": 1947653872, "lat": 12.9846947, "lon": 77.578478}, {"type": "node", "id": 1974872457, "lat": 12.9750295, "lon": 77.5703109, "tags": {"addr:city": "Bangalore", "addr:postcode": "560023", "addr:street": "Gubbi Thotadappa Road", "email": "resv@hotelcitycentaur.com", "fax": "+91-80-41419100", "name": "Hotel City Centaur International", "phone": "+91-80-41419191", "tourism": "hotel", "website": "https://www.hotelcitycentaur.com/index.html", "wheelchair": "limited"}}, {"type": "node", "id": 1974878572, "lat": 12.9744293, "lon": 77.5706029, "tags": {"addr:city": "Cottonpet, Bangalore", "addr:housenumber": "2/3", "addr:street": "Cottonpete Main Road", "name": "Sri Krishna Lodge", "phone": "+91-080-41221689", "tourism": "hotel"}}, {"type": "node", "id": 1974885227, "lat": 12.9738994, "lon": 77.5706296, "tags": {"addr:street": "Cottonpete Main Road", "name": "Sri Thirumala Lodge", "tourism": "hotel"}}, {"type": "node", "id": 2016215996, "lat": 12.975607, "lon": 77.5751762, "tags": {"name": "Shree Lodge", "tourism": "hotel"}}, {"type": "node", "id": 2019372526, "lat": 12.9666996, "lon": 77.5961979}, {"type": "node", "id": 2019372528, "lat": 12.9667498, "lon": 77.596194}, {"type": "node", "id": 2019372532, "lat": 12.9669429, "lon": 77.5964439}, {"type": "node", "id": 2019372535, "lat": 12.9667865, "lon": 77.5961912}, {"type": "node", "id": 2025970816, "lat": 12.9948734, "lon": 77.5852312}, {"type": "node", "id": 2034479472, "lat": 12.9894357, "lon": 77.5729477, "tags": {"addr:city": "Seshadripuram, Bangalore", "addr:postcode": "560020", "addr:street": "Subedar Chatram Road", "name": "Hotel Samrat Residency", "phone": "00918023560099, 23560930, 23563726, 23561725, 23468316, 23460822", "tourism": "hotel", "website": "www.samratresidency.co.in"}}, {"type": "node", "id": 2097547120, "lat": 12.979285, "lon": 77.5748279, "tags": {"name": "JP Cordial", "tourism": "hotel"}}, {"type": "node", "id": 2097548805, "lat": 12.9789865, "lon": 77.574935, "tags": {"name": "Rajaprakash", "tourism": "hotel"}}, {"type": "node", "id": 2097549605, "lat": 12.9805241, "lon": 77.5750066, "tags": {"check_date": "2024-02-29", "name": "Ksheera Sagar", "tourism": "hotel"}}, {"type": "node", "id": 2097549792, "lat": 12.979643, "lon": 77.5751455, "tags": {"designation": "General", "name": "Hotel Kapila", "tourism": "hotel"}}, {"type": "node", "id": 2189595249, "lat": 12.9803276, "lon": 77.586451}, {"type": "node", "id": 2189595251, "lat": 12.9805254, "lon": 77.5861039}, {"type": "node", "id": 2189648905, "lat": 12.9718711, "lon": 77.6085975}, {"type": "node", "id": 2189683201, "lat": 12.9721558, "lon": 77.5942907}, {"type": "node", "id": 2190068068, "lat": 12.9666561, "lon": 77.5957764}, {"type": "node", "id": 2190068070, "lat": 12.9666738, "lon": 77.5960181}, {"type": "node", "id": 2190068072, "lat": 12.966687, "lon": 77.5961989}, {"type": "node", "id": 2190068080, "lat": 12.9667553, "lon": 77.5957687}, {"type": "node", "id": 2190068084, "lat": 12.9667727, "lon": 77.5960025}, {"type": "node", "id": 2190068090, "lat": 12.9670324, "lon": 77.5957474}, {"type": "node", "id": 2190068091, "lat": 12.9671844, "lon": 77.5959708}, {"type": "node", "id": 2190068092, "lat": 12.9672036, "lon": 77.5962332}, {"type": "node", "id": 2190068096, "lat": 12.9672925, "lon": 77.5957273}, {"type": "node", "id": 2190068097, "lat": 12.9674504, "lon": 77.5957444}, {"type": "node", "id": 2190068098, "lat": 12.9674846, "lon": 77.5962115}, {"type": "node", "id": 2190068099, "lat": 12.9673904, "lon": 77.5957198}, {"type": "node", "id": 2190068100, "lat": 12.9673925, "lon": 77.5957488}, {"type": "node", "id": 2238856559, "lat": 12.9306091, "lon": 77.5853075, "tags": {"name": "The Royal Comfort", "tourism": "hotel"}}, {"type": "node", "id": 2247443567, "lat": 12.9857195, "lon": 77.5520611, "tags": {"name": "Shivas", "tourism": "hotel", "wheelchair": "no"}}, {"type": "node", "id": 2247460567, "lat": 12.9870577, "lon": 77.572403, "tags": {"name": "Hotel Blue Diamond", "tourism": "hotel"}}, {"type": "node", "id": 2249046277, "lat": 12.9881972, "lon": 77.5494003, "tags": {"name": "Suvali", "tourism": "hotel"}}, {"type": "node", "id": 2249047641, "lat": 12.9959438, "lon": 77.5548935, "tags": {"name": "Cafe Coffee Day", "name:kn": "\u0c95\u0cab\u0cc6 \u0c95\u0cbe\u0cab\u0cbf \u0ca1\u0cc7", "tourism": "hotel"}}, {"type": "node", "id": 2249048504, "lat": 12.9917517, "lon": 77.5576615, "tags": {"name": "Mallika Residency", "tourism": "hotel"}}, {"type": "node", "id": 2255802680, "lat": 12.9462042, "lon": 77.5735669}, {"type": "node", "id": 2255802681, "lat": 12.9462018, "lon": 77.5732933}, {"type": "node", "id": 2255802682, "lat": 12.946094, "lon": 77.5735679}, {"type": "node", "id": 2255802683, "lat": 12.9460917, "lon": 77.5732943}, {"type": "node", "id": 2344648079, "lat": 12.9633735, "lon": 77.5898343, "tags": {"name": "Hotel Vintage Residency", "tourism": "hotel"}}, {"type": "node", "id": 2489009760, "lat": 13.0146662, "lon": 77.5542209}, {"type": "node", "id": 2489009761, "lat": 13.0146674, "lon": 77.5543341}, {"type": "node", "id": 2489009762, "lat": 13.0140175, "lon": 77.5543615}, {"type": "node", "id": 2489009763, "lat": 13.0140125, "lon": 77.5542329}, {"type": "node", "id": 2496916038, "lat": 12.9796492, "lon": 77.6070313, "tags": {"addr:city": "Bangalore", "addr:housename": "Safina Plaza", "addr:street": "Main Guard Cross Road", "name": "Hotel Safina", "tourism": "hotel"}}, {"type": "node", "id": 2513569166, "lat": 12.9786599, "lon": 77.5740904, "tags": {"addr:city": "Gandhi Nagar, Bangalore", "addr:street": "4th Cross", "name": "Rajath Lodge", "tourism": "hotel", "wheelchair": "yes"}}, {"type": "node", "id": 2513569256, "lat": 12.9772171, "lon": 77.5766278, "tags": {"addr:city": "Gandhi Nagar, Bangalore", "addr:housename": "Opp Gubbi Veeranna Nataka", "addr:street": "2nd Cross Road", "name": "Sajjan Lodge", "tourism": "hotel"}}, {"type": "node", "id": 2518837260, "lat": 12.9290137, "lon": 77.6276776, "tags": {"name": "Grand Mercure", "phone": "080 45121212", "tourism": "hotel"}}, {"type": "node", "id": 2536347654, "lat": 12.9937001, "lon": 77.571322, "tags": {"name": "The Basil", "tourism": "hotel"}}, {"type": "node", "id": 2577099281, "lat": 12.9797725, "lon": 77.5747917, "tags": {"name": "Sandhya Lodge", "tourism": "hotel"}}, {"type": "node", "id": 2595576199, "lat": 12.9770921, "lon": 77.5795669, "tags": {"name": "Hotel Grand Inn", "name:kn": "\u0c97\u0ccd\u0cb0\u0cbe\u0c82\u0ca1\u0ccd \u0c87\u0ca8\u0ccd", "tourism": "hotel"}}, {"type": "node", "id": 2769186086, "lat": 12.9672916, "lon": 77.593568}, {"type": "node", "id": 2769186088, "lat": 12.9668022, "lon": 77.5937663}, {"type": "node", "id": 2769186093, "lat": 12.9674661, "lon": 77.5939741}, {"type": "node", "id": 2769186096, "lat": 12.967578, "lon": 77.5936157}, {"type": "node", "id": 2769186098, "lat": 12.9673569, "lon": 77.5941192}, {"type": "node", "id": 2769186099, "lat": 12.9667688, "lon": 77.5933937}, {"type": "node", "id": 2771736630, "lat": 12.9801755, "lon": 77.6049823, "tags": {"name": "The Monarch Luxor Hotel", "tourism": "hotel"}}, {"type": "node", "id": 3173482714, "lat": 13.0108784, "lon": 77.5788998, "tags": {"addr:city": "Bangalore", "addr:housenumber": "137-7", "addr:postcode": "560080", "addr:street": "9th Main Road, 6th A Cross Street, Sadashivnagar", "name": "Chevron Orchards Hotel", "operator": "The Chevron Hotels", "tourism": "hotel", "website": "https://www.thechevronhotels.com/orchards/"}}, {"type": "node", "id": 3277990508, "lat": 12.9731115, "lon": 77.5701532, "tags": {"addr:street": "Old Taluk Cutchery Road", "name": "Signature Inn", "tourism": "hotel"}}, {"type": "node", "id": 3323783324, "lat": 12.9829115, "lon": 77.5962207}, {"type": "node", "id": 3323783326, "lat": 12.9826705, "lon": 77.5963253}, {"type": "node", "id": 3323783327, "lat": 12.9827297, "lon": 77.5961544}, {"type": "node", "id": 3323783331, "lat": 12.9835023, "lon": 77.5935801}, {"type": "node", "id": 3323783336, "lat": 12.9828522, "lon": 77.5963917}, {"type": "node", "id": 3323783337, "lat": 12.9836047, "lon": 77.5932733}, {"type": "node", "id": 3323783342, "lat": 12.9837158, "lon": 77.5934211}, {"type": "node", "id": 3323783343, "lat": 12.9836459, "lon": 77.5936306}, {"type": "node", "id": 3323783351, "lat": 12.9838389, "lon": 77.5934643}, {"type": "node", "id": 3323783353, "lat": 12.9838714, "lon": 77.593367}, {"type": "node", "id": 3323824643, "lat": 12.9825833, "lon": 77.5943028}, {"type": "node", "id": 3323824663, "lat": 12.9821764, "lon": 77.5943304}, {"type": "node", "id": 3343584522, "lat": 12.9749544, "lon": 77.603301}, {"type": "node", "id": 3343584529, "lat": 12.9750206, "lon": 77.6030367}, {"type": "node", "id": 3343584531, "lat": 12.9750688, "lon": 77.6032451}, {"type": "node", "id": 3343584532, "lat": 12.9751147, "lon": 77.6030615}, {"type": "node", "id": 3343584533, "lat": 12.9750947, "lon": 77.603338}, {"type": "node", "id": 3343584534, "lat": 12.9751149, "lon": 77.6032573}, {"type": "node", "id": 3352558447, "lat": 12.953483, "lon": 77.639703}, {"type": "node", "id": 3358874233, "lat": 12.969106, "lon": 77.6003385}, {"type": "node", "id": 3358874247, "lat": 12.9691805, "lon": 77.5999555}, {"type": "node", "id": 3358874252, "lat": 12.9692635, "lon": 77.6003707}, {"type": "node", "id": 3358874259, "lat": 12.969338, "lon": 77.5999877}, {"type": "node", "id": 3369898735, "lat": 12.9786, "lon": 77.6369051}, {"type": "node", "id": 3369898736, "lat": 12.9786011, "lon": 77.6370704}, {"type": "node", "id": 3369898751, "lat": 12.9786553, "lon": 77.6368796}, {"type": "node", "id": 3369898752, "lat": 12.9786554, "lon": 77.6369047}, {"type": "node", "id": 3369898753, "lat": 12.9786964, "lon": 77.6368793}, {"type": "node", "id": 3369898754, "lat": 12.9786966, "lon": 77.6369044}, {"type": "node", "id": 3369898757, "lat": 12.9787463, "lon": 77.6369041}, {"type": "node", "id": 3369898758, "lat": 12.9787473, "lon": 77.6370694}, {"type": "node", "id": 3370028971, "lat": 12.9783904, "lon": 77.6373978, "tags": {"name": "Shalimar", "tourism": "hotel"}}, {"type": "node", "id": 3370028975, "lat": 12.9786767, "lon": 77.6368794, "tags": {"entrance": "main"}}, {"type": "node", "id": 3374298878, "lat": 12.9787061, "lon": 77.6369437, "tags": {"name": "The Himalayan Inn", "tourism": "hotel"}}, {"type": "node", "id": 3383983589, "lat": 12.9791968, "lon": 77.6376018}, {"type": "node", "id": 3383983590, "lat": 12.9792, "lon": 77.6378008}, {"type": "node", "id": 3383983592, "lat": 12.9793293, "lon": 77.6375996}, {"type": "node", "id": 3383984494, "lat": 12.9793325, "lon": 77.6377986}, {"type": "node", "id": 3384460248, "lat": 12.9728174, "lon": 77.5952576}, {"type": "node", "id": 3386077021, "lat": 12.9654022, "lon": 77.5991222}, {"type": "node", "id": 3386077025, "lat": 12.966392, "lon": 77.5986167}, {"type": "node", "id": 3386077035, "lat": 12.9657445, "lon": 77.599154}, {"type": "node", "id": 3386077056, "lat": 12.9652151, "lon": 77.5989263}, {"type": "node", "id": 3386077064, "lat": 12.9660443, "lon": 77.5981904}, {"type": "node", "id": 3386077073, "lat": 12.965237, "lon": 77.5990898}, {"type": "node", "id": 3386128910, "lat": 12.9682933, "lon": 77.6011177}, {"type": "node", "id": 3386128922, "lat": 12.9669701, "lon": 77.6018023}, {"type": "node", "id": 3386128951, "lat": 12.9674073, "lon": 77.6025486}, {"type": "node", "id": 3389094351, "lat": 12.9830426, "lon": 77.6401968, "tags": {"addr:housenumber": "648B", "name": "Regenta Inn", "tourism": "hotel", "website": "https://www.royalorchidhotels.com/regenta-inn-indiranagar-bangalore/overview"}}, {"type": "node", "id": 3395155126, "lat": 12.9710736, "lon": 77.600577}, {"type": "node", "id": 3395155248, "lat": 12.9713451, "lon": 77.6006478}, {"type": "node", "id": 3395155289, "lat": 12.9710241, "lon": 77.600777}, {"type": "node", "id": 3395155292, "lat": 12.9712956, "lon": 77.6008478}, {"type": "node", "id": 3404808722, "lat": 12.9690068, "lon": 77.6141099}, {"type": "node", "id": 3404808723, "lat": 12.9691598, "lon": 77.6143896}, {"type": "node", "id": 3404808724, "lat": 12.9688672, "lon": 77.61455}, {"type": "node", "id": 3404808725, "lat": 12.9688599, "lon": 77.6142043}, {"type": "node", "id": 3524959852, "lat": 12.9430746, "lon": 77.5847159}, {"type": "node", "id": 3524959854, "lat": 12.9430704, "lon": 77.5850519}, {"type": "node", "id": 3524959868, "lat": 12.9432009, "lon": 77.5850536}, {"type": "node", "id": 3525162392, "lat": 12.9655765, "lon": 77.5901245}, {"type": "node", "id": 3525179939, "lat": 12.9393646, "lon": 77.6285719}, {"type": "node", "id": 3525179955, "lat": 12.9393976, "lon": 77.6287741}, {"type": "node", "id": 3525179991, "lat": 12.9395487, "lon": 77.6287481}, {"type": "node", "id": 3525180221, "lat": 12.9403018, "lon": 77.6269551}, {"type": "node", "id": 3525180234, "lat": 12.9403314, "lon": 77.6270356}, {"type": "node", "id": 3525180245, "lat": 12.9404332, "lon": 77.6269044}, {"type": "node", "id": 3525180255, "lat": 12.9404627, "lon": 77.6269848}, {"type": "node", "id": 3525622601, "lat": 12.9795437, "lon": 77.6039659}, {"type": "node", "id": 3525622603, "lat": 12.9796078, "lon": 77.6036948}, {"type": "node", "id": 3525622604, "lat": 12.9796469, "lon": 77.6039916}, {"type": "node", "id": 3525622605, "lat": 12.9797198, "lon": 77.6037274}, {"type": "node", "id": 3525639562, "lat": 12.9521913, "lon": 77.6397261}, {"type": "node", "id": 3525639564, "lat": 12.9522315, "lon": 77.6396542}, {"type": "node", "id": 3525639568, "lat": 12.9523284, "lon": 77.6399732}, {"type": "node", "id": 3525639572, "lat": 12.9523983, "lon": 77.6398483}, {"type": "node", "id": 3525639577, "lat": 12.9524557, "lon": 77.6400483}, {"type": "node", "id": 3525639582, "lat": 12.952566, "lon": 77.6398514}, {"type": "node", "id": 3532895584, "lat": 12.9858557, "lon": 77.5953333}, {"type": "node", "id": 3532895587, "lat": 12.9859357, "lon": 77.5952188}, {"type": "node", "id": 3532895591, "lat": 12.9861333, "lon": 77.5955377}, {"type": "node", "id": 3532895695, "lat": 12.9862134, "lon": 77.5954232}, {"type": "node", "id": 3534753688, "lat": 12.9839002, "lon": 77.5779464}, {"type": "node", "id": 3534754404, "lat": 12.984005, "lon": 77.5780941}, {"type": "node", "id": 3534754429, "lat": 12.9840789, "lon": 77.5778128}, {"type": "node", "id": 3534754454, "lat": 12.9841838, "lon": 77.5779605}, {"type": "node", "id": 3535448357, "lat": 12.9739749, "lon": 77.5756236}, {"type": "node", "id": 3535448362, "lat": 12.9740058, "lon": 77.5754773}, {"type": "node", "id": 3535448387, "lat": 12.9742293, "lon": 77.5756803}, {"type": "node", "id": 3535448389, "lat": 12.9742602, "lon": 77.575534}, {"type": "node", "id": 3535449779, "lat": 12.9769571, "lon": 77.5787097}, {"type": "node", "id": 3535449783, "lat": 12.9769623, "lon": 77.5785501}, {"type": "node", "id": 3535450133, "lat": 12.9771846, "lon": 77.5787175}, {"type": "node", "id": 3535450137, "lat": 12.9771899, "lon": 77.578558}, {"type": "node", "id": 3535630526, "lat": 12.9786996, "lon": 77.5776755}, {"type": "node", "id": 3535630528, "lat": 12.9787064, "lon": 77.5775578}, {"type": "node", "id": 3535630584, "lat": 12.9788924, "lon": 77.5776873}, {"type": "node", "id": 3535630586, "lat": 12.9788992, "lon": 77.5775696}, {"type": "node", "id": 3535630766, "lat": 12.9789413, "lon": 77.5639168}, {"type": "node", "id": 3535630770, "lat": 12.9789726, "lon": 77.5642589}, {"type": "node", "id": 3535631005, "lat": 12.9790894, "lon": 77.5639025}, {"type": "node", "id": 3535631013, "lat": 12.9791207, "lon": 77.5642447}, {"type": "node", "id": 3537816356, "lat": 12.9368971, "lon": 77.5805275}, {"type": "node", "id": 3537816357, "lat": 12.9369058, "lon": 77.5807209}, {"type": "node", "id": 3537816703, "lat": 12.9374783, "lon": 77.5805187}, {"type": "node", "id": 3537816704, "lat": 12.9375001, "lon": 77.5807269}, {"type": "node", "id": 3553063539, "lat": 12.9853422, "lon": 77.5792984}, {"type": "node", "id": 3553063540, "lat": 12.9854131, "lon": 77.5791571}, {"type": "node", "id": 3553063541, "lat": 12.9855202, "lon": 77.5793925}, {"type": "node", "id": 3553063543, "lat": 12.9855911, "lon": 77.5792511}, {"type": "node", "id": 3563098273, "lat": 12.9651008, "lon": 77.6020405}, {"type": "node", "id": 3563098274, "lat": 12.9651228, "lon": 77.601904}, {"type": "node", "id": 3563098275, "lat": 12.9653814, "lon": 77.6020881}, {"type": "node", "id": 3563098276, "lat": 12.9654034, "lon": 77.6019515}, {"type": "node", "id": 3579617921, "lat": 12.9845542, "lon": 77.5784082}, {"type": "node", "id": 3579617924, "lat": 12.9846556, "lon": 77.5781932}, {"type": "node", "id": 3579617925, "lat": 12.9848426, "lon": 77.5785514}, {"type": "node", "id": 3579617927, "lat": 12.984944, "lon": 77.5783364}, {"type": "node", "id": 3599854445, "lat": 12.964437, "lon": 77.5950567}, {"type": "node", "id": 3599854462, "lat": 12.9645082, "lon": 77.594692}, {"type": "node", "id": 3599854469, "lat": 12.9646162, "lon": 77.5950935}, {"type": "node", "id": 3599854470, "lat": 12.9646873, "lon": 77.5947288}, {"type": "node", "id": 3611815582, "lat": 12.9344183, "lon": 77.626046, "tags": {"addr:city": "Bengaluru", "addr:housenumber": "8", "addr:postcode": "560034", "addr:street": "8th Main, 4th Block, Koramangala", "name": "Mango Hotels", "phone": "+918060009696", "tourism": "hotel"}}, {"type": "node", "id": 3618097094, "lat": 12.979241, "lon": 77.637434, "tags": {"name": "City Centre Residency", "tourism": "hotel"}}, {"type": "node", "id": 3667329364, "lat": 12.9704558, "lon": 77.6073052}, {"type": "node", "id": 3710165701, "lat": 12.9474456, "lon": 77.5987375, "tags": {"name": "Sahana hotel", "tourism": "hotel"}}, {"type": "node", "id": 3760637874, "lat": 12.9759033, "lon": 77.6022279, "tags": {"name": "Sri Lakshmi Comforts", "tourism": "hotel"}}, {"type": "node", "id": 3785874885, "lat": 12.9748638, "lon": 77.6151846}, {"type": "node", "id": 3785874886, "lat": 12.9747997, "lon": 77.6153718}, {"type": "node", "id": 3785874887, "lat": 12.9751671, "lon": 77.6154898}, {"type": "node", "id": 3785874888, "lat": 12.9752321, "lon": 77.6153045}, {"type": "node", "id": 3785874890, "lat": 12.9751004, "lon": 77.6152653}, {"type": "node", "id": 3785874891, "lat": 12.9749326, "lon": 77.6152081}, {"type": "node", "id": 3815203595, "lat": 12.9726356, "lon": 77.6078023}, {"type": "node", "id": 3815203596, "lat": 12.9727018, "lon": 77.6079204}, {"type": "node", "id": 3815203597, "lat": 12.9728583, "lon": 77.6079301}, {"type": "node", "id": 3815203598, "lat": 12.9728766, "lon": 77.6080108}, {"type": "node", "id": 3815203599, "lat": 12.9729775, "lon": 77.6079865}, {"type": "node", "id": 3815203600, "lat": 12.9729445, "lon": 77.6078145}, {"type": "node", "id": 3852083745, "lat": 12.9660577, "lon": 77.5948439}, {"type": "node", "id": 3852083746, "lat": 12.9662182, "lon": 77.5949397}, {"type": "node", "id": 3852083749, "lat": 12.9662572, "lon": 77.5949681}, {"type": "node", "id": 3852083750, "lat": 12.9662776, "lon": 77.594982}, {"type": "node", "id": 3852083751, "lat": 12.9663127, "lon": 77.5949281}, {"type": "node", "id": 3852083752, "lat": 12.9662976, "lon": 77.5949178}, {"type": "node", "id": 3852083753, "lat": 12.9663668, "lon": 77.5948117}, {"type": "node", "id": 3852083754, "lat": 12.9662767, "lon": 77.5947498}, {"type": "node", "id": 3852083755, "lat": 12.9662524, "lon": 77.594787}, {"type": "node", "id": 3852083756, "lat": 12.9661897, "lon": 77.5947439}, {"type": "node", "id": 3852087157, "lat": 12.9661764, "lon": 77.5947643}, {"type": "node", "id": 3852087158, "lat": 12.9661319, "lon": 77.5947337}, {"type": "node", "id": 3883857999, "lat": 12.9748475, "lon": 77.6387102}, {"type": "node", "id": 3883858000, "lat": 12.9748518, "lon": 77.638841}, {"type": "node", "id": 3883858002, "lat": 12.9749719, "lon": 77.638706}, {"type": "node", "id": 3883858003, "lat": 12.9749762, "lon": 77.6388368}, {"type": "node", "id": 3883874690, "lat": 12.9748487, "lon": 77.6387443}, {"type": "node", "id": 3884267693, "lat": 12.9749128, "lon": 77.638708, "tags": {"entrance": "main"}}, {"type": "node", "id": 3959946664, "lat": 12.9707119, "lon": 77.6072217, "tags": {"internet_access": "wlan", "internet_access:fee": "no", "name": "Iris Business Hotel", "tourism": "hotel"}}, {"type": "node", "id": 3995056439, "lat": 12.9911278, "lon": 77.5800426}, {"type": "node", "id": 4127937388, "lat": 12.9961751, "lon": 77.5959984}, {"type": "node", "id": 4209231273, "lat": 12.9869043, "lon": 77.6170727}, {"type": "node", "id": 4209231279, "lat": 12.9872307, "lon": 77.6172883}, {"type": "node", "id": 4209231281, "lat": 12.9872833, "lon": 77.6164715}, {"type": "node", "id": 4209231286, "lat": 12.9876092, "lon": 77.6166878}, {"type": "node", "id": 4307596343, "lat": 12.9671986, "lon": 77.6066888, "tags": {"name": "Stylotel", "tourism": "hotel"}}, {"type": "node", "id": 4337897246, "lat": 12.9641301, "lon": 77.570664, "tags": {"description": "24 hours rent", "name": "Vardhaman Paradise", "tourism": "hotel"}}, {"type": "node", "id": 4353477851, "lat": 12.9914655, "lon": 77.5884667}, {"type": "node", "id": 4353477853, "lat": 12.9915452, "lon": 77.5878176}, {"type": "node", "id": 4353477864, "lat": 12.9920881, "lon": 77.5878954}, {"type": "node", "id": 4353477876, "lat": 12.9925365, "lon": 77.5879424}, {"type": "node", "id": 4353478719, "lat": 12.9938125, "lon": 77.5862324}, {"type": "node", "id": 4353478736, "lat": 12.9944789, "lon": 77.5861278}, {"type": "node", "id": 4353493473, "lat": 12.9870501, "lon": 77.5837866, "tags": {"access": "private", "barrier": "gate", "name": "Taj West End - Back Gate"}}, {"type": "node", "id": 4353494044, "lat": 12.9925168, "lon": 77.5807473}, {"type": "node", "id": 4490059112, "lat": 12.9395173, "lon": 77.6285566}, {"type": "node", "id": 4496746595, "lat": 12.9947303, "lon": 77.5852505, "tags": {"access": "private", "barrier": "gate", "entrance": "main"}}, {"type": "node", "id": 4496746599, "lat": 12.9946738, "lon": 77.5852594, "tags": {"access": "private", "barrier": "lift_gate"}}, {"type": "node", "id": 4506230395, "lat": 12.9725982, "lon": 77.5794076, "tags": {"name": "TAP Paradise Hotel", "name:en": "TAP Paradise Hotel", "tourism": "hotel"}}, {"type": "node", "id": 4558466455, "lat": 12.9316906, "lon": 77.5555034, "tags": {"fast_food": "regional", "food": "veg", "name": "Sankethi's", "operator": "Sankethi Ventures", "smoking": "no", "tourism": "hotel"}}, {"type": "node", "id": 4580594297, "lat": 12.9701227, "lon": 77.5794148, "tags": {"internet_access": "wlan", "name": "Hotel Tap Comfort", "name:en": "Hotel Tap Comfort", "tourism": "hotel"}}, {"type": "node", "id": 4584019109, "lat": 12.9730281, "lon": 77.5692897, "tags": {"addr:housenumber": "453/1", "addr:postcode": "560053", "addr:street": "Old Taluk Cutchery Road", "name": "UG Regal - Budget Hotel", "name:en": "UG Regal - Budget Hotel", "name:ru": "UG Regal - Budget Hotel", "tourism": "hotel"}}, {"type": "node", "id": 4584108394, "lat": 12.9735897, "lon": 77.5767585, "tags": {"tourism": "hotel"}}, {"type": "node", "id": 4605748243, "lat": 13.0105439, "lon": 77.5504232, "tags": {"addr:city": "Bengaluru", "addr:housenumber": "149/A, R Block", "addr:postcode": "560010", "addr:street": "Chord Road", "internet_access": "yes", "internet_access:fee": "yes", "name": "Hotel Vande Matharam", "tourism": "hotel"}}, {"type": "node", "id": 4607350915, "lat": 12.9805787, "lon": 77.571467, "tags": {"name": "Sheetal Residency", "tourism": "hotel"}}, {"type": "node", "id": 4680181139, "lat": 12.9456273, "lon": 77.5952951, "tags": {"addr:city": "Bengaluru", "addr:full": "2, Arekempenahally, Near Brand Factory, Wilson Garden, Bangalore, 560027", "addr:housenumber": "2", "addr:postcode": "560027", "addr:street": "Arekempenahally", "brand": "Revoli Inn", "email": "hotelempark@gmail.com", "internet_access": "wlan", "internet_access:fee": "customers", "name": "Hotel Empark", "opening_hours": "24/7", "phone": "+91 8904022661", "rooms": "24", "tourism": "hotel", "website": "https://www.emparkinternational.com"}}, {"type": "node", "id": 4685633711, "lat": 12.9673121, "lon": 77.5934379}, {"type": "node", "id": 4685633716, "lat": 12.9675449, "lon": 77.5937858}, {"type": "node", "id": 4697854892, "lat": 12.984291, "lon": 77.5543158, "tags": {"name": "Canara Coffee", "name:en": "Canara coffee", "opening_hours": "Mo-Su 07:00-22:00", "tourism": "hotel"}}, {"type": "node", "id": 4702962189, "lat": 12.9798988, "lon": 77.5759082, "tags": {"addr:street": "5th Cross Road", "internet_access": "wlan", "name": "Suntruppati", "tourism": "hotel"}}, {"type": "node", "id": 4703445290, "lat": 12.9391683, "lon": 77.5715609, "tags": {"addr:street": "DVG Road", "name": "Anand Sagar", "name:en": "Anand Sagar", "tourism": "hotel"}}, {"type": "node", "id": 4737582021, "lat": 12.9690356, "lon": 77.6066442, "tags": {"name": "Fab Hotel Legacy Brigade Road", "name:en": "Fab Hotel Legacy Brigade Road", "tourism": "hotel", "website": "https://www.fabhotels.com/hotels-in-bangalore/fabhotel-legacy-brigade-road.html"}}, {"type": "node", "id": 4763198525, "lat": 12.9777748, "lon": 77.574757, "tags": {"name": "Mayur Comfor Lodge", "tourism": "hotel"}}, {"type": "node", "id": 4763212044, "lat": 12.978436, "lon": 77.5753365, "tags": {"addr:housenumber": "251", "addr:street": "Subedar Chatram road", "check_date": "2024-02-29", "name": "Royal Regency Lodge", "phone": "080-41130202", "tourism": "hotel"}}, {"type": "node", "id": 4763212764, "lat": 12.9776892, "lon": 77.5747972, "tags": {"name": "Pushpamala lodge", "tourism": "hotel"}}, {"type": "node", "id": 4763212766, "lat": 12.9782866, "lon": 77.5753838, "tags": {"check_date": "2024-02-29", "name": "Royal Lodge", "tourism": "hotel"}}, {"type": "node", "id": 4763212998, "lat": 12.9777193, "lon": 77.5748871, "tags": {"name": "Manjusri Paradise Lodge", "phone": "9880701649", "tourism": "hotel"}}, {"type": "node", "id": 4772970426, "lat": 12.9321765, "lon": 77.623039, "tags": {"name": "Anjappar Chettinad Restuarant Koramangala", "name:en": "Anjappar", "tourism": "hotel"}}, {"type": "node", "id": 4809112923, "lat": 12.9736357, "lon": 77.6218548, "tags": {"brand": "Hyatt", "brand:wikidata": "Q1425063", "name": "Hyatt", "tourism": "hotel", "website": "https://bangalore.hyatthotels.hyatt.com/en/hotel/home.html"}}, {"type": "node", "id": 4841000224, "lat": 12.9454272, "lon": 77.5950799, "tags": {"name": "Hotel Dreams inn", "tourism": "hotel"}}, {"type": "node", "id": 4843100423, "lat": 12.9455189, "lon": 77.5951301, "tags": {"name": "Dreams inn", "name:en": "Dreams inn", "tourism": "hotel"}}, {"type": "node", "id": 4843100424, "lat": 12.949295, "lon": 77.5931079, "tags": {"name": "AMM Residency", "name:en": "AMM Residency", "tourism": "hotel"}}, {"type": "node", "id": 4846787923, "lat": 12.9711154, "lon": 77.6058262, "tags": {"name": "Hotel Imperial", "name:en": "Hotel Imperial", "tourism": "hotel"}}, {"type": "node", "id": 4847845825, "lat": 12.9359094, "lon": 77.5927065, "tags": {"name": "Limra", "name:en": "Limra", "tourism": "hotel"}}, {"type": "node", "id": 4849094829, "lat": 12.9352918, "lon": 77.6091731, "tags": {"name": "Blue bells", "name:en": "Blue bells", "tourism": "hotel"}}, {"type": "node", "id": 4849108629, "lat": 12.9470874, "lon": 77.5941987, "tags": {"name": "Supreme", "name:en": "Supreme", "tourism": "hotel"}}, {"type": "node", "id": 5168560648, "lat": 12.980358, "lon": 77.5737339, "tags": {"name": "Rajmahal Boarding and Lodge", "tourism": "hotel"}}, {"type": "node", "id": 5229482747, "lat": 12.9804313, "lon": 77.5765457, "tags": {"name": "The Rialto Hotel", "tourism": "hotel"}}, {"type": "node", "id": 5258929721, "lat": 12.975729, "lon": 77.5992456, "tags": {"addr:housenumber": "A10/6", "addr:postcode": "560001", "addr:street": "Lavelle Road", "name": "The Chancery Hotel", "tourism": "hotel", "wheelchair": "limited"}}, {"type": "node", "id": 5261452101, "lat": 12.9744204, "lon": 77.5709781, "tags": {"name": "Hotel Adarsha Palace", "tourism": "hotel"}}, {"type": "node", "id": 5269220027, "lat": 13.0108921, "lon": 77.5505079, "tags": {"email": "stay@minlahotels.com", "internet_access": "wlan", "internet_access:fee": "no", "name": "Minla Hotel", "phone": "+91 781 687 7542", "phone_1": "+91 781 687 7541", "stars": "3", "tourism": "hotel", "website": "http://www.minlahotels.com/"}}, {"type": "node", "id": 5273601824, "lat": 12.9923067, "lon": 77.5944585, "tags": {"name": "Ujval", "tourism": "hotel"}}, {"type": "node", "id": 5273606322, "lat": 12.9948258, "lon": 77.5970478, "tags": {"check_date": "2024-01-21", "name": "Jayamahal Palace", "source": "survey", "tourism": "hotel"}}, {"type": "node", "id": 5316624114, "lat": 12.9698386, "lon": 77.6066965, "tags": {"addr:city": "Bangalore", "addr:housenumber": "72", "addr:postcode": "560025", "addr:street": "Brigade Road", "name": "Ocea International", "phone": "080 40636261", "tourism": "hotel"}}, {"type": "node", "id": 5349525425, "lat": 12.9272923, "lon": 77.6161593, "tags": {"name": "Comfy", "tourism": "hotel"}}, {"type": "node", "id": 5365860855, "lat": 12.9669657, "lon": 77.6068192, "tags": {"addr:street": "126, Brigade Towers, Brigade Road, Ashok Nagar, Bengaluru, Karnataka 560025, India", "name": "Hotel Vellara", "phone": "+91 80 2536 9116", "tourism": "hotel"}}, {"type": "node", "id": 5402307935, "lat": 12.9803587, "lon": 77.5717968, "tags": {"name": "Hotel Kaveri", "tourism": "hotel"}}, {"type": "node", "id": 5409690041, "lat": 12.9773082, "lon": 77.5750587, "tags": {"name": "Grand Suites", "tourism": "hotel"}}, {"type": "node", "id": 5455464021, "lat": 12.9599897, "lon": 77.5565132, "tags": {"addr:street": "Mysore Road", "internet_access": "wlan", "name": "Benhur Pride", "opening_hours": "24/7", "tourism": "hotel"}}, {"type": "node", "id": 5623550266, "lat": 12.9878823, "lon": 77.5558068, "tags": {"name": "Vajra Heritage", "tourism": "hotel"}}, {"type": "node", "id": 5922608011, "lat": 12.9742409, "lon": 77.575254, "tags": {"name": "Hotel Mahalakshmi", "name:kn": "\u0cae\u0cb9\u0cbe\u0cb2\u0c95\u0ccd\u0cb7\u0ccd\u0cae\u0cbf", "tourism": "hotel"}}, {"type": "node", "id": 5922659262, "lat": 12.997393, "lon": 77.5500353, "tags": {"name": "MySpace Express Balaji Residency", "tourism": "hotel"}}, {"type": "node", "id": 5922660391, "lat": 12.9899117, "lon": 77.5532573, "tags": {"name": "Sri Devi Lodge", "tourism": "hotel"}}, {"type": "node", "id": 5922660396, "lat": 12.9899326, "lon": 77.5527397, "tags": {"name": "Aryan Residency", "tourism": "hotel"}}, {"type": "node", "id": 6021741320, "lat": 12.9665839, "lon": 77.5954372}, {"type": "node", "id": 6240954285, "lat": 12.9716633, "lon": 77.5726981, "tags": {"name": "Lalithamahal", "tourism": "hotel"}}, {"type": "node", "id": 6418988788, "lat": 12.9711847, "lon": 77.5763869, "tags": {"addr:street": "B.V.K. Iyengar Road", "name": "Madhu Lodge", "tourism": "hotel"}}, {"type": "node", "id": 6487165544, "lat": 12.9735807, "lon": 77.5794876, "tags": {"addr:city": "Bangalore", "addr:country": "IN", "addr:housenumber": "9, 12", "addr:postcode": "560009", "addr:street": "Kempe Gowda Road", "email": "book@hotelbangaloregate.com", "name": "Hotel Bangalore Gate", "phone": "+91-9945333999", "rooms": "81", "tourism": "hotel", "website": "https://www.hotelbangaloregate.com"}}, {"type": "node", "id": 6584009963, "lat": 12.9727609, "lon": 77.6073763, "tags": {"name": "Monarch Hotel", "tourism": "hotel"}}, {"type": "node", "id": 6698387556, "lat": 12.9703492, "lon": 77.6075091}, {"type": "node", "id": 6788643755, "lat": 12.9764637, "lon": 77.6196256, "tags": {"air_conditioning": "yes", "brand": "Radisson", "brand:wikidata": "Q1751979", "internet_access": "wlan", "internet_access:fee": "no", "name": "Radisson City Center", "operator": "Radisson", "stars": "4", "tourism": "hotel", "wheelchair": "yes"}}, {"type": "node", "id": 6808473960, "lat": 12.9372838, "lon": 77.6196276, "tags": {"tourism": "hotel"}}, {"type": "node", "id": 7156536794, "lat": 12.98714, "lon": 77.5494285, "tags": {"name": "Naidu Palace", "tourism": "hotel"}}, {"type": "node", "id": 7231990190, "lat": 12.9732799, "lon": 77.619413}, {"type": "node", "id": 7236205665, "lat": 12.9883253, "lon": 77.5497463, "tags": {"name": "H K Residency", "tourism": "hotel"}}, {"type": "node", "id": 7236205667, "lat": 12.9902802, "lon": 77.5504638, "tags": {"name": "Navya Residency", "tourism": "hotel"}}, {"type": "node", "id": 7236205678, "lat": 12.996571, "lon": 77.5508266, "tags": {"name": "The Grand Coral", "tourism": "hotel"}}, {"type": "node", "id": 7276500291, "lat": 12.9796338, "lon": 77.5787123}, {"type": "node", "id": 7276500292, "lat": 12.9796721, "lon": 77.578178}, {"type": "node", "id": 7276500293, "lat": 12.9803467, "lon": 77.5782291}, {"type": "node", "id": 7276500294, "lat": 12.9803083, "lon": 77.5787634}, {"type": "node", "id": 7292235611, "lat": 12.9899013, "lon": 77.5533586, "tags": {"name": "Mathrushree Residency", "tourism": "hotel"}}, {"type": "node", "id": 7293719499, "lat": 12.9656219, "lon": 77.5898294}, {"type": "node", "id": 7301357909, "lat": 12.9924782, "lon": 77.5984472, "tags": {"name": "Kengiri", "tourism": "hotel"}}, {"type": "node", "id": 7301358042, "lat": 12.9893588, "lon": 77.5952729}, {"type": "node", "id": 7301358043, "lat": 12.9891329, "lon": 77.5950625}, {"type": "node", "id": 7301358044, "lat": 12.9895755, "lon": 77.5945306}, {"type": "node", "id": 7301358089, "lat": 12.983268, "lon": 77.5941621, "tags": {"name": "The Chevron", "tourism": "hotel"}}, {"type": "node", "id": 7301358131, "lat": 12.9908487, "lon": 77.5798957}, {"type": "node", "id": 7301358132, "lat": 12.9905965, "lon": 77.5797844}, {"type": "node", "id": 7301358166, "lat": 12.9845137, "lon": 77.58567}, {"type": "node", "id": 7301358171, "lat": 12.9840234, "lon": 77.5859638}, {"type": "node", "id": 7301358172, "lat": 12.9844863, "lon": 77.5860715}, {"type": "node", "id": 7301358177, "lat": 12.9864149, "lon": 77.5854902}, {"type": "node", "id": 7395562811, "lat": 12.967664, "lon": 77.5952218}, {"type": "node", "id": 7395562812, "lat": 12.9675681, "lon": 77.5957278}, {"type": "node", "id": 7436576271, "lat": 12.9536755, "lon": 77.6390347}, {"type": "node", "id": 8196826662, "lat": 12.9899167, "lon": 77.5735756, "tags": {"addr:full": "140, 2nd Cross Rd, Jai Bheema Nagar, Seshadripuram, Bengaluru, Karnataka", "addr:state": "Karnataka", "name": "Ayra Hotel", "tourism": "hotel"}}, {"type": "node", "id": 8728789125, "lat": 12.9361688, "lon": 77.631568, "tags": {"contact:website": "http://halcyoncondos.com/", "name": "Halcyon Hotel Residences", "tourism": "hotel"}}, {"type": "node", "id": 8852383317, "lat": 12.9784414, "lon": 77.5762946, "tags": {"addr:city": "Be\u1e45ga\u1e37\u016bru", "addr:neighborhood": "G\u0101m\u0310dh\u012bngar", "addr:state": "KA", "alt_name:en": "The HLV Grand", "internet_access": "wlan", "internet_access:fee": "customers", "name": "HLV Grand Inn", "phone": "+919845071032", "tourism": "hotel"}}, {"type": "node", "id": 8989627051, "lat": 12.9723309, "lon": 77.604513, "tags": {"addr:city": "Bangalore", "addr:country": "IN", "addr:housenumber": "17-18", "addr:street": "Museum Road", "email": "enquiry@oxfordinn.in", "name": "Oxford Inn", "phone": "+91 80 4530 4530", "tourism": "hotel", "website": "https://oxfordinn.in/"}}, {"type": "node", "id": 9063471394, "lat": 12.9809954, "lon": 77.5751603, "tags": {"name": "Hotel Citadel", "tourism": "hotel"}}, {"type": "node", "id": 9230655244, "lat": 12.9705614, "lon": 77.6167908, "tags": {"name": "Laika Boutique Stay", "tourism": "hotel"}}, {"type": "node", "id": 9230655249, "lat": 12.971156, "lon": 77.6171355, "tags": {"name": "Golden Lotus", "tourism": "hotel"}}, {"type": "node", "id": 9296258310, "lat": 12.9599329, "lon": 77.5933074, "tags": {"name": "Octave Hotel", "tourism": "hotel"}}, {"type": "node", "id": 9540035554, "lat": 12.9715401, "lon": 77.6081926}, {"type": "node", "id": 9680521742, "lat": 12.9764149, "lon": 77.6197104}, {"type": "node", "id": 9680521743, "lat": 12.9763822, "lon": 77.6196621}, {"type": "node", "id": 9680521744, "lat": 12.9759552, "lon": 77.6195807}, {"type": "node", "id": 9680521745, "lat": 12.9760309, "lon": 77.6192388}, {"type": "node", "id": 9680521746, "lat": 12.9766475, "lon": 77.6193778}, {"type": "node", "id": 9680521747, "lat": 12.9767344, "lon": 77.6195421}, {"type": "node", "id": 9779677485, "lat": 12.9924974, "lon": 77.5883092}, {"type": "node", "id": 9779677610, "lat": 12.993935, "lon": 77.5866643}, {"type": "node", "id": 9797011358, "lat": 12.9854725, "lon": 77.6070269, "tags": {"name": "Hotel Ashoka", "tourism": "hotel"}}, {"type": "node", "id": 9811346764, "lat": 12.9727753, "lon": 77.619693}, {"type": "node", "id": 9811346769, "lat": 12.9729282, "lon": 77.6199532}, {"type": "node", "id": 9811346781, "lat": 12.9738329, "lon": 77.6198804}, {"type": "node", "id": 9811346784, "lat": 12.9739212, "lon": 77.6190124}, {"type": "node", "id": 9811346785, "lat": 12.9737614, "lon": 77.6194641}, {"type": "node", "id": 9811346786, "lat": 12.9737029, "lon": 77.6199616}, {"type": "node", "id": 9811346796, "lat": 12.9731136, "lon": 77.6199474, "tags": {"access": "private", "barrier": "gate"}}, {"type": "node", "id": 9811346797, "lat": 12.974286, "lon": 77.6189889}, {"type": "node", "id": 9811346798, "lat": 12.9739359, "lon": 77.6189412}, {"type": "node", "id": 9811346799, "lat": 12.9741258, "lon": 77.6199588}, {"type": "node", "id": 9811346800, "lat": 12.9726958, "lon": 77.6193509}, {"type": "node", "id": 9811346802, "lat": 12.9742056, "lon": 77.6194196}, {"type": "node", "id": 9811346803, "lat": 12.9742769, "lon": 77.6190492}, {"type": "node", "id": 9910066828, "lat": 12.9660657, "lon": 77.59821, "tags": {"access": "private", "barrier": "gate", "entrance": "exit"}}, {"type": "node", "id": 9910066829, "lat": 12.9663787, "lon": 77.5985499, "tags": {"access": "private", "barrier": "gate"}}, {"type": "node", "id": 9933650317, "lat": 12.943185, "lon": 77.6213595, "tags": {"internet_access": "wlan", "name": "Regenta Inn Grand", "tourism": "hotel", "website": "https://www.royalorchidhotels.com/regenta-inn-grand-koramangala-bengaluru/contact-us"}}, {"type": "node", "id": 9936668905, "lat": 12.9836966, "lon": 77.5493494, "tags": {"name": "Hotel Madhu", "tourism": "hotel"}}, {"type": "node", "id": 9981998140, "lat": 12.9758018, "lon": 77.6210867}, {"type": "node", "id": 10009237338, "lat": 12.9820167, "lon": 77.605782, "tags": {"check_date": "2023-04-07", "name": "Kamat\u2019s Hotel Mayura", "tourism": "hotel", "wheelchair": "no"}}, {"type": "node", "id": 10015163280, "lat": 12.975303, "lon": 77.5991559}, {"type": "node", "id": 10015163281, "lat": 12.9754465, "lon": 77.5994148}, {"type": "node", "id": 10015163282, "lat": 12.9756216, "lon": 77.5994074}, {"type": "node", "id": 10015163283, "lat": 12.9757579, "lon": 77.5996638}, {"type": "node", "id": 10015163284, "lat": 12.9757122, "lon": 77.5988935}, {"type": "node", "id": 10015163285, "lat": 12.9760279, "lon": 77.5995037}, {"type": "node", "id": 10073419789, "lat": 12.983907, "lon": 77.5853178}, {"type": "node", "id": 10073419790, "lat": 12.9840102, "lon": 77.5844005}, {"type": "node", "id": 10073419791, "lat": 12.9871598, "lon": 77.5838069}, {"type": "node", "id": 10073419792, "lat": 12.9870864, "lon": 77.5840545}, {"type": "node", "id": 10108261309, "lat": 12.9687832, "lon": 77.614379}, {"type": "node", "id": 10108261310, "lat": 12.9689158, "lon": 77.6143101}, {"type": "node", "id": 10123938475, "lat": 12.9793312, "lon": 77.6291742, "tags": {"name": "Palmtree", "tourism": "hotel"}}, {"type": "node", "id": 10123938476, "lat": 12.9756154, "lon": 77.6173406, "tags": {"name": "Shilton", "tourism": "hotel"}}, {"type": "node", "id": 10129602795, "lat": 12.9666845, "lon": 77.5951539, "tags": {"barrier": "lift_gate"}}, {"type": "node", "id": 10129602796, "lat": 12.9674826, "lon": 77.5949934, "tags": {"barrier": "gate", "motor_vehicle": "permissive"}}, {"type": "node", "id": 10228570995, "lat": 12.9870772, "lon": 77.5785393, "tags": {"name": "Pranam Comforts", "tourism": "hotel"}}, {"type": "node", "id": 10236025447, "lat": 12.973084, "lon": 77.5999474, "tags": {"barrier": "gate"}}, {"type": "node", "id": 10280759754, "lat": 12.9705917, "lon": 77.6076124}, {"type": "node", "id": 10280759755, "lat": 12.9709429, "lon": 77.6069415}, {"type": "node", "id": 10286214693, "lat": 12.9870832, "lon": 77.5837927}, {"type": "node", "id": 10286250847, "lat": 12.9870278, "lon": 77.5837824}, {"type": "node", "id": 10286250848, "lat": 12.986785, "lon": 77.5837354}, {"type": "node", "id": 10286316268, "lat": 12.9868183, "lon": 77.5835974}, {"type": "node", "id": 10293872597, "lat": 12.9707135, "lon": 77.6068606}, {"type": "node", "id": 10293872602, "lat": 12.9700834, "lon": 77.6080104}, {"type": "node", "id": 10293872603, "lat": 12.9706597, "lon": 77.6082525}, {"type": "node", "id": 10293872604, "lat": 12.9707169, "lon": 77.6081085}, {"type": "node", "id": 10293872607, "lat": 12.9710167, "lon": 77.6082339}, {"type": "node", "id": 10293872608, "lat": 12.9710375, "lon": 77.6081746}, {"type": "node", "id": 10293884309, "lat": 12.9707442, "lon": 77.6080498}, {"type": "node", "id": 10293884310, "lat": 12.9707659, "lon": 77.6079961}, {"type": "node", "id": 10293884311, "lat": 12.9702155, "lon": 77.6077621}, {"type": "node", "id": 10293884317, "lat": 12.9712566, "lon": 77.6087844}, {"type": "node", "id": 10295397903, "lat": 12.9711587, "lon": 77.6006922, "tags": {"name": "Nahar Heritage Hotel", "tourism": "hotel"}}, {"type": "node", "id": 10295397905, "lat": 12.9705889, "lon": 77.6006124, "tags": {"name": "Treebo Hotel Edge", "tourism": "hotel"}}, {"type": "node", "id": 10295411736, "lat": 12.9758285, "lon": 77.5991447}, {"type": "node", "id": 10296444948, "lat": 12.9977157, "lon": 77.5842154}, {"type": "node", "id": 10296444949, "lat": 12.9976961, "lon": 77.5842389}, {"type": "node", "id": 10296444950, "lat": 12.9976151, "lon": 77.584267}, {"type": "node", "id": 10296444951, "lat": 12.9973008, "lon": 77.5843254}, {"type": "node", "id": 10296444952, "lat": 12.9972669, "lon": 77.5841101}, {"type": "node", "id": 10296444953, "lat": 12.9977066, "lon": 77.584037}, {"type": "node", "id": 10297770883, "lat": 12.9677449, "lon": 77.6023341}, {"type": "node", "id": 10297772566, "lat": 12.9652246, "lon": 77.5989882, "tags": {"access": "private", "barrier": "gate"}}, {"type": "node", "id": 10297772571, "lat": 12.9656549, "lon": 77.599153}, {"type": "node", "id": 10719534211, "lat": 12.9847264, "lon": 77.5766972}, {"type": "node", "id": 10719534212, "lat": 12.9840364, "lon": 77.5766922}, {"type": "node", "id": 10719534213, "lat": 12.9840864, "lon": 77.5764225}, {"type": "node", "id": 10719534214, "lat": 12.9847523, "lon": 77.5763817}, {"type": "node", "id": 10796893055, "lat": 12.9984554, "lon": 77.5965818}, {"type": "node", "id": 10796895625, "lat": 12.9973868, "lon": 77.5986168}, {"type": "node", "id": 10796895639, "lat": 12.9954708, "lon": 77.5973288}, {"type": "node", "id": 10924807387, "lat": 12.9648241, "lon": 77.5985719, "tags": {"name": "Melange Astris", "tourism": "hotel"}}, {"type": "node", "id": 10979409732, "lat": 12.976116, "lon": 77.6192582}, {"type": "node", "id": 10979409733, "lat": 12.9763378, "lon": 77.6193087}, {"type": "node", "id": 10979409737, "lat": 12.9766096, "lon": 77.6193706}, {"type": "node", "id": 10979969444, "lat": 12.9758072, "lon": 77.6211341}, {"type": "node", "id": 10989236998, "lat": 12.9919025, "lon": 77.5885081, "tags": {"access": "private", "barrier": "gate"}}, {"type": "node", "id": 10994931294, "lat": 12.9649078, "lon": 77.5999693}, {"type": "node", "id": 10994931295, "lat": 12.9648561, "lon": 77.5993048}, {"type": "node", "id": 10994931297, "lat": 12.9645078, "lon": 77.599331}, {"type": "node", "id": 10994931298, "lat": 12.9645424, "lon": 77.5998455}, {"type": "node", "id": 11035791441, "lat": 12.9746265, "lon": 77.5991997}, {"type": "node", "id": 11065895405, "lat": 12.9776602, "lon": 77.5767332, "tags": {"name:es": "goSTOPS Hostel", "tourism": "hotel"}}, {"type": "node", "id": 11096782343, "lat": 12.9988487, "lon": 77.5835757}, {"type": "node", "id": 11096782344, "lat": 12.99888, "lon": 77.5837728}, {"type": "node", "id": 11096782345, "lat": 12.9993465, "lon": 77.5836629}, {"type": "node", "id": 11096782346, "lat": 12.9993387, "lon": 77.5834617}, {"type": "node", "id": 11131430552, "lat": 12.9690174, "lon": 77.6361697, "tags": {"brand": "FabHotels", "brand:wikidata": "Q55611387", "name": "FabHotels", "tourism": "hotel"}}, {"type": "node", "id": 11215814225, "lat": 12.9441289, "lon": 77.5680437, "tags": {"name": "Treebo Akshaya Bull Temple", "operator": "Treebo", "tourism": "hotel"}}, {"type": "node", "id": 11268445215, "lat": 12.9857927, "lon": 77.5789851, "tags": {"name": "Janardhan", "tourism": "hotel"}}, {"type": "node", "id": 11290438222, "lat": 12.9521048, "lon": 77.5945294, "tags": {"level": "0;1;2;3;4", "name": "Poornima Regency", "tourism": "hotel"}}, {"type": "node", "id": 11295297228, "lat": 12.9479778, "lon": 77.5946052, "tags": {"check_date": "2023-10-28", "internet_access": "wlan", "internet_access:fee": "customers", "name": "Temple Tree Hotel", "payment:mastercard": "yes", "payment:visa": "yes", "tourism": "hotel"}}, {"type": "node", "id": 11295303737, "lat": 12.9447473, "lon": 77.5968662, "tags": {"addr:city": "Banglore", "addr:housenumber": "61", "addr:postcode": "56027", "addr:street": "13th Cross Road", "air_conditioning": "yes", "construction": "hotel", "email": "info@biltonhotel.com", "level": "4", "mobile": "+91 88844 11190", "name": "Bilton", "tourism": "hotel", "website": "https://biltonhotel.com", "wheelchair": "limited"}}, {"type": "node", "id": 11295814510, "lat": 12.9565763, "lon": 77.5922448, "tags": {"name": "Hotel Sarbhawal Residency", "tourism": "hotel"}}, {"type": "node", "id": 11295814511, "lat": 12.9564473, "lon": 77.5913961, "tags": {"addr:full": "40, Annipura Main Road, 1st Cross, Bengaluru", "addr:postcode": "560027", "contact:email": "dreamzzlodge@gmail.com", "contact:mobile": "+91 89707 00900", "contact:phone": "+91 80 4120 4347", "name": "Dreamz Lodge", "tourism": "hotel"}}, {"type": "node", "id": 11323106498, "lat": 12.9774811, "lon": 77.5769604, "tags": {"name": "Vovo premier hotel", "tourism": "hotel"}}, {"type": "node", "id": 11342928944, "lat": 12.9721996, "lon": 77.5942797}, {"type": "node", "id": 11476370285, "lat": 12.9667247, "lon": 77.5947078, "tags": {"name": "Olive Richmond Circle", "tourism": "hotel"}}, {"type": "node", "id": 11493493696, "lat": 12.9395052, "lon": 77.6285586}, {"type": "node", "id": 11493493697, "lat": 12.9395035, "lon": 77.628548}, {"type": "node", "id": 11513421569, "lat": 12.9739463, "lon": 77.5700295, "tags": {"name": "Tiba Hotel", "tourism": "hotel"}}, {"type": "node", "id": 11518830718, "lat": 12.9703425, "lon": 77.6145858, "tags": {"check_date": "2024-01-15", "name": "Brunton Heights", "payment:cash": "yes", "payment:credit_cards": "yes", "payment:debit_cards": "yes", "tourism": "hotel"}}, {"type": "node", "id": 11533546769, "lat": 12.9845868, "lon": 77.5764267, "tags": {"tourism": "hotel"}}, {"type": "node", "id": 11537284209, "lat": 12.9648331, "lon": 77.599944}, {"type": "node", "id": 11587545305, "lat": 12.9730839, "lon": 77.6199501}, {"type": "node", "id": 11665637079, "lat": 12.9644349, "lon": 77.5982536, "tags": {"name": "Adarsh Hamilton", "tourism": "hotel"}}, {"type": "node", "id": 11676514153, "lat": 12.9893742, "lon": 77.5947726}, {"type": "node", "id": 11677179243, "lat": 12.9803053, "lon": 77.5753071, "tags": {"check_date": "2024-02-29", "name": "Hotel Fortuner Palace", "tourism": "hotel"}}, {"type": "node", "id": 11677179250, "lat": 12.9795168, "lon": 77.5748096, "tags": {"check_date": "2024-02-29", "name": "Sandhya Residency", "tourism": "hotel"}}, {"type": "node", "id": 11677179253, "lat": 12.9781312, "lon": 77.5751887, "tags": {"check_date": "2024-02-29", "name": "Hotel Nest Rooms", "tourism": "hotel"}}, {"type": "node", "id": 11677179254, "lat": 12.977964, "lon": 77.5752147, "tags": {"check_date": "2024-02-29", "name": "Hotel Adora", "tourism": "hotel"}}, {"type": "node", "id": 11677179260, "lat": 12.9783733, "lon": 77.576356, "tags": {"check_date": "2024-02-29", "name": "Embassy Hotel", "tourism": "hotel"}}, {"type": "node", "id": 11681984869, "lat": 12.9773382, "lon": 77.5754024, "tags": {"check_date": "2024-03-01", "name": "Hotel Pawansree", "tourism": "hotel"}}, {"type": "node", "id": 11684501906, "lat": 12.977412, "lon": 77.6271225, "tags": {"check_date": "2024-03-02", "name": "Tierra Woods A Business Hotel", "tourism": "hotel"}}, {"type": "node", "id": 11684647126, "lat": 12.987215, "lon": 77.5745717, "tags": {"check_date": "2024-03-02", "name": "Modern Hotel", "tourism": "hotel"}}, {"type": "node", "id": 11684647129, "lat": 12.9886039, "lon": 77.5743879, "tags": {"check_date": "2024-03-02", "name": "Kalyan Lodge", "tourism": "hotel"}}, {"type": "node", "id": 11696866842, "lat": 12.9798777, "lon": 77.5866439}, {"type": "node", "id": 11696866843, "lat": 12.9794773, "lon": 77.586522}, {"type": "node", "id": 11696866844, "lat": 12.9799722, "lon": 77.5857381}, {"type": "node", "id": 11868278511, "lat": 12.9740091, "lon": 77.6186596}, {"type": "node", "id": 11868278514, "lat": 12.9735215, "lon": 77.6176232}, {"type": "node", "id": 12053301835, "lat": 12.9711343, "lon": 77.6081214}, {"type": "node", "id": 12053301836, "lat": 12.9713887, "lon": 77.6082064}, {"type": "node", "id": 12053301838, "lat": 12.9711493, "lon": 77.6080756}, {"type": "node", "id": 12053301840, "lat": 12.9715253, "lon": 77.6081523}, {"type": "node", "id": 12053313080, "lat": 12.9725365, "lon": 77.6083068}, {"type": "node", "id": 12053313081, "lat": 12.9721898, "lon": 77.6084766}, {"type": "node", "id": 12053313082, "lat": 12.972821, "lon": 77.6088936}, {"type": "node", "id": 12053313083, "lat": 12.9719336, "lon": 77.6089812}, {"type": "node", "id": 12077213927, "lat": 12.9712251, "lon": 77.608775}, {"type": "node", "id": 12077213928, "lat": 12.9711993, "lon": 77.6079233}, {"type": "node", "id": 12077213929, "lat": 12.9714194, "lon": 77.6078638}, {"type": "node", "id": 12077213930, "lat": 12.9717025, "lon": 77.6086488}, {"type": "node", "id": 12112044952, "lat": 12.9742192, "lon": 77.6178918}, {"type": "node", "id": 12112044955, "lat": 12.9739981, "lon": 77.6187019}, {"type": "node", "id": 12112045008, "lat": 12.9736693, "lon": 77.617643}, {"type": "node", "id": 12112526187, "lat": 12.9850648, "lon": 77.5810356}, {"type": "node", "id": 12112526188, "lat": 12.9846114, "lon": 77.5809753}, {"type": "node", "id": 12112526189, "lat": 12.9846375, "lon": 77.5807299}, {"type": "node", "id": 12112526190, "lat": 12.9850099, "lon": 77.5807647}, {"type": "node", "id": 12115251885, "lat": 12.9295732, "lon": 77.631965, "tags": {"addr:postcode": "560034", "addr:street": "7th Cross Road", "name": "Ananya Comforts", "tourism": "hotel"}}, {"type": "node", "id": 12118748992, "lat": 12.9749706, "lon": 77.5993115}, {"type": "node", "id": 12118748993, "lat": 12.9748658, "lon": 77.5996475}, {"type": "node", "id": 12118748994, "lat": 12.9745639, "lon": 77.5995411}, {"type": "node", "id": 12118752229, "lat": 12.9665973, "lon": 77.5959927}, {"type": "node", "id": 12119558739, "lat": 12.9675126, "lon": 77.5963924}, {"type": "node", "id": 12162043357, "lat": 12.9443025, "lon": 77.5973, "tags": {"name": "Shanthi Rooms", "tourism": "hotel", "wheelchair": "no"}}, {"type": "node", "id": 12162759792, "lat": 12.9446454, "lon": 77.5967137, "tags": {"air_conditioning": "yes", "bar": "no", "contact:mobile": "+91 85508 00800;+91 80 2656 8888", "contact:website": "www.theporchinn.com", "internet_access": "wlan", "internet_access:fee": "no", "level": "5", "name": "The Porch Inn", "smoking": "no", "swimming_pool": "no", "tourism": "hotel", "wheelchair": "no"}}, {"type": "node", "id": 12174325334, "lat": 12.9729825, "lon": 77.6193814}, {"type": "node", "id": 12174325348, "lat": 12.9731861, "lon": 77.61995, "tags": {"access": "private", "barrier": "gate"}}, {"type": "node", "id": 12188158311, "lat": 12.9715317, "lon": 77.6081697}, {"type": "node", "id": 12245986567, "lat": 12.9671589, "lon": 77.6106158, "tags": {"air_conditioning": "yes", "bar": "no", "internet_access": "wlan", "name": "Bloom Hotel, Richmond Road", "reservation": "yes", "tourism": "hotel"}}, {"type": "node", "id": 12247909088, "lat": 12.9738833, "lon": 77.6066721, "tags": {"addr:postcode": "560001", "addr:street": "Rest House Road", "name": "Hotel Purple Brigade", "tourism": "hotel"}}, {"type": "node", "id": 12247909089, "lat": 12.9736749, "lon": 77.6067694, "tags": {"addr:postcode": "560001", "addr:street": "Rest House Road", "name": "Olive by Embassy Group", "tourism": "hotel"}}, {"type": "node", "id": 12327093398, "lat": 12.9598265, "lon": 77.6023759, "tags": {"name": "Dream Hotel", "tourism": "hotel"}}, {"type": "node", "id": 12373166862, "lat": 13.0109453, "lon": 77.5789338, "tags": {"name": "Hyde Park", "tourism": "hotel"}}, {"type": "node", "id": 12422943856, "lat": 12.9923271, "lon": 77.5806324}, {"type": "node", "id": 12422943884, "lat": 12.9921615, "lon": 77.5831418, "tags": {"access": "permissive", "barrier": "gate"}}, {"type": "node", "id": 12422953349, "lat": 12.9917323, "lon": 77.5811565}, {"type": "node", "id": 12422953384, "lat": 12.9920944, "lon": 77.5830962}, {"type": "node", "id": 12422953395, "lat": 12.9916166, "lon": 77.5827881}, {"type": "node", "id": 12422953397, "lat": 12.9913912, "lon": 77.5819791}, {"type": "node", "id": 12425915395, "lat": 12.9867416, "lon": 77.5835984}, {"type": "node", "id": 12425915397, "lat": 12.9863285, "lon": 77.5836038}, {"type": "node", "id": 12470693144, "lat": 12.9983913, "lon": 77.5974816}, {"type": "node", "id": 12470693145, "lat": 12.9985269, "lon": 77.5974937}, {"type": "node", "id": 12498576021, "lat": 12.9815416, "lon": 77.6048201, "tags": {"name": "Hotel AJ International", "tourism": "hotel"}}, {"type": "node", "id": 12669960227, "lat": 12.9771116, "lon": 77.5764106, "tags": {"name": "Brindavana Grand Hotel", "tourism": "hotel"}}, {"type": "node", "id": 12709675354, "lat": 13.014395, "lon": 77.554336}, {"type": "node", "id": 12709675355, "lat": 13.0142801, "lon": 77.5543494}, {"type": "node", "id": 12709675356, "lat": 13.0143465, "lon": 77.5542207}, {"type": "node", "id": 12709675357, "lat": 13.0143438, "lon": 77.5543354}, {"type": "node", "id": 12709675358, "lat": 13.0142746, "lon": 77.5542226}, {"type": "node", "id": 12764582624, "lat": 12.9803129, "lon": 77.5751582, "tags": {"name": "Hotel Dwaraka", "tourism": "hotel"}}, {"type": "node", "id": 12788682213, "lat": 12.9870238, "lon": 77.617154}, {"type": "node", "id": 12861870134, "lat": 12.9321442, "lon": 77.6331345, "tags": {"addr:floor": "4", "air_conditioning": "yes", "bar": "no", "check_date": "2025-05-25", "internet_access": "wlan", "internet_access:fee": "customers", "level": "4", "name": "The Bouvice", "name:en": "The Bouvice", "operator": "Harsh Spring Company Private Limited", "payment:cash": "yes", "payment:credit_cards": "yes", "payment:debit_cards": "yes", "payment:google_pay": "yes", "payment:mastercard": "yes", "payment:paytm": "yes", "payment:phonepe": "yes", "payment:upi": "yes", "payment:visa": "yes", "reservation": "yes", "tourism": "hotel", "wheelchair": "limited"}}, {"type": "node", "id": 13013034192, "lat": 12.9535004, "lon": 77.6396081}, {"type": "node", "id": 13158425226, "lat": 12.9448582, "lon": 77.5951023, "tags": {"internet_access": "wlan", "internet_access:fee": "customers", "internet_access:ssid": "Park Wood 5G;Park Wood 2G", "name": "Parkwood Inn", "tourism": "hotel", "wheelchair": "no"}}, {"type": "node", "id": 13176353841, "lat": 12.9401156, "lon": 77.5839124, "tags": {"addr:housenumber": "18", "addr:street": "9th Main Road", "check_date": "2025-09-28", "email": "stopover.bp@gmail.com", "internet_access": "wlan", "internet_access:fee": "customers", "name": "Stopover", "phone": "+91 73497 59930", "reservation": "yes", "tourism": "hotel", "website": "https://stopoverbp.in/"}}, {"type": "node", "id": 13192247886, "lat": 12.9331601, "lon": 77.5833173, "tags": {"check_date": "2025-10-04", "name": "The Resident", "tourism": "hotel"}}, {"type": "node", "id": 13246335122, "lat": 12.9348121, "lon": 77.6159774, "tags": {"check_date": "2025-10-20", "name": "Santrina Hotels", "tourism": "hotel"}}, {"type": "way", "id": 38870571, "nodes": [461755232, 461755234, 12422943884, 12422953384, 12422953395, 461755242, 12422953397, 12422953349, 461755237, 12422943856, 4353494044, 461755232], "tags": {"addr:city": "Bangalore", "addr:country": "IN", "addr:hamlet": "Kumara Park East", "addr:housename": "Tha LaLit", "addr:postcode": "560001", "addr:street": "Kumara Krupa Road", "addr:suburb": "High Grounds", "air_conditioning": "yes", "alt_name": "The Lalit - Ashok", "email": "resvblr@thelalit.com", "fax": "+918030523052", "internet_access": "yes", "internet_access:fee": "customers", "landuse": "commercial", "name": "The Lalit Ashok", "operator": "The Lalit Suri Hospitality Group", "phone": "+918030527777", "rooms": "186", "source": "buisness card", "stars": "5", "start_date": "1971", "tourism": "hotel", "website": "https://www.thelalit.com/"}}, {"type": "way", "id": 38872927, "nodes": [461789651, 10073419790, 1548828176, 10073419789, 461789658, 7301358171, 7301358172, 7301358166, 1548828177, 7301358177, 461755381, 461755380, 430047632, 10073419792, 10073419791, 10286214693, 4353493473, 10286250847, 10286250848, 10286316268, 12425915395, 12425915397, 461789651], "tags": {"addr:city": "Bengaluru", "addr:country": "IN", "addr:street": "Race Course Road", "brand": "Taj", "brand:wikidata": "Q1521893", "email": "westend.bangalore@tajhotels.com", "fixme": "Boundaries of the area", "heritage": "2", "heritage:operator": "nmma", "heritage:website": "https://nmma.nic.in/nmma/exploreBuiltState.do?state=29", "internet_access": "yes", "landuse": "commercial", "name": "Taj West End", "official_name": "Taj Hotels", "operator": "Taj Hotels", "phone": "+91 080 66605660", "ref:nmma": "KR20010700", "rooms": "117", "stars": "5", "start_date": "1887", "tourism": "hotel", "website": "https://www.tajhotels.com/en-in/taj/taj-west-end-bengaluru", "wikipedia": "en:Taj West End Bangalore"}}, {"type": "way", "id": 51868684, "nodes": [661983027, 3323824663, 661983028, 661983029, 661983030, 3323824643, 661983027], "tags": {"addr:street": "Dr B R Ambedkar Veedhi", "building": "commercial", "name": "Hotel Paraag", "name:kn": "\u0caa\u0cb0\u0cbe\u0c97\u0ccd", "operator": "Best Western", "tourism": "hotel"}}, {"type": "way", "id": 91374395, "nodes": [459478509, 7395562811, 459478508, 7395562812, 1061341359, 12119558739, 2019372532, 1061341361, 12118752229, 6021741320, 1061341352, 10129602795, 10129602796, 459478509], "tags": {"addr:housenumber": "1", "addr:street": "Residency Road", "landuse": "commercial", "name": "ITC Gardenia Royal", "tourism": "hotel"}}, {"type": "way", "id": 107240640, "nodes": [1232939382, 1232939387, 11342928944, 2189683201, 1232939467, 459815988, 1232939458, 1232939416, 3384460248, 1232939382], "tags": {"air_conditioning": "yes", "brand": "JW Marriott", "brand:wikidata": "Q1067636", "landuse": "commercial", "name": "JW Marriott", "tourism": "hotel"}}, {"type": "way", "id": 140243958, "nodes": [1536592073, 1536592059, 1536592069, 1536592066, 1536592071, 1536592068, 10236025447, 1536592073], "tags": {"landuse": "retail", "name": "Airlines", "name:kn": "\u0c8e\u0cb0\u0ccd \u0cb2\u0cc8\u0ca8\u0ccd\u0cb8\u0ccd", "official_name": "Airlines Hotel", "tourism": "hotel"}}, {"type": "way", "id": 150797672, "nodes": [1636731069, 1636731090, 1636731110, 1636731108, 1636731072, 1636730987, 1636731096, 1636730971, 1636730958, 1636731069], "tags": {"addr:city": "Bengaluru", "addr:country": "IN", "addr:housenumber": "2", "addr:neighborhood": "G\u0101ndhinagara", "addr:postcode": "560009", "addr:street": "\u0100c\u0101rya Tuls\u012b Road", "alt_name:cbk-zam": "Gran Hotel Kani\u1e63ka", "alt_name:ceb": "Bantugang Otel Kani\u1e63ka", "alt_name:es": "Gran Hotel Kani\u1e63ka", "alt_name:fr": "Grand H\u00f4tel Kani\u1e63ka", "alt_name:it": "Grande Albergo Kani\u1e63ka", "alt_name:tl": "Dakilang Otel Kani\u1e63ka", "building": "yes", "email": "Booking@Kanishkagrand.In", "fax": "+91-80-22204186", "internet_access": "wlan", "internet_access:fee": "customers", "name": "Kani\u1e63ka Gry\u0101\u1e47\u1e0d", "name:cbk-zam": "El Gran Kani\u1e63ka", "name:ceb": "Ang Bantugang Kani\u1e63ka", "name:en": "The Kanishka Grand", "name:es": "El Gran Kani\u1e63ka", "name:fr": "Le Grand Kani\u1e63ka", "name:it": "Il Grande Kani\u1e63ka", "name:kn": "\u0c95\u0ca8\u0cbf\u0cb7\u0ccd\u0c95 \u0c97\u0ccd\u0cb0\u0ccd\u0caf\u0cbe\u0c82\u0ca1\u0ccd", "name:tl": "Ang Dakilang Kani\u1e63ka", "phone": "+919900600177;+919742208318", "tourism": "hotel", "website": "https://www.kanishkagrand.in/"}}, {"type": "way", "id": 152460359, "nodes": [1652785560, 1652785561, 3525162392, 7293719499, 1652785560], "tags": {"building": "yes", "name": "Hotel V T Paradise", "tourism": "hotel"}}, {"type": "way", "id": 169711287, "nodes": [1808746088, 1757024875, 1757024876, 9981998140, 10979969444, 1808746089, 1808746086, 1808746088], "tags": {"addr:city": "Bangalore", "addr:housenumber": "25/3", "addr:postcode": "560008", "addr:street": "Kensington Road", "brand": "Conrad", "brand:wikidata": "Q855525", "brand:wikipedia": "en:Conrad Hotels", "contact:facebook": "https://www.facebook.com/ConradBengaluru", "contact:instagram": "https://www.instagram.com/conradbengaluru/", "contact:twitter": "https://twitter.com/BengaluruConrad", "email": "blrkr.hotel@conradhotels.com", "fax": "+91 80 22144445", "internet_access": "wlan", "internet_access:fee": "yes", "landuse": "commercial", "name": "Conrad Bengaluru", "operator": "Hilton", "phone": "+91 80 2214 4444", "rooms": "285", "stars": "5", "tourism": "hotel", "website": "https://www.hilton.com/en/hotels/blrkrci-conrad-bengaluru/", "wikidata": "Q99454646"}}, {"type": "way", "id": 172920305, "nodes": [1837595318, 1837595311, 1837595310, 4127937388, 1837595298, 1837595297, 1837595295, 10796895639, 1749472997, 1749473000, 10796895625, 1837595315, 12470693144, 12470693145, 1837595321, 10796893055, 1837595318], "tags": {"addr:street": "Jayamahal Road", "heritage": "2", "heritage:operator": "nmma", "heritage:website": "https://nmma.nic.in/nmma/exploreBuiltState.do?state=29", "landuse": "commercial", "name": "Jayamahal Palace Hotel", "ref:nmma": "KR20011031", "tourism": "hotel"}}, {"type": "way", "id": 173435203, "nodes": [1842489964, 12112045008, 11868278514, 1842489804, 1842489801, 1842489794, 1473221156, 1607662992, 9811346798, 12112044955, 11868278511, 12112044952, 1842489964], "tags": {"addr:city": "Bangalore", "addr:housenumber": "37-39", "addr:postcode": "560001", "addr:street": "M G Road", "barrier": "wall", "email": "Prashant.Kundnani@oberoihotels.com", "fax": "+91 80 2558 5960", "landuse": "commercial", "name": "Oberoi Hotel", "name:kn": "\u0c92\u0cac\u0cc6\u0cb0\u0cbe\u0caf\u0ccd", "operator": "The Oberoi", "phone": "+91 80 2558 5858", "tourism": "hotel", "website": "https://www.oberoihotels.com/"}}, {"type": "way", "id": 173435228, "nodes": [9811346785, 9811346786, 12174325348, 9811346796, 11587545305, 1473221163, 9811346769, 1473221161, 9811346764, 1473221155, 9811346800, 12174325334, 7231990190, 9811346785], "tags": {"addr:city": "Bengaluru", "addr:country": "IN", "addr:housenumber": "41/3", "addr:postcode": "560001", "addr:street": "Mahatma Gandhi Road", "brand": "Taj", "brand:wikidata": "Q1521893", "email": "reservations.mgroad@tajhotels.com", "internet_access": "yes", "landuse": "commercial", "name": "Taj MG Road", "official_name": "Taj Hotels", "operator": "Taj Hotels", "phone": "+91 80 66604444", "stars": "5", "tourism": "hotel", "website": "https://www.tajhotels.com/en-in/taj/taj-mgroad-bengaluru"}}, {"type": "way", "id": 174496366, "nodes": [1851705424, 1851705414, 1851705428, 1851705429, 1851705424], "tags": {"addr:city": "Bengaluru", "addr:housenumber": "1", "addr:postcode": "560001", "addr:street": "Lavelle Road", "addr:suburb": "Shanthala Nagar", "building": "commercial", "building:levels": "6", "name": "Lavelle Mansion", "tourism": "hotel"}}, {"type": "way", "id": 182821800, "nodes": [1931886479, 1931886476, 1931886481, 1931886487, 1931886479], "tags": {"building": "yes", "check_date": "2024-03-01", "name": "Ramakrishna Lodge", "tourism": "hotel"}}, {"type": "way", "id": 192032069, "nodes": [2025970816, 4353478736, 461755267, 9779677610, 1671637200, 4353478719, 1671637253, 4496746599, 4496746595, 2025970816], "tags": {"addr:city": "Bengaluru", "addr:housenumber": "25", "addr:postcode": "560052", "addr:street": "Golf Course Road", "alt_name": "Windsor Manor", "brand": "ITC", "fax": "+91-80-22264941", "landuse": "commercial", "name": "ITC Windsor", "phone": "+91-80-22269898", "tourism": "hotel", "website": "https://www.itchotels.com/in/en/itcwindsor-bengaluru", "wheelchair": "limited"}}, {"type": "way", "id": 208693753, "nodes": [11696866843, 11696866844, 2189595251, 2189595249, 665068841, 11696866842, 665068826, 11696866843], "tags": {"addr:city": "Bangalore", "addr:country": "IN", "addr:housenumber": "1", "addr:postcode": "560001", "addr:street": "Palace Road", "brand": "Radisson Blu", "brand:wikidata": "Q7281341", "email": "rooms@atriahotel.com", "fax": "+91 80 2225 6850", "internet_access": "yes", "internet_access:fee": "yes", "landuse": "commercial", "name": "Radisson Blu Hotel, Atria", "name:kn": "\u0c8f\u0c9f\u0ccd\u0cb0\u0cbf\u0caf", "phone": "+91 80 2220 5205", "tourism": "hotel", "website": "https://www.atriahotel.com/"}}, {"type": "way", "id": 208746624, "nodes": [2190068068, 2190068080, 2190068090, 2190068096, 2190068099, 2190068100, 2190068097, 2190068098, 2190068092, 2190068091, 2190068084, 2019372535, 2019372528, 2019372526, 2190068072, 2190068070, 2190068068], "tags": {"addr:street": "Rajaram Mohan Roy Road", "air_conditioning": "yes", "building": "yes", "name": "ITC Royal Gardenia Hotel", "tourism": "hotel"}}, {"type": "way", "id": 216229777, "nodes": [2255802680, 2255802681, 2255802683, 2255802682, 2255802680], "tags": {"name": "Jain Bhavan", "name:kn": "\u0c9c\u0cc8\u0ca8 \u0cad\u0cb5\u0ca8", "tourism": "hotel"}}, {"type": "way", "id": 241203966, "nodes": [2489009760, 2489009761, 12709675354, 12709675357, 12709675356, 2489009760], "tags": {"addr:city": "Bangalore", "addr:housename": "Near Metro Cash & Carry", "addr:street": "Tumkur Road", "air_conditioning": "yes", "building": "commercial", "building:levels": "5", "name": "Parijata Grand", "tourism": "hotel"}}, {"type": "way", "id": 271985433, "nodes": [2769186086, 2769186096, 4685633716, 2769186093, 2769186098, 2769186088, 2769186099, 4685633711, 2769186086], "tags": {"addr:city": "Bengaluru", "addr:postcode": "560027", "addr:street": "Rajaram Mohan Roy Road", "brand": "Ibis", "brand:wikidata": "Q920166", "brand:wikipedia": "en:Ibis (hotel)", "name": "Ibis", "name:kn": "\u0c90\u0cac\u0cbf\u0cb8\u0ccd \u0cb9\u0cca\u0c9f\u0cc6\u0cb2\u0ccd", "tourism": "hotel"}}, {"type": "way", "id": 325764794, "nodes": [3323783336, 3323783326, 3323783327, 3323783324, 3323783336], "tags": {"addr:city": "Bangalore", "addr:housenumber": "145", "addr:postcode": "560001", "addr:street": "Infantry Road", "building": "yes", "name": "Mastiff Hotel", "tourism": "hotel"}}, {"type": "way", "id": 325764798, "nodes": [3323783353, 3323783337, 3323783331, 3323783343, 3323783342, 3323783351, 3323783353], "tags": {"addr:city": "Bangalore", "addr:housenumber": "149", "addr:postcode": "560001", "addr:street": "Infantry Road", "building": "yes", "check_date": "2024-08-31", "name": "Ashraya International", "tourism": "hotel", "website": "https://www.ashrayahotel.com/"}}, {"type": "way", "id": 327553604, "nodes": [3343584522, 3343584529, 3343584532, 3343584531, 3343584534, 3343584533, 3343584522], "tags": {"building": "yes", "building:levels": "5", "name": "High Gates", "tourism": "hotel"}}, {"type": "way", "id": 329061302, "nodes": [3358874252, 3358874233, 3358874247, 3358874259, 3358874252], "tags": {"building": "hotel", "building:levels": "5", "internet_access": "yes", "internet_access:fee": "no", "name": "St. Mark's Hotel", "operator": "Radisson Hotel Group", "rooms": "96", "smoking": "separated", "tourism": "hotel"}}, {"type": "way", "id": 330031512, "nodes": [3369898754, 3369898757, 3369898758, 3369898736, 3369898735, 3369898752, 3369898751, 3370028975, 3369898753, 3369898754], "tags": {"building": "yes", "name": "Himalayan Inn", "tourism": "hotel"}}, {"type": "way", "id": 331336272, "nodes": [3383983592, 3383984494, 3383983590, 3383983589, 3383983592], "tags": {"addr:street": "12th Cross", "building": "yes", "name": "Octave Fairmont Suites", "tourism": "hotel"}}, {"type": "way", "id": 331538350, "nodes": [3386077064, 3386077056, 10297772566, 3386077073, 3386077021, 10297772571, 3386077035, 3386077025, 9910066829, 9910066828, 3386077064], "tags": {"barrier": "wall", "landuse": "commercial", "name": "Chancery Pavilion", "tourism": "hotel"}}, {"type": "way", "id": 331543139, "nodes": [423747687, 3386128910, 3386128922, 3386128951, 10297770883, 423747689, 423747690, 423747687], "tags": {"addr:city": "Bengaluru", "addr:housenumber": "99", "addr:postcode": "560025", "addr:street": "FM Cariappa Road (Residency Road)", "brand": "The Ritz-Carlton", "brand:wikidata": "Q782200", "name": "The Ritz-Carlton", "phone": "080 4914 8000", "tourism": "hotel", "website": "https://www.ritzcarlton.com/"}}, {"type": "way", "id": 332394769, "nodes": [3395155248, 3395155126, 3395155289, 3395155292, 3395155248], "tags": {"building": "commercial", "building:levels": "4", "name": "Nahar Heritage Hotel", "tourism": "hotel"}}, {"type": "way", "id": 333369480, "nodes": [3404808722, 3404808723, 3404808724, 10108261309, 10108261310, 3404808725, 3404808722], "tags": {"building": "yes", "name": "Welcomhotel", "operator": "Fortune Park Hotels (ITC)", "tourism": "hotel"}}, {"type": "way", "id": 345853384, "nodes": [595406585, 3524959868, 3524959854, 3524959852, 595406585], "tags": {"addr:city": "Jayanagar, Bangalore", "addr:housenumber": "44", "addr:postcode": "560011", "addr:street": "Ashoka Pilla Circle", "building": "yes", "email": "hs4@homesteadbangalore.com", "name": "Brigade Homestead", "note": "Serviced Apartments", "phone": "+91-80-4005 3333;+91-97413 07421;+91-98804 05244", "tourism": "hotel", "website": "http://www.homesteadbangalore.com"}}, {"type": "way", "id": 345895282, "nodes": [4490059112, 3525179991, 3525179955, 3525179939, 11493493697, 11493493696, 4490059112], "tags": {"addr:city": "Bengaluru", "addr:housenumber": "No 7", "addr:postcode": "560047", "addr:street": "2nd Main", "building": "yes", "name": "Pleasant Boulevard", "phone": "80-25588181", "tourism": "hotel", "website": "www.pleasantboulevard.com"}}, {"type": "way", "id": 345895314, "nodes": [3525180245, 3525180255, 3525180234, 3525180221, 3525180245], "tags": {"addr:city": "Ejipura, Bengaluru", "addr:postcode": "560095", "brand": "OYO", "brand:wikidata": "Q24906315", "building": "yes", "name": "Oyo Olivia Comforts", "tourism": "hotel"}}, {"type": "way", "id": 345946712, "nodes": [3525622605, 3525622604, 3525622601, 3525622603, 3525622605], "tags": {"addr:city": "Be\u1e45ga\u1e37\u016bru", "addr:housenumber": "39\u201340", "addr:neighborhood": "\u015aiv\u0101jinagara", "addr:postcode": "560001", "addr:street": "Lady Curzon Road", "alt_name:en": "Athashri Hotel Infantry Road", "building": "yes", "email": "athasri.inn3@gmail.com", "internet_access": "wlan", "internet_access:fee": "customers", "name": "Atha\u015br\u012b Infantry", "name:en": "Atha\u015br\u012b Hotel Infantry Road", "name:es": "Hotel Atha\u015br\u012b Camino Infantry", "name:hi": "\u0905\u0925\u0936\u094d\u0930\u0940", "name:hi-Latn": "Ath\u015br\u012b", "name:kn": "\u0c85\u0ca5\u0cb6\u0ccd\u0cb0\u0cc0", "name:ur": "\u0627\u062a\u06be\u0634\u0631\u06cc", "name:ur-Latn": "Ath\u015br\u012b", "phone": "+91 70292 05350", "tourism": "hotel", "website": "https://www.athasrihotels.com/hotels/athasri-hotel-infantry-road/"}}, {"type": "way", "id": 345949491, "nodes": [3525639582, 3525639577, 3525639568, 3525639572, 3525639562, 3525639564, 3525639582], "tags": {"brand": "Ginger Hotels", "building": "yes", "name": "Ginger Bangalore IRR", "phone": "+91 80 6666 6333", "tourism": "hotel"}}, {"type": "way", "id": 346799618, "nodes": [3532895587, 3532895695, 3532895591, 3532895584, 3532895587], "tags": {"building": "commercial", "building:levels": "4", "name": "Citrus Cunningham", "tourism": "hotel"}}, {"type": "way", "id": 347028666, "nodes": [3534754454, 3534754404, 1006462329, 3534753688, 3534754429, 3534754454], "tags": {"building": "hotel", "internet_access": "yes", "internet_access:fee": "yes", "name": "Hotel Race View", "old_name": "Hotel Raceview", "tourism": "hotel"}}, {"type": "way", "id": 347145334, "nodes": [3535448389, 3535448387, 3535448357, 3535448362, 3535448389], "tags": {"building": "yes", "name": "Gokul Majestic Lodging", "tourism": "hotel"}}, {"type": "way", "id": 347145934, "nodes": [3535450137, 3535450133, 3535449779, 3535449783, 3535450137], "tags": {"addr:city": "Be\u1e45ga\u1e37\u016bru", "addr:neighborhood": "G\u0101m\u0310dh\u012bngar", "addr:state": "KA", "alt_name:en": "UT Elegance Hotel", "alt_name_1:en": "Hotel U.T. Elegance", "alt_name_2:en": "Hotel U. T. Elegance", "building": "yes", "email": "u.t.elegance@gmail.com", "facebook": "utelegance", "internet_access": "wlan", "internet_access:fee": "customers", "name": "UT Elegance", "name:ceb": "Otel UT Elegance", "name:en": "Hotel UT Elegance", "name:it": "Albergo UT Elegance", "name:krj": "Otel UT Elegance", "name:tl": "Otel UT Elegance", "phone": "+91 91080 78404;+918048544447", "tourism": "hotel"}}, {"type": "way", "id": 347175728, "nodes": [3535631013, 3535630770, 3535630766, 3535631005, 3535631013], "tags": {"addr:city": "Bangalore", "addr:housenumber": "19/6", "addr:postcode": "560023", "addr:street": "Magadi Road", "addr:suburb": "Rajajinagar", "building": "commercial", "building:levels": "4", "email": "enquiry@westforthotel.com", "name": "West Fort Hotel", "phone": "+91 802 320 3303;+91 907 176 3397;+91 80 2200 3300", "tourism": "hotel", "website": "https://www.westforthotel.com/"}}, {"type": "way", "id": 347175737, "nodes": [3535630586, 3535630584, 3535630526, 3535630528, 3535630586], "tags": {"addr:city": "Be\u1e45ga\u1e37\u016bru", "addr:housenumber": "158", "addr:neighborhood": "G\u0101ndhinagara", "addr:postcode": "560009", "addr:state": "KA", "addr:street": "5th Cross Rd.", "building": "yes", "email": "info@sandeshkingston.com", "internet_access": "wlan", "internet_access:fee": "customers", "name": "The Sande\u015b Kingston", "name:en": "The Sandesh Kingston", "phone": "+91 (80) 4132-9299;+919686667618", "rooms": "28", "tourism": "hotel", "website": "https://www.sandeshkingston.com/"}}, {"type": "way", "id": 347489138, "nodes": [3537816703, 3537816704, 3537816357, 3537816356, 3537816703], "tags": {"addr:housenumber": "1", "addr:postcode": "560011", "addr:street": "14th Cross, South End Circle", "building": "hotel", "tourism": "hotel"}}, {"type": "way", "id": 349416067, "nodes": [3553063543, 3553063541, 3553063539, 1116484557, 3553063540, 3553063543], "tags": {"addr:housenumber": "32/3", "building": "hotel", "cuisine": "indian", "fax": "+91-80-41138488", "name": "Goldfinch Hotel", "name:kn": "\u0c97\u0cca\u0cb2\u0ccd\u0ca1\u0ccd\u200c\u0cab\u0cbf\u0ca8\u0ccd\u0c9a\u0ccd \u0cb9\u0ccb\u0c9f\u0cc6\u0cb2\u0ccd", "phone": "+91-80-41291300", "tourism": "hotel", "website": "https://www.goldfinchhotels.com/"}}, {"type": "way", "id": 350558589, "nodes": [3563098276, 3563098275, 3563098273, 3563098274, 3563098276], "tags": {"building": "yes", "check_date": "2024-08-10", "name": "The Elanza Hotel", "tourism": "hotel"}}, {"type": "way", "id": 352203511, "nodes": [3579617924, 3579617927, 3579617925, 1947653872, 3579617921, 3579617924], "tags": {"addr:city": "Bengaluru", "addr:country": "IN", "addr:district": "Bengaluru Urban", "addr:full": "3, Kumarakrupa Road, Madhavnagar, Bangalore \u2013 560001, Karnataka, India", "addr:housenumber": "3", "addr:postcode": "560001", "addr:street": "Kumara Krupa Road", "building": "hotel", "contact:facebook": "vividushotels", "contact:instagram": "vividushotels", "contact:linkedin": "https://linkedin.com/company/vividus-hotels/", "contact:phone": "+91 96 0606 4644;+91 80 4044 3636", "contact:tripadvisor": "https://tripadvisor.com/Hotel_Review-g297628-d1027383-Reviews-Vividus_Hotel-Bengaluru_Bangalore_District_Karnataka.html", "contact:twitter": "VividusHotels", "contact:website": "https://vividushotels.com", "internet_access": "wlan", "internet_access:fee": "customers", "name": "Vividus Hotel Bangalore", "old_name": "The Solitaire Hotel", "tourism": "hotel"}}, {"type": "way", "id": 354222910, "nodes": [3599854470, 3599854469, 3599854445, 3599854462, 3599854470], "tags": {"building": "yes", "name": "Woodlands", "stars": "3", "tourism": "hotel"}}, {"type": "way", "id": 375202470, "nodes": [3785874885, 3785874886, 3785874887, 3785874888, 3785874890, 3785874891, 3785874885], "tags": {"addr:city": "Bengaluru", "addr:country": "IN", "addr:housenumber": "47/1", "addr:postcode": "560042", "addr:street": "Dickenson Road", "building": "hotel", "name": "Royal Orchid Central", "rooms": "130", "stars": "4", "tourism": "hotel", "website": "https://www.royalorchidhotels.com/royal-orchid-central-bangalore/overview"}}, {"type": "way", "id": 378105244, "nodes": [3815203595, 3815203596, 3815203597, 3815203598, 3815203599, 3815203600, 3815203595], "tags": {"building": "hotel", "building:levels": "7", "name": "Park Residency", "tourism": "hotel"}}, {"type": "way", "id": 382005411, "nodes": [3852083745, 3852083746, 3852083749, 3852083750, 3852083751, 3852083752, 3852083753, 3852083754, 3852083755, 3852083756, 3852087157, 3852087158, 3852083745], "tags": {"addr:city": "Bengaluru", "addr:district": "Bengaluru Urban", "addr:housenumber": "16", "addr:postcode": "560025", "addr:street": "Rajaram Mohan Roy Road", "building": "yes", "email": "reserve@ramanashree.com", "name": "Ramanashree Richmond", "name:kn": "\u0cb0\u0cae\u0ca3\u0cb6\u0ccd\u0cb0\u0cc0", "phone": "+91 98 8049 8844", "tourism": "hotel", "website": "https://www.ramanashree.com/richmond-raja-ram-mohan-roy-road/"}}, {"type": "way", "id": 385034302, "nodes": [3883858002, 3883858003, 3883858000, 3883874690, 3883857999, 3884267693, 3883858002], "tags": {"addr:housenumber": "104", "addr:street": "5th Cross", "building": "hotel", "email": "reservations@thegrandserenity.com", "fax": "+91 80 4920 5445", "internet_access": "wlan", "name": "The Grand Serenity Apartment Hotel", "operator": "MM Inn Venture", "phone": "+91 80 2525 4433;+91 80 2525 7733", "tourism": "hotel", "website": "http://thegrandserenity.com/"}}, {"type": "way", "id": 421097872, "nodes": [4209231281, 4209231273, 12788682213, 4209231279, 4209231286, 4209231281], "tags": {"landuse": "commercial", "name": "Lemon Tree Premier", "tourism": "hotel"}}, {"type": "way", "id": 437536498, "nodes": [461755270, 10989236998, 4353477851, 4353477853, 4353477864, 4353477876, 9779677485, 461755270], "tags": {"landuse": "commercial", "name": "Hotel Shangri-La", "name:kn": "\u0cb6\u0cbe\u0c82\u0c97\u0ccd\u0cb0\u0cbf \u0cb2\u0cbe", "tourism": "hotel"}}, {"type": "way", "id": 568518775, "nodes": [1213657366, 7436576271, 1213657227, 13013034192, 3352558447, 1213656725, 1213657366], "tags": {"internet_access": "yes", "internet_access:fee": "no", "landuse": "commercial", "name": "The Paul", "stars": "5", "tourism": "hotel", "website": "http://www.thepaul.in"}}, {"type": "way", "id": 712430112, "nodes": [10293872597, 10280759755, 10280759754, 6698387556, 3667329364, 10293872597], "tags": {"internet_access": "wlan", "internet_access:fee": "no", "landuse": "commercial", "name": "Iris Business Hotel", "tourism": "hotel"}}, {"type": "way", "id": 779282852, "nodes": [7276500294, 7276500293, 7276500292, 7276500291, 7276500294], "tags": {"brand": "Holiday Inn Express & Suites", "brand:wikidata": "Q5880423", "landuse": "commercial", "name": "Holiday Inn Express & Suites", "tourism": "hotel"}}, {"type": "way", "id": 782014088, "nodes": [7301358044, 11676514153, 7301358043, 7301358042, 1838375768, 7301358044], "tags": {"landuse": "commercial", "name": "Fortune Select JP Cosmos", "tourism": "hotel"}}, {"type": "way", "id": 782014107, "nodes": [578114640, 7301358132, 7301358131, 3995056439, 461755237, 12422953349, 12422953397, 461755242, 578114655, 578114642, 578114640], "tags": {"heritage": "2", "heritage:operator": "nmma", "heritage:website": "https://nmma.nic.in/nmma/exploreBuiltState.do?state=29", "landuse": "commercial", "name": "KSTDC Kumar Krupa", "operator": "KSTDC", "ref:nmma": "KR20010436", "tourism": "hotel"}}, {"type": "way", "id": 1053381285, "nodes": [9680521747, 9680521746, 10979409737, 10979409733, 10979409732, 9680521745, 9680521744, 9680521743, 9680521742, 9680521747], "tags": {"air_conditioning": "yes", "brand": "Radisson", "brand:wikidata": "Q1751979", "internet_access": "wlan", "internet_access:fee": "no", "name": "Radisson City Center", "operator": "Radisson", "stars": "4", "tourism": "hotel", "wheelchair": "yes"}}, {"type": "way", "id": 1068844252, "nodes": [1607662992, 9811346798, 9811346797, 9811346803, 9811346802, 9811346799, 1607662968, 9811346781, 9811346784, 1607662992], "tags": {"addr:city": "Bengaluru", "addr:country": "IN", "addr:housenumber": "14/7", "addr:postcode": "560001", "addr:street": "Mahatma Gandhi Road", "email": "reservations.mgroad@tajhotels.com", "internet_access": "yes", "name": "The Park Bangalore", "operator": "The Park", "phone": "+91 80 2559 4666", "stars": "5", "tourism": "hotel", "website": "https://www.theparkhotels.com/bangalore/"}}, {"type": "way", "id": 1093504018, "nodes": [10015163280, 10015163284, 10295411736, 10015163285, 10015163283, 10015163282, 10015163281, 10015163280], "tags": {"addr:housenumber": "A10/6", "addr:postcode": "560001", "addr:street": "Lavelle Road", "landuse": "commercial", "name": "The Chancery Hotel", "tourism": "hotel"}}, {"type": "way", "id": 1125692656, "nodes": [10293872608, 10293872607, 10293872604, 10293872603, 10293872602, 10293884311, 10293884310, 10293884309, 10293872608], "tags": {"addr:city": "Bangalore", "addr:country": "IN", "addr:housenumber": "30", "addr:postcode": "560 025", "addr:street": "Magrath Road", "email": "info@thegrandmagrath.com", "internet_access": "wlan", "mobile_reception": "yes", "name": "The Grand Magrath Hotel", "phone": "+91-80-2555 1555", "reservation": "yes", "tourism": "hotel", "website": "http://www.thegrandmagrath.com"}}, {"type": "way", "id": 1125999707, "nodes": [10296444953, 10296444952, 10296444951, 10296444950, 10296444949, 10296444948, 10296444953], "tags": {"name": "Jagadish Hotel", "name:kn": "\u0c9c\u0c97\u0ca6\u0cc0\u0cb6", "tourism": "hotel"}}, {"type": "way", "id": 1152482561, "nodes": [10719534214, 10719534213, 10719534212, 10719534211, 10719534214], "tags": {"brand": "Renaissance", "brand:wikidata": "Q2143252", "landuse": "commercial", "name": "Renaissance Bengaluru, Race Course", "tourism": "hotel"}}, {"type": "way", "id": 1183962717, "nodes": [10994931294, 11537284209, 10994931298, 10994931297, 10994931295, 10994931294], "tags": {"landuse": "commercial", "name": "The Pride Hotel", "tourism": "hotel"}}, {"type": "way", "id": 1195571012, "nodes": [11096782346, 11096782345, 11096782344, 11096782343, 11096782346], "tags": {"name": "Hotel Tulip", "tourism": "hotel"}}, {"type": "way", "id": 1206599928, "nodes": [1623992439, 1623992301, 1623992502, 1623992338, 1623992439], "tags": {"brand": "Sheraton", "brand:wikidata": "Q634831", "name": "Sheraton Grand Bangalore Hotel at Brigade Gateway", "operator": "Sheraton", "tourism": "hotel", "wheelchair": "yes"}}, {"type": "way", "id": 1301325024, "nodes": [12053313083, 2189648905, 12053313081, 12053313080, 12053313082, 12053313083], "tags": {"addr:housenumber": "66", "addr:street": "Residency Road", "branch": "Residency Road", "brand": "Vivanta", "check_date": "2024-09-02", "internet_access": "wlan", "internet_access:fee": "customers", "landuse": "commercial", "name": "Vivanta Residency Road", "payment:cash": "yes", "payment:credit_cards": "yes", "payment:debit_cards": "yes", "stars": "5", "tourism": "hotel", "wheelchair": "yes"}}, {"type": "way", "id": 1304116283, "nodes": [12077213930, 9540035554, 12188158311, 12053301840, 12077213929, 12077213928, 12053301838, 12053301835, 12053301836, 12077213927, 10293884317, 12077213930], "tags": {"landuse": "commercial", "name": "Ballal Residency", "tourism": "hotel"}}, {"type": "way", "id": 1307953568, "nodes": [12112526190, 12112526187, 12112526188, 12112526189, 12112526190], "tags": {"addr:city": "Bangalore", "addr:housenumber": "37", "addr:postcode": "560001", "addr:street": "Crescent Road, High Grounds", "email": "reservations@37thcrescent.in", "fax": "+91-80-4037 3738", "internet_access": "yes", "internet_access:fee": "yes", "landuse": "commercial", "name": "37th Crescent Hotel", "phone": "+91-80-4037 3737", "tourism": "hotel", "website": "https://37thcrescent.in/"}}, {"type": "way", "id": 1308628999, "nodes": [11035791441, 12118748994, 12118748993, 12118748992, 11035791441], "tags": {"addr:housenumber": "40/2", "addr:street": "Lavelle Road", "air_conditioning": "yes", "brand": "Southern Star", "building:levels": "6", "check_date": "2025-10-27", "internet_access": "wlan", "internet_access:fee": "customers", "name": "Southern Star Hotel", "stars": "4", "tourism": "hotel", "website": "ushalexushotels.com"}}, {"type": "way", "id": 1353055893, "nodes": [2489009762, 2489009763, 12709675358, 12709675355, 2489009762], "tags": {"addr:city": "Bangalore", "addr:housename": "Near Metro Cash & Carry", "addr:street": "Tumkur Road", "air_conditioning": "yes", "building": "commercial", "building:levels": "5", "name": "Parijata Gateway", "tourism": "hotel"}}]}