{"version": 0.6, "generator": "Overpass API 0.7.62.8 e802775f", "osm3s": {"timestamp_osm_base": "2025-11-29T05:56:59Z", "copyright": "The data included in this document is from www.openstreetmap.org. The data is made available under ODbL."}, "elements": [{"type": "node", "id": 2592296746, "lat": 12.29662, "lon": 76.28744, "tags": {"amenity": "school", "name": "Government Higher Primary School Chikka Hunsur", "name:kn": "\u0cb8\u0cb0\u0ccd\u0c95\u0cbe\u0cb0\u0cbf \u0cb9\u0cbf\u0cb0\u0cbf\u0caf \u0caa\u0ccd\u0cb0\u0cbe\u0ca5\u0cae\u0cbf\u0c95 \u0cb6\u0cbe\u0cb2\u0cc6", "operator": "Government", "taluk": "Hunsur"}}, {"type": "node", "id": 2592296747, "lat": 12.31727, "lon": 76.30155, "tags": {"amenity": "school", "name": "Government Higher Primary School Siddana Koppalu", "name:kn": "\u0cb8\u0cb0\u0ccd\u0c95\u0cbe\u0cb0\u0cbf \u0cb9\u0cbf\u0cb0\u0cbf\u0caf \u0caa\u0ccd\u0cb0\u0cbe\u0ca5\u0cae\u0cbf\u0c95 \u0cb6\u0cbe\u0cb2\u0cc6, \u0c89\u0cae\u0ccd\u0cae\u0ca4\u0ccd\u0ca4\u0cc2\u0cb0\u0cc1", "operator": "Government", "taluk": "Hunsur"}}, {"type": "node", "id": 2592296764, "lat": 12.3054, "lon": 76.28925, "tags": {"amenity": "school", "name": "Government Higher Primary School for Boys", "name:kn": "\u0cb8\u0cb0\u0ccd\u0c95\u0cbe\u0cb0\u0cbf \u0cb9\u0cbf\u0cb0\u0cbf\u0caf \u0caa\u0ccd\u0cb0\u0cbe\u0ca5\u0cae\u0cbf\u0c95 \u0cac\u0cbe\u0cb2\u0c95\u0cb0 \u0cb6\u0cbe\u0cb2\u0cc6, \u0cb9\u0cc1\u0ca3\u0cb8\u0cc2\u0cb0\u0cc1", "operator": "Government", "taluk": "Hunsur"}}, {"type": "node", "id": 2592296779, "lat": 12.30454, "lon": 76.28909, "tags": {"amenity": "school", "name": "Government Higher Primary School Girls Hunsur", "name:kn": "\u0cb8\u0cb0\u0ccd\u0c95\u0cbe\u0cb0\u0cbf \u0cb9\u0cbf\u0cb0\u0cbf\u0caf \u0caa\u0ccd\u0cb0\u0cbe\u0ca5\u0cae\u0cbf\u0c95 \u0cac\u0cbe\u0cb2\u0c95\u0cbf\u0caf\u0cb0 \u0cb6\u0cbe\u0cb2\u0cc6, \u0cb9\u0cc1\u0ca3\u0cb8\u0cc2\u0cb0\u0cc1", "operator": "Government", "taluk": "Hunsur"}}, {"type": "node", "id": 2592296808, "lat": 12.31376, "lon": 76.28326, "tags": {"amenity": "school", "name": "Government Higher Primary School Kalkunike", "name:kn": "\u0cb8\u0cb0\u0ccd\u0c95\u0cbe\u0cb0\u0cbf \u0cb9\u0cbf\u0cb0\u0cbf\u0caf \u0caa\u0ccd\u0cb0\u0cbe\u0ca5\u0cae\u0cbf\u0c95 \u0cb6\u0cbe\u0cb2\u0cc6 \u0c95\u0cb2\u0ccd\u0c95\u0cc1\u0ca3\u0cbf\u0c95\u0cc6", "operator": "Government", "taluk": "Hunsur"}}, {"type": "node", "id": 2592296813, "lat": 12.30322, "lon": 76.29614, "tags": {"amenity": "school", "name": "Government Higher Primary School Karigoda Beede Hunsur", "name:kn": "\u0cb8\u0cb0\u0ccd\u0c95\u0cbe\u0cb0\u0cbf \u0cb9\u0cbf\u0cb0\u0cbf\u0caf \u0caa\u0ccd\u0cb0\u0cbe\u0ca5\u0cae\u0cbf\u0c95 \u0cb6\u0cbe\u0cb2\u0cc6", "operator": "Government", "taluk": "Hunsur"}}, {"type": "node", "id": 2592296840, "lat": 12.32068, "lon": 76.2834, "tags": {"amenity": "school", "name": "Government Higher Primary School Ranganatha Badavane", "name:kn": "\u0cb8\u0cb0\u0ccd\u0c95\u0cbe\u0cb0\u0cbf \u0cb9\u0cbf\u0cb0\u0cbf\u0caf \u0caa\u0ccd\u0cb0\u0cbe\u0ca5\u0cae\u0cbf\u0c95 \u0cb6\u0cbe\u0cb2\u0cc6, \u0cb0\u0c82\u0c97\u0ca8\u0cbe\u0ca5 \u0cac\u0ca1\u0cbe\u0cb5\u0ca3\u0cc6", "operator": "Government", "taluk": "Hunsur"}}, {"type": "node", "id": 2592296842, "lat": 12.31078, "lon": 76.28159, "tags": {"amenity": "school", "name": "Government Higher Primary School Sadashivana Koppalu", "name:kn": "\u0cb8\u0cb0\u0ccd\u0c95\u0cbe\u0cb0\u0cbf \u0cb9\u0cbf\u0cb0\u0cbf\u0caf \u0caa\u0ccd\u0cb0\u0cbe\u0ca5\u0cae\u0cbf\u0c95 \u0cb6\u0cbe\u0cb2\u0cc6", "operator": "Government", "taluk": "Hunsur"}}, {"type": "node", "id": 2592296844, "lat": 12.30812, "lon": 76.28388, "tags": {"amenity": "school", "name": "Government Higher Primary School Sethuve", "name:kn": "\u0cb8\u0cb0\u0ccd\u0c95\u0cbe\u0cb0\u0cbf \u0cb9\u0cbf\u0cb0\u0cbf\u0caf \u0caa\u0ccd\u0cb0\u0cbe\u0ca5\u0cae\u0cbf\u0c95 \u0cb6\u0cbe\u0cb2\u0cc6 \u0cb8\u0cc7\u0ca4\u0cc1\u0cb5\u0cc6", "operator": "Government", "taluk": "Hunsur"}}, {"type": "node", "id": 2592296858, "lat": 12.30715, "lon": 76.29309, "tags": {"amenity": "school", "name": "Government Higher Primary School Urdu Boys Hunsur", "operator": "Government", "taluk": "Hunsur"}}, {"type": "node", "id": 2592296859, "lat": 12.30514, "lon": 76.29326, "tags": {"amenity": "school", "name": "Government Higher Primary School Urdu Girls Hunsur", "operator": "Government", "taluk": "Hunsur"}}, {"type": "node", "id": 2592296876, "lat": 12.32094, "lon": 76.28278, "tags": {"amenity": "school", "name": "Government High School Kalkunike", "name:kn": "\u0cb8\u0cb0\u0ccd\u0c95\u0cbe\u0cb0\u0cbf \u0caa\u0ccd\u0cb0\u0ccc\u0ca1\u0cb6\u0cbe\u0cb2\u0cc6 \u0c95\u0cb2\u0ccd\u0c95\u0cc1\u0ca3\u0cbf\u0c95\u0cc6", "operator": "Government", "taluk": "Hunsur"}}, {"type": "node", "id": 2592296885, "lat": 12.30346, "lon": 76.29683, "tags": {"amenity": "school", "name": "GJC Boys Hunsur", "operator": "Government", "taluk": "Hunsur"}}, {"type": "node", "id": 2592296886, "lat": 12.30449, "lon": 76.28962, "tags": {"amenity": "school", "name": "GJC Girls Hunsur", "operator": "Government", "taluk": "Hunsur"}}, {"type": "node", "id": 2592297007, "lat": 12.29933, "lon": 76.29106, "tags": {"amenity": "school", "name": "Government Lower Primary School Powra Karmikara Colony Hunsur", "name:kn": "\u0cb8\u0cb0\u0ccd\u0c95\u0cbe\u0cb0\u0cbf \u0c95\u0cbf\u0cb0\u0cbf\u0caf \u0caa\u0ccd\u0cb0\u0cbe\u0ca5\u0cae\u0cbf\u0c95 \u0cb6\u0cbe\u0cb2\u0cc6", "operator": "Govtternment", "taluk": "Hunsur"}}, {"type": "node", "id": 2592297015, "lat": 12.3057, "lon": 76.29643, "tags": {"amenity": "school", "name": "Government Lower Primary School Santhe Mala Hunsur", "name:kn": "\u0cb8\u0cb0\u0ccd\u0c95\u0cbe\u0cb0\u0cbf \u0c95\u0cbf\u0cb0\u0cbf\u0caf \u0caa\u0ccd\u0cb0\u0cbe\u0ca5\u0cae\u0cbf\u0c95 \u0cb6\u0cbe\u0cb2\u0cc6", "operator": "Government", "taluk": "Hunsur"}}, {"type": "node", "id": 2592297031, "lat": 12.30283, "lon": 76.29133, "tags": {"amenity": "school", "name": "Government Lower Primary School Urdu Dodda Maseede", "name:kn": "\u0cb8\u0cb0\u0ccd\u0c95\u0cbe\u0cb0\u0cbf \u0c95\u0cbf\u0cb0\u0cbf\u0caf \u0caa\u0ccd\u0cb0\u0cbe\u0ca5\u0cae\u0cbf\u0c95 \u0c89\u0cb0\u0ccd\u0ca6\u0cc1 \u0cb6\u0cbe\u0cb2\u0cc6", "operator": "Government", "taluk": "Hunsur"}}, {"type": "node", "id": 2592297034, "lat": 12.3095, "lon": 76.28418, "tags": {"amenity": "school", "name": "Government Lower Primary School Urdu Sethuve", "name:kn": "\u0cb8\u0cb0\u0ccd\u0c95\u0cbe\u0cb0\u0cbf \u0c95\u0cbf\u0cb0\u0cbf\u0caf \u0caa\u0ccd\u0cb0\u0cbe\u0ca5\u0cae\u0cbf\u0c95 \u0c89\u0cb0\u0ccd\u0ca6\u0cc1 \u0cb6\u0cbe\u0cb2\u0cc6", "operator": "Government", "taluk": "Hunsur"}}, {"type": "node", "id": 2592297035, "lat": 12.31397, "lon": 76.30148, "tags": {"amenity": "school", "name": "GLPS Urdu Shabber Nagar Hunsur", "name:kn": "\u0cb8\u0cb0\u0ccd\u0c95\u0cbe\u0cb0\u0cbf \u0c95\u0cbf\u0cb0\u0cbf\u0caf \u0caa\u0ccd\u0cb0\u0cbe\u0ca5\u0cae\u0cbf\u0c95 \u0c89\u0cb0\u0ccd\u0ca6\u0cc1 \u0cb6\u0cbe\u0cb2\u0cc6 \u0cb6\u0cac\u0ccd\u0cac\u0cc0\u0cb0\u0ccd \u0ca8\u0c97\u0cb0", "operator": "Government", "taluk": "Hunsur"}}, {"type": "node", "id": 2592297062, "lat": 12.31113, "lon": 76.27984, "tags": {"amenity": "school", "name": "Lower Primary School Puttamma Venkataiah", "name:kn": "\u0c95\u0cbf\u0cb0\u0cbf\u0caf \u0caa\u0ccd\u0cb0\u0cbe\u0ca5\u0cae\u0cbf\u0c95 \u0cb6\u0cbe\u0cb2\u0cc6", "operator": "Government", "taluk": "Hunsur"}}, {"type": "node", "id": 2592297063, "lat": 12.30974, "lon": 76.27778, "tags": {"amenity": "school", "name": "Lower Primary School Sannatha Anthoni Vidlaya", "name:kn": "\u0c95\u0cbf\u0cb0\u0cbf\u0caf \u0caa\u0ccd\u0cb0\u0cbe\u0ca5\u0cae\u0cbf\u0c95 \u0cb6\u0cbe\u0cb2\u0cc6", "operator": "Government", "taluk": "Hunsur"}}]}