{"version": 0.6, "generator": "Overpass API 0.7.62.8 e802775f", "osm3s": {"timestamp_osm_base": "2025-11-29T19:21:31Z", "copyright": "The data included in this document is from www.openstreetmap.org. The data is made available under ODbL."}, "elements": [{"type": "node", "id": 347145411, "lat": 19.0517569, "lon": 72.8240813, "tags": {"addr:city": "Mumbai", "addr:postcode": "400050", "addr:street": "M Kahn Chowk", "amenity": "restaurant", "name": "Good Luck Restaurant", "opening_hours": "Mo-Su 07:00-00:00", "phone": "02226422250"}}, {"type": "node", "id": 347168988, "lat": 19.0548375, "lon": 72.8258975, "tags": {"addr:city": "Mumbai", "addr:postcode": "400050", "amenity": "restaurant", "cuisine": "chinese", "name": "Wonton House", "name:en": "Wonton House"}}, {"type": "node", "id": 495022325, "lat": 19.0318804, "lon": 72.8402148}, {"type": "node", "id": 495022326, "lat": 19.0318265, "lon": 72.8404803}, {"type": "node", "id": 495022327, "lat": 19.0317076, "lon": 72.8404533}, {"type": "node", "id": 495022328, "lat": 19.0317615, "lon": 72.8401878}, {"type": "node", "id": 745463693, "lat": 19.0717586, "lon": 72.8253808, "tags": {"amenity": "restaurant", "name": "Olive Restaurant", "source": "GPS; yahoo"}}, {"type": "node", "id": 1314252804, "lat": 19.0264433, "lon": 72.8565734}, {"type": "node", "id": 1314252825, "lat": 19.026278, "lon": 72.8567135}, {"type": "node", "id": 1314252827, "lat": 19.0262785, "lon": 72.8565727}, {"type": "node", "id": 1314252847, "lat": 19.0264428, "lon": 72.8567142}, {"type": "node", "id": 1398698904, "lat": 19.0622302, "lon": 72.9007583, "tags": {"amenity": "restaurant", "name": "SADGURU RESTAURANT"}}, {"type": "node", "id": 1514451615, "lat": 19.0748494, "lon": 72.8258483, "tags": {"addr:housename": "55c, Woodland Building", "addr:street": "Dr BR Ambedkar Road", "amenity": "restaurant", "cuisine": "south_indian,_chinese", "name": "Hotel Samudra"}}, {"type": "node", "id": 1639045726, "lat": 19.0550265, "lon": 72.8283822, "tags": {"addr:housename": "Gazebo House", "addr:housenumber": "133", "addr:postcode": "400050", "addr:street": "Hill Road", "amenity": "restaurant", "cuisine": "pizza", "name": "Ray's Cafe & Pizzeria", "website": "https://rayscafeandpizzeria.com"}}, {"type": "node", "id": 1641869868, "lat": 19.0707547, "lon": 72.8224918, "tags": {"amenity": "restaurant", "cuisine": "lebanese,_chinese,_indian", "name": "Mezbaan"}}, {"type": "node", "id": 1977933168, "lat": 19.0276726, "lon": 72.8550473, "tags": {"addr:housename": "Kamakshi Building", "addr:postcode": "400019", "addr:street": "Bhau Daji Road", "amenity": "restaurant", "cuisine": "indian", "name": "Cafe Madras", "opening_hours": "Tu-Su 07:00-14:30,16:00-22:30", "source": "local_knowledge"}}, {"type": "node", "id": 2171341171, "lat": 19.0616511, "lon": 72.829063, "tags": {"addr:city": "Mumbai", "addr:housename": "Gaspar Enclave", "addr:postcode": "400050", "addr:street": "St. John Street", "addr:suburb": "Bandra", "amenity": "restaurant", "cuisine": "international", "name": "Suzette"}}, {"type": "node", "id": 2171343532, "lat": 19.0616567, "lon": 72.8291663, "tags": {"addr:housename": "Gaspar Enclave", "addr:postcode": "400050", "addr:street": "St. John Street", "amenity": "restaurant", "cuisine": "indian", "name": "Papa Pancho Da Dhaba"}}, {"type": "node", "id": 2171398723, "lat": 19.0620905, "lon": 72.8294205, "tags": {"addr:postcode": "400050", "addr:street": "Dr Ambedkar Road, Bandra West", "amenity": "restaurant", "cuisine": "indian", "name": "Pali Bhavan"}}, {"type": "node", "id": 2173092241, "lat": 19.0625682, "lon": 72.8296368, "tags": {"addr:housename": "Lourdes Haven", "addr:postcode": "400050", "addr:street": "Pali Junction, Dr BR Ambedkar Road, Bandra West", "amenity": "restaurant", "cuisine": "indian", "name": "Snack Shack"}}, {"type": "node", "id": 2173095188, "lat": 19.062482, "lon": 72.8297133, "tags": {"addr:housename": "Lourdes Haven", "addr:housenumber": "5", "addr:postcode": "400050", "addr:street": "Pali Junction, Dr BR Ambedkar Road, Bandra West", "amenity": "restaurant", "cuisine": "spanish", "name": "Poco Loco"}}, {"type": "node", "id": 2180954109, "lat": 19.0718264, "lon": 72.825446, "tags": {"amenity": "restaurant", "name": "Out of the Blue"}}, {"type": "node", "id": 2273540883, "lat": 19.0310254, "lon": 72.845472, "tags": {"addr:housename": "Anand Sagar Building", "addr:postcode": "400016", "addr:street": "T.H. Karatia Marg, Mogul lane", "air_conditioning": "yes", "amenity": "restaurant", "changing_table": "no", "diet:vegetarian": "only", "internet_access": "no", "internet_access:fee": "no", "level": "0", "name": "Ganga Vihar Restaurant", "takeaway": "yes", "toilets:access": "customers", "wheelchair": "no"}}, {"type": "node", "id": 2440075893, "lat": 19.0657214, "lon": 72.8308414, "tags": {"amenity": "restaurant", "name": "Dakshin"}}, {"type": "node", "id": 2440075895, "lat": 19.0653282, "lon": 72.8312029, "tags": {"amenity": "restaurant", "name": "Mini Punjab"}}, {"type": "node", "id": 2567541050, "lat": 19.0431931, "lon": 72.9119332, "tags": {"addr:housename": "tiss", "amenity": "restaurant", "cuisine": "cafeteria", "diet:non-vegetarian": "yes", "diet:vegetarian": "yes", "name": "TISS Dining Hall", "website": "https://www.tiss.edu/view/6/OIA/Support/on-campus-facilities/"}}, {"type": "node", "id": 2610566163, "lat": 19.0549394, "lon": 72.8266649, "tags": {"addr:street": "Hill Road", "amenity": "restaurant", "cuisine": "chinese", "name": "House of Mandarin"}}, {"type": "node", "id": 2970392691, "lat": 19.0681022, "lon": 72.8264504, "tags": {"amenity": "restaurant", "cuisine": "pizza", "name": "Metro Pizza", "wifi": "no"}}, {"type": "node", "id": 3204173570, "lat": 19.0627048, "lon": 72.9047179}, {"type": "node", "id": 3204173571, "lat": 19.0626202, "lon": 72.9046843}, {"type": "node", "id": 3204173572, "lat": 19.0626071, "lon": 72.904721}, {"type": "node", "id": 3204173573, "lat": 19.0626917, "lon": 72.9047547}, {"type": "node", "id": 3204476109, "lat": 19.0542862, "lon": 72.8932735, "tags": {"addr:city": "mumbai", "addr:postcode": "400071", "addr:street": "V N Purav Marg", "amenity": "restaurant", "brand": "Domino's", "brand:ks": "\u0688\u0648\u0645\u06cc\u0646\u0648\u0632", "brand:pa": "\u0a21\u0a4b\u0a2e\u0a40\u0a28\u0a4b\u0a1c\u0a3c", "brand:ur": "\u0688\u0648\u0645\u06cc\u0646\u0648\u0632", "brand:wikidata": "Q839466", "brand:wikipedia": "en:Domino's Pizza", "cuisine": "pizza", "name": "Domino's", "name:ks": "\u0688\u0648\u0645\u06cc\u0646\u0648\u0632", "name:pa": "\u0a21\u0a4b\u0a2e\u0a40\u0a28\u0a4b\u0a1c\u0a3c", "name:ur": "\u0688\u0648\u0645\u06cc\u0646\u0648\u0632", "opening_hours": "Mo-Su 09:00-21:00"}}, {"type": "node", "id": 3204495277, "lat": 19.0612649, "lon": 72.9067792, "tags": {"addr:city": "MUMBAI", "addr:postcode": "400089", "addr:street": "P.L. Lokhande Marg", "amenity": "restaurant", "cuisine": "pizza", "name": "lucky restaurant"}}, {"type": "node", "id": 3204517061, "lat": 19.068838, "lon": 72.9059636, "tags": {"addr:city": "Mumbai", "addr:housenumber": "Molax Bhavan, Chheda Nagar, Chembur", "addr:postcode": "400089", "amenity": "restaurant", "capacity": "10", "cuisine": "indian", "name": "Sadguru"}}, {"type": "node", "id": 3205771060, "lat": 19.0961478, "lon": 72.9151919, "tags": {"amenity": "restaurant", "cuisine": "indian;chinese", "indoor_seating": "yes", "name": "Abhinandan", "outdoor_seating": "no"}}, {"type": "node", "id": 3207654838, "lat": 19.0557033, "lon": 72.8448243, "tags": {"amenity": "restaurant", "cuisine": "indian", "name": "Amber"}}, {"type": "node", "id": 3213759879, "lat": 19.0600003, "lon": 72.911585, "tags": {"amenity": "restaurant", "cuisine": "pizza", "name": "jyoti restaurant", "smoking": "no"}}, {"type": "node", "id": 3216970890, "lat": 19.0993472, "lon": 72.8737316, "tags": {"amenity": "restaurant", "name": "Shiv Sagar"}}, {"type": "node", "id": 3257870640, "lat": 19.0691603, "lon": 72.8394827, "tags": {"amenity": "restaurant", "diet:vegetarian": "yes", "name": "Vrindavan"}}, {"type": "node", "id": 3289533443, "lat": 19.0796355, "lon": 72.8799871, "tags": {"amenity": "restaurant", "capacity": "50", "cuisine": "regional", "name": "Sahara", "smoking": "no"}}, {"type": "node", "id": 3289533448, "lat": 19.0805957, "lon": 72.8812014, "tags": {"amenity": "restaurant", "capacity": "50", "cuisine": "regional", "name": "Skyway", "smoking": "no"}}, {"type": "node", "id": 3289573073, "lat": 19.0747496, "lon": 72.8709793, "tags": {"amenity": "restaurant", "capacity": "50", "cuisine": "South_Indian", "name": "Hotel Ravi Pure Veg", "smoking": "no"}}, {"type": "node", "id": 3529545078, "lat": 19.0460553, "lon": 72.9098383, "tags": {"addr:postcode": "400088", "addr:street": "Sion Trombay Road", "amenity": "restaurant", "check_date:opening_hours": "2023-06-15", "diet:vegetarian": "only", "name": "Shubalaxmi", "opening_hours": "Mo-Su,PH 09:00-23:00", "tourism": "hotel"}}, {"type": "node", "id": 3529566936, "lat": 19.0621078, "lon": 72.8769645, "tags": {"addr:city": "MUMBAI", "addr:postcode": "400070", "addr:street": "A H Wadia Marg", "amenity": "restaurant", "building": "residential", "name": "GULAM MOHHAMED SHUBRATI BUILDING;suleman usman mithiwala"}}, {"type": "node", "id": 3532119179, "lat": 19.0647322, "lon": 72.8823854, "tags": {"amenity": "restaurant", "name": "Sheetal Restaurant", "name:en": "Sheetal Restaurant"}}, {"type": "node", "id": 3532120654, "lat": 19.064423, "lon": 72.8818866, "tags": {"amenity": "restaurant", "name": "cafe nar restarunt"}}, {"type": "node", "id": 3532210535, "lat": 19.0630215, "lon": 72.8828264, "tags": {"amenity": "restaurant", "delivery": "yes", "diet:vegetarian": "only", "name": "sawali hotel"}}, {"type": "node", "id": 3534566632, "lat": 19.0604661, "lon": 72.8727812, "tags": {"amenity": "restaurant", "name": "Metro"}}, {"type": "node", "id": 3589281097, "lat": 19.0912539, "lon": 72.8827319}, {"type": "node", "id": 3589281100, "lat": 19.0912831, "lon": 72.8825923}, {"type": "node", "id": 3589281105, "lat": 19.0914152, "lon": 72.8827715}, {"type": "node", "id": 3589281139, "lat": 19.0914434, "lon": 72.8826299}, {"type": "node", "id": 3591971093, "lat": 19.0613424, "lon": 72.8998735}, {"type": "node", "id": 3591971094, "lat": 19.061347, "lon": 72.8996543}, {"type": "node", "id": 3591971097, "lat": 19.0614641, "lon": 72.8998763}, {"type": "node", "id": 3591971098, "lat": 19.0614687, "lon": 72.8996571}, {"type": "node", "id": 3592043944, "lat": 19.0640738, "lon": 72.8940581}, {"type": "node", "id": 3592043945, "lat": 19.0641184, "lon": 72.8940211}, {"type": "node", "id": 3592043946, "lat": 19.0641289, "lon": 72.8940352}, {"type": "node", "id": 3592043947, "lat": 19.0641433, "lon": 72.8940233}, {"type": "node", "id": 3592043948, "lat": 19.0641819, "lon": 72.8941007}, {"type": "node", "id": 3592043949, "lat": 19.0641935, "lon": 72.894091}, {"type": "node", "id": 3592043950, "lat": 19.0642069, "lon": 72.8941344}, {"type": "node", "id": 3592043951, "lat": 19.0642216, "lon": 72.8941221}, {"type": "node", "id": 3592043952, "lat": 19.0642235, "lon": 72.89426}, {"type": "node", "id": 3592043953, "lat": 19.0642599, "lon": 72.8942013}, {"type": "node", "id": 3592043954, "lat": 19.0642725, "lon": 72.8941908}, {"type": "node", "id": 3592043955, "lat": 19.064273, "lon": 72.8942189}, {"type": "node", "id": 3598454264, "lat": 19.0833149, "lon": 72.8429044}, {"type": "node", "id": 3598454265, "lat": 19.0833208, "lon": 72.8427936}, {"type": "node", "id": 3598454270, "lat": 19.0834703, "lon": 72.8429137}, {"type": "node", "id": 3598454271, "lat": 19.0834762, "lon": 72.8428028}, {"type": "node", "id": 3606640948, "lat": 19.0712279, "lon": 72.8338775, "tags": {"amenity": "restaurant", "name": "Me So Happy"}}, {"type": "node", "id": 3627070970, "lat": 19.0668826, "lon": 72.8374701}, {"type": "node", "id": 3627070971, "lat": 19.0668826, "lon": 72.8375637}, {"type": "node", "id": 3627070987, "lat": 19.0669782, "lon": 72.8374701}, {"type": "node", "id": 3627070988, "lat": 19.0669782, "lon": 72.8375637}, {"type": "node", "id": 3636812246, "lat": 19.087102, "lon": 72.9114295, "tags": {"addr:housenumber": "458", "addr:postcode": "400075", "addr:state": "MH", "addr:street": "Ram Narayan Narkar marg", "amenity": "restaurant", "cuisine": "indian", "entrance": "yes", "name": "Bhakari Ghar", "takeaway": "yes"}}, {"type": "node", "id": 3644260072, "lat": 19.0725936, "lon": 72.8763027}, {"type": "node", "id": 3644260073, "lat": 19.0726422, "lon": 72.8759726}, {"type": "node", "id": 3644260074, "lat": 19.0726615, "lon": 72.8763139}, {"type": "node", "id": 3644260075, "lat": 19.0727102, "lon": 72.8759838}, {"type": "node", "id": 3899362068, "lat": 19.0242417, "lon": 72.8376485, "tags": {"amenity": "restaurant", "name": "Light Of Bharat"}}, {"type": "node", "id": 4185780129, "lat": 19.063466, "lon": 72.862225, "tags": {"amenity": "restaurant", "name": "Soda Bottle Opener Wala"}}, {"type": "node", "id": 4198985391, "lat": 19.0653991, "lon": 72.8298816, "tags": {"air_conditioning": "yes", "amenity": "restaurant", "bar": "yes", "cuisine": "burger;steak_house;pizza", "name": "Smokehouse Deli", "name:en": "Smokehouse Deli", "opening_hours": "Mo-Su 09:00-00:30"}}, {"type": "node", "id": 4303058599, "lat": 19.0596353, "lon": 72.8324442, "tags": {"amenity": "restaurant", "cuisine": "indian;mughlai", "name": "Tavaa Restaurant"}}, {"type": "node", "id": 4312900099, "lat": 19.0551517, "lon": 72.8307261, "tags": {"amenity": "restaurant", "diet:vegetarian": "yes", "name": "Balaji Restaurant", "old_name": "Hindu Hotel", "source": "Local Knowledge"}}, {"type": "node", "id": 4326458489, "lat": 19.0992907, "lon": 72.8878533, "tags": {"addr:street": "90 Feet Road", "amenity": "restaurant", "name": "Cafe Dilshad"}}, {"type": "node", "id": 4340814165, "lat": 19.0615863, "lon": 72.8333786, "tags": {"addr:city": "Bandra, Mumbai", "addr:postcode": "400050", "addr:street": "29th Road", "amenity": "restaurant", "cuisine": "indian", "delivery": "yes", "name": "Sigdi", "opening_hours": "11:00-01:00"}}, {"type": "node", "id": 4344803101, "lat": 19.0335658, "lon": 72.839688, "tags": {"addr:city": "Mumbai", "addr:postcode": "400016", "addr:street": "Lt Prakash Kotnis Path", "amenity": "restaurant", "cuisine": "indian", "name": "Simply Delicious"}}, {"type": "node", "id": 4345456815, "lat": 19.0553221, "lon": 72.8364634, "tags": {"addr:city": "Bandra, Mumbai", "addr:postcode": "400050", "addr:street": "Jarimari Road", "amenity": "restaurant", "amenity_1": "bar", "cuisine": "indian", "name": "Deepa Bar and Restaurant"}}, {"type": "node", "id": 4538247791, "lat": 19.0960851, "lon": 72.8741102, "tags": {"amenity": "restaurant", "brand": "Pizza Hut", "brand:wikidata": "Q191615", "cuisine": "pizza", "level": "3", "name": "Pizza Hut"}}, {"type": "node", "id": 4590509699, "lat": 19.0597451, "lon": 72.8340932, "tags": {"addr:city": "Bandra, Mumbai", "addr:postcode": "400050", "addr:street": "RK Patkar Marg (Waterfield Road)", "amenity": "restaurant", "cuisine": "chinese", "delivery": "yes", "name": "Stomach", "takeaway": "yes"}}, {"type": "node", "id": 4592165895, "lat": 19.0648165, "lon": 72.8308323, "tags": {"addr:housenumber": "1", "addr:postcode": "400050", "addr:street": "16th Road", "amenity": "restaurant", "name": "Bombay Salad Co.", "name:en": "Bombay Salad Co."}}, {"type": "node", "id": 4659828293, "lat": 19.0567665, "lon": 72.8469954, "tags": {"amenity": "restaurant", "cuisine": "seafood", "name:en": "Highway Gomantak"}}, {"type": "node", "id": 4674771690, "lat": 19.0280158, "lon": 72.8517121, "tags": {"addr:postcode": "400019", "addr:street": "Bhandarkar Road", "air_conditioning": "yes", "amenity": "restaurant", "cuisine": "south_indian", "diet:lacto_vegetarian": "yes", "level": "0", "name": "Ram Ashray South Indian", "name:en": "Ram Ashray South Indian", "note": "Main seating area is not air conditioned, but there's an inner hall which is.", "phone": "+91-22-2410-2623", "toilets": "no", "wheelchair": "limited"}}, {"type": "node", "id": 4705646991, "lat": 19.0256504, "lon": 72.8405857, "tags": {"addr:street": "Lady Jamshedji Road", "amenity": "restaurant", "cuisine": "indian", "name:en": "Aaswad"}}, {"type": "node", "id": 4737541126, "lat": 19.042664, "lon": 72.9157131}, {"type": "node", "id": 4737541127, "lat": 19.0426545, "lon": 72.9158577}, {"type": "node", "id": 4737541128, "lat": 19.0425314, "lon": 72.9159214}, {"type": "node", "id": 4737541129, "lat": 19.0424177, "lon": 72.9158404}, {"type": "node", "id": 4737541130, "lat": 19.0424271, "lon": 72.9156957}, {"type": "node", "id": 4737541131, "lat": 19.0425503, "lon": 72.9156321}, {"type": "node", "id": 4759553023, "lat": 19.0981963, "lon": 72.8461004, "tags": {"amenity": "restaurant", "name": "Shiv Sagar Hotel", "name:en": "Shiu Sagar"}}, {"type": "node", "id": 4821879689, "lat": 19.039474, "lon": 72.8453162, "tags": {"amenity": "restaurant"}}, {"type": "node", "id": 4844717543, "lat": 19.0453302, "lon": 72.8648136, "tags": {"amenity": "restaurant", "name:en": "Aparna"}}, {"type": "node", "id": 4846878576, "lat": 19.0388685, "lon": 72.8422221, "tags": {"amenity": "restaurant", "name": "And Chillis", "phone": "022 2446 2483"}}, {"type": "node", "id": 5019364624, "lat": 19.0609265, "lon": 72.8523096, "tags": {"amenity": "restaurant", "internet_access": "wlan", "name:en": "Garam Masala", "opening_hours": "Mo-Su 12:00-23:00"}}, {"type": "node", "id": 5221682036, "lat": 19.0232897, "lon": 72.8422028, "tags": {"addr:city": "Mumbai", "addr:housenumber": "301", "addr:postcode": "400028", "addr:street": "N C Kelkar Marg", "amenity": "restaurant", "name": "Gomantak Boarding House", "phone": "+91-22-2430-5631"}}, {"type": "node", "id": 5221726505, "lat": 19.0558511, "lon": 72.8331336, "tags": {"amenity": "restaurant", "name": "Elco Restaurant", "phone": "+91-22-6587-7171", "website": "https://www.elcorestaurants.com/index.html"}}, {"type": "node", "id": 5221726506, "lat": 19.0642496, "lon": 72.8346675, "tags": {"amenity": "restaurant", "indoor_seating": "no", "name": "Jai Jawan", "name:en": "Jai Jawan", "outdoor_seating": "no", "phone": "+91 22 6559 2112", "takeaway": "only", "website": "https://jaijawanfoods.com/"}}, {"type": "node", "id": 5235470994, "lat": 19.0527402, "lon": 72.8312867, "tags": {"amenity": "restaurant", "cuisine": "chinese", "name": "Ice and Spice"}}, {"type": "node", "id": 5246971911, "lat": 19.049285, "lon": 72.8293764, "tags": {"addr:city": "Mumbai", "addr:housenumber": "12", "addr:postcode": "400050", "addr:street": "K C Marg", "addr:unit": "11", "amenity": "restaurant", "cuisine": "seafood", "name": "Ferry Wharf", "name:en": "Ferry Wharf", "name:hi": "\u092b\u0947\u0930\u0940 \u0935\u093e\u0930\u094d\u092b", "name:mr": "\u092b\u0947\u0930\u0940 \u0935\u093e\u0930\u094d\u092b", "opening_hours": "Mo-Su 11:00-15:30, 19:00-00:30", "phone": "022 2641 0401"}}, {"type": "node", "id": 5256637209, "lat": 19.0504944, "lon": 72.8269109}, {"type": "node", "id": 5256637210, "lat": 19.050596, "lon": 72.8270558}, {"type": "node", "id": 5256637211, "lat": 19.0505237, "lon": 72.8271079}, {"type": "node", "id": 5256637212, "lat": 19.0504329, "lon": 72.8269597}, {"type": "node", "id": 5258342084, "lat": 19.0546252, "lon": 72.8259384, "tags": {"addr:city": "Mumbai", "addr:postcode": "400050", "addr:street": "Krishna Chandra Road (Hill Road)", "amenity": "restaurant", "cuisine": "sizzler", "name": "Kobe Sizzlers"}}, {"type": "node", "id": 5270763675, "lat": 19.0540379, "lon": 72.8306343, "tags": {"addr:city": "Mumbai", "addr:postcode": "400050", "addr:street": "St Peter Road", "amenity": "restaurant", "cuisine": "chinese", "name": "Jimme's Kitchen"}}, {"type": "node", "id": 5273194232, "lat": 19.0592576, "lon": 72.8294753, "tags": {"addr:city": "Mumbai", "addr:postcode": "400050", "addr:street": "Manuel Gonsalves Road", "addr:unit": "3", "amenity": "restaurant", "cuisine": "chinese", "name": "Sahibaan", "phone": "022 3296 9618", "website": "https://www.sahibaan.com/"}}, {"type": "node", "id": 5277163839, "lat": 19.063215, "lon": 72.824601, "tags": {"addr:city": "Mumbai", "addr:housenumber": "29", "addr:postcode": "400050", "addr:street": "Pali Mala Road", "addr:suburb": "Bandra West", "amenity": "restaurant", "name": "New Sunrise Restaurant", "opening_hours": "Mo-Su 07:00-23:30", "outdoor_seating": "no", "phone": "+91 22 2600 0310", "smoking": "outside"}}, {"type": "node", "id": 5277423229, "lat": 19.0630814, "lon": 72.8247526, "tags": {"addr:city": "Mumbai", "addr:housenumber": "7", "addr:postcode": "400050", "addr:street": "Pali Mala Road", "addr:suburb": "Bandra West", "addr:unit": "Shop No. 8, Sefa House, A Wing", "amenity": "restaurant", "capacity": "3", "cuisine": "japanese;sushi;sushi_rolls", "name": "Yugo Sushi", "opening_hours": "Tu-Su 12:00-23:00", "outdoor_seating": "no", "phone": "+91 97692 53378", "smoking": "no", "website": "https://www.toku-enterprises.com/", "wheelchair": "no"}}, {"type": "node", "id": 5282101321, "lat": 19.0979538, "lon": 72.8271261, "tags": {"amenity": "restaurant", "name": "Bora Bora"}}, {"type": "node", "id": 5293432922, "lat": 19.0623148, "lon": 72.8296604, "tags": {"addr:street": "Pali Market Road", "amenity": "restaurant", "name:en": "Lashkara"}}, {"type": "node", "id": 5456840421, "lat": 19.095671, "lon": 72.9143464, "tags": {"amenity": "restaurant", "indoor_seating": "yes", "name:en": "Aripit", "outdoor_seating": "no"}}, {"type": "node", "id": 5506320549, "lat": 19.0655213, "lon": 72.8616144, "tags": {"amenity": "restaurant", "description": "Pure vegetarian premium thali. First floor.", "diet:vegetarian": "only", "name": "Rajwada Thal\u2122", "opening_hours": "Mo-Su 11:00-15:30,18:30-23:00"}}, {"type": "node", "id": 5506320779, "lat": 19.0654768, "lon": 72.8616466, "tags": {"amenity": "restaurant", "contact:mobile": "+91 73032 57257", "contact:phone": "+91 22 6999 8000", "delivery": "Free home delivery", "description": "Pure vegetarian restaurant", "diet:vegetarian": "only", "name": "Kailash Sarovar"}}, {"type": "node", "id": 5778981253, "lat": 19.0598965, "lon": 72.8339617, "tags": {"amenity": "restaurant", "name:en": "Madras Diaries"}}, {"type": "node", "id": 5780857254, "lat": 19.0552504, "lon": 72.824863, "tags": {"amenity": "restaurant", "name:en": "The Village Shop"}}, {"type": "node", "id": 5972234787, "lat": 19.0411258, "lon": 72.8407666, "tags": {"addr:housenumber": "14", "addr:postcode": "400016", "addr:street": "Lady Jamshedji Road", "amenity": "restaurant", "name:en": "Shahnaz Restaurant"}}, {"type": "node", "id": 5972241985, "lat": 19.0410076, "lon": 72.8407969, "tags": {"addr:city": "Mumbai", "addr:country": "IN", "addr:housenumber": "10", "addr:postcode": "400016", "addr:state": "Maharastra", "addr:street": "Lady Jamshedji Road", "amenity": "restaurant", "name:en": "Delhi Darbar", "opening_hours": "Mo-Su 11:30-12:30"}}, {"type": "node", "id": 6003278828, "lat": 19.0538594, "lon": 72.8297981, "tags": {"addr:city": "Mumbai", "addr:housenumber": "14", "addr:postcode": "400050", "addr:street": "Varoda Cross Road", "amenity": "restaurant", "cuisine": "sausage;burger;barbecue", "name": "Imbiss Meating Joint", "opening_hours": "Tu-Su 11:30-15:00,18:00-23:00", "phone": "+91 84549 46413"}}, {"type": "node", "id": 6100554814, "lat": 19.0614924, "lon": 72.8997348, "tags": {"addr:street": "Sharadbhau Acharya Marg", "amenity": "restaurant", "name:en": "Via Bombay"}}, {"type": "node", "id": 6187655615, "lat": 19.0607375, "lon": 72.9003482, "tags": {"amenity": "restaurant", "cuisine": "indian;South_Indian", "name": "Geeta Bhawan", "outdoor_seating": "yes", "smoking": "no"}}, {"type": "node", "id": 6187853585, "lat": 19.0195883, "lon": 72.8407118, "tags": {"amenity": "restaurant", "name:en": "Visawa", "opening_hours": "Mo-Su 10:00-23:00"}}, {"type": "node", "id": 6201759585, "lat": 19.0327846, "lon": 72.8544383, "tags": {"addr:housenumber": "6", "addr:postcode": "400019", "amenity": "restaurant", "cuisine": "indian", "name:en": "Ayyappan Idli Stall", "opening_hours": "Mo-Su 07:00-23:00", "phone": "+9199207 25806"}}, {"type": "node", "id": 6226601604, "lat": 19.0945851, "lon": 72.8981416, "tags": {"amenity": "restaurant", "name": "Jai Bhavani Restaurant"}}, {"type": "node", "id": 6367115268, "lat": 19.0273999, "lon": 72.850662, "tags": {"addr:postcode": "400019", "amenity": "restaurant", "name": "A Rama Nayak's Shrikrishna Boarding"}}, {"type": "node", "id": 6580341105, "lat": 19.0722688, "lon": 72.8703023, "tags": {"addr:city": "Mumabi", "addr:housenumber": "Pinnacle Corporate Park", "addr:postcode": "400051", "addr:street": "Kanzul Iman Road", "air_conditioning": "yes", "amenity": "restaurant", "bar": "yes", "cuisine": "mexican;italian;chinese;indian", "name": "Burn Bar and Kitchen", "opening_hours": "Mo-Su 11:30-02:30", "outdoor_seating": "no", "phone": "+919152042515 +918454880008"}}, {"type": "node", "id": 6985454769, "lat": 19.0266841, "lon": 72.8508606, "tags": {"addr:city": "Mumbai", "addr:postcode": "400019", "addr:street": "Lakhamsi Nappu Road", "amenity": "restaurant", "cuisine": "indian", "name": "Sharda Bhavan", "opening_hours": "Mo-Tu 07:30-20:30; Th-Su 07:30-20:30", "phone": "+91 22 24141271"}}, {"type": "node", "id": 7132511485, "lat": 19.0258324, "lon": 72.8503463, "tags": {"amenity": "restaurant", "cuisine": "persian", "name": "Cafe Gulshan"}}, {"type": "node", "id": 7132511486, "lat": 19.0257457, "lon": 72.8503732, "tags": {"amenity": "restaurant", "name": "Snow Point"}}, {"type": "node", "id": 7142975161, "lat": 19.0160828, "lon": 72.8281577, "tags": {"addr:city": "Mumbai", "addr:housenumber": "5, Navbhavna CHS", "addr:postcode": "400025", "addr:street": "Swatantrya Veer Savarkar Marg", "air_conditioning": "yes", "amenity": "restaurant", "contact:mobile": "+91 91379 54993", "contact:phone": "+91 22 2422 0709", "cuisine": "pizza;italian;chinese;mexican;indian;thai;dessert", "delivery": "yes", "diet:vegetarian": "yes", "name": "The Lab", "opening_hours": "Mo-Su 11:30-23:30"}}, {"type": "node", "id": 7283106715, "lat": 19.0987991, "lon": 72.8278271, "tags": {"air_conditioning": "yes", "amenity": "restaurant", "level": "0", "name": "Shiv Sagar", "toilets": "yes"}}, {"type": "node", "id": 7699687640, "lat": 19.0451579, "lon": 72.8466013}, {"type": "node", "id": 7701747706, "lat": 19.0453115, "lon": 72.84657}, {"type": "node", "id": 7701747707, "lat": 19.0453324, "lon": 72.846657}, {"type": "node", "id": 7701747708, "lat": 19.0452559, "lon": 72.8466906}, {"type": "node", "id": 7701747709, "lat": 19.0451582, "lon": 72.8466962}, {"type": "node", "id": 7701747713, "lat": 19.0452819, "lon": 72.84668}, {"type": "node", "id": 7701747714, "lat": 19.0454758, "lon": 72.8472155}, {"type": "node", "id": 7701747715, "lat": 19.0453606, "lon": 72.847237}, {"type": "node", "id": 7701747716, "lat": 19.0453723, "lon": 72.8473047}, {"type": "node", "id": 7701747717, "lat": 19.0454854, "lon": 72.8472832}, {"type": "node", "id": 7701817369, "lat": 19.0456374, "lon": 72.8479667}, {"type": "node", "id": 7701817370, "lat": 19.045515, "lon": 72.8479911}, {"type": "node", "id": 7701817371, "lat": 19.0455427, "lon": 72.8481464}, {"type": "node", "id": 7701817372, "lat": 19.0456651, "lon": 72.848122}, {"type": "node", "id": 7701817432, "lat": 19.0454847, "lon": 72.847924}, {"type": "node", "id": 7701817433, "lat": 19.0454282, "lon": 72.8479335}, {"type": "node", "id": 7701817434, "lat": 19.0454207, "lon": 72.8478816}, {"type": "node", "id": 7701817435, "lat": 19.0453685, "lon": 72.8478901}, {"type": "node", "id": 7701817436, "lat": 19.0453807, "lon": 72.8479544}, {"type": "node", "id": 7701817437, "lat": 19.0454015, "lon": 72.8479832}, {"type": "node", "id": 7701817438, "lat": 19.0454922, "lon": 72.8479674}, {"type": "node", "id": 7701817553, "lat": 19.0448207, "lon": 72.8477884}, {"type": "node", "id": 7701817554, "lat": 19.0447826, "lon": 72.8477878}, {"type": "node", "id": 7701817555, "lat": 19.0447794, "lon": 72.8479018}, {"type": "node", "id": 7701817556, "lat": 19.0448203, "lon": 72.8478998}, {"type": "node", "id": 7701817557, "lat": 19.0447763, "lon": 72.8477879}, {"type": "node", "id": 7701817558, "lat": 19.0447364, "lon": 72.8477875}, {"type": "node", "id": 7701817559, "lat": 19.0447335, "lon": 72.8479012}, {"type": "node", "id": 7701817560, "lat": 19.0447747, "lon": 72.8479016}, {"type": "node", "id": 8305227226, "lat": 19.042935, "lon": 72.8618466, "tags": {"addr:city": "Mumbai", "addr:place": "Sion", "addr:postcode": "400022", "addr:street": "Road No 24", "amenity": "restaurant", "cuisine": "indian", "name": "Gurukripa"}}, {"type": "node", "id": 8488565057, "lat": 19.0546767, "lon": 72.8236767, "tags": {"amenity": "restaurant"}}, {"type": "node", "id": 8727348894, "lat": 19.0770035, "lon": 72.8659697, "tags": {"amenity": "restaurant", "cuisine": "arab", "name": "Shawarma's & More"}}, {"type": "node", "id": 8985928233, "lat": 19.0455368, "lon": 72.8647741, "tags": {"amenity": "restaurant", "name": "Hotel shraddha"}}, {"type": "node", "id": 9019764217, "lat": 19.0460434, "lon": 72.9148183, "tags": {"amenity": "restaurant", "cuisine": "chinese;fine_dining;indian", "name": "India Bistro", "name:en": "India Bistro"}}, {"type": "node", "id": 9019764218, "lat": 19.0455769, "lon": 72.9032091, "tags": {"amenity": "restaurant", "cuisine": "pizza;italian;indian;continental", "name": "Shai Cafe and Bar"}}, {"type": "node", "id": 9019764317, "lat": 19.0463004, "lon": 72.9148868, "tags": {"amenity": "restaurant", "cuisine": "chinese;fine_dining", "name": "China Bistro", "name:en": "China Bistro"}}, {"type": "node", "id": 9024157417, "lat": 19.0456916, "lon": 72.9020342, "tags": {"amenity": "restaurant", "cuisine": "indian", "name": "Sadguru Veg Diet"}}, {"type": "node", "id": 9128712392, "lat": 19.0821099, "lon": 72.9099078, "tags": {"addr:city": "Mumbai", "addr:postcode": "400077", "addr:street": "Hingwala Lane", "amenity": "restaurant", "cuisine": "regional;punjabi;south_indian;sandwich", "name": "Hotel Popular"}}, {"type": "node", "id": 9129210434, "lat": 19.079705, "lon": 72.9061157, "tags": {"addr:city": "Mumbai", "addr:postcode": "400077", "addr:street": "Tilak Road", "amenity": "restaurant", "name": "Gurukrupa Restaurant"}}, {"type": "node", "id": 9129210435, "lat": 19.0801689, "lon": 72.9054558, "tags": {"addr:city": "Mumbai", "addr:postcode": "400077", "amenity": "restaurant", "name": "Achija Restaurant"}}, {"type": "node", "id": 9715914017, "lat": 19.027895, "lon": 72.8549919, "tags": {"air_conditioning": "yes", "amenity": "restaurant", "cuisine": "indian;chinese;italian;mexican;pizza", "diet:lacto_vegetarian": "yes", "level": "0", "name": "Radha Krishna", "operator": "Aadi Ananta Hospitality and Services", "operator:hi": "\u0906\u0926\u093f \u0905\u0928\u0902\u0924\u093e \u0939\u0949\u0938\u094d\u092a\u093f\u091f\u0948\u0932\u093f\u091f\u0940 \u0910\u0923\u094d\u0921 \u0938\u0930\u094d\u0935\u093f\u0938\u0947\u091c\u093c"}}, {"type": "node", "id": 10221860722, "lat": 19.0864992, "lon": 72.8309108, "tags": {"addr:postcode": "400054", "addr:street": "Juhu Tara Road", "amenity": "restaurant", "name:en": "Ajivasan Hall"}}, {"type": "node", "id": 10221860821, "lat": 19.0853517, "lon": 72.8298349, "tags": {"addr:housenumber": "7B", "addr:postcode": "400049", "addr:street": "Revdandkar Road", "amenity": "restaurant", "cuisine": "indian", "name": "Banana Leaf", "name:en": "Banana Leaf", "phone": "+918828848884"}}, {"type": "node", "id": 10242737041, "lat": 19.0511682, "lon": 72.8276033, "tags": {"addr:postcode": "400050", "amenity": "restaurant", "cuisine": "lebanese;chinese;mughlai;indian", "name": "Marrakesh", "name:en": "Marrakesh"}}, {"type": "node", "id": 10261794009, "lat": 19.0631195, "lon": 72.8487969, "tags": {"amenity": "restaurant", "name:en": "Celebration 365"}}, {"type": "node", "id": 10261794709, "lat": 19.0631245, "lon": 72.8481351, "tags": {"amenity": "restaurant", "name:en": "Krishna Restaurant"}}, {"type": "node", "id": 10678399405, "lat": 19.0152451, "lon": 72.8306494, "tags": {"addr:city": "Mumbai", "addr:postcode": "400025", "addr:street": "Sayani Marg", "amenity": "restaurant", "cuisine": "indian;chinese;fast_food", "name:en": "Utsav Restaurant", "opening_hours": "Mo-Su 11:00-23:30", "phone": "+912224327788 +912224328899"}}, {"type": "node", "id": 10678500279, "lat": 19.0562679, "lon": 72.83473, "tags": {"addr:city": "Mumbai", "addr:postcode": "400050", "addr:street": "Hill Road", "amenity": "restaurant", "name": "Yoko Sizzlers", "phone": "+91 22 2640 1746"}}, {"type": "node", "id": 10682394705, "lat": 19.098961, "lon": 72.8445365, "tags": {"amenity": "restaurant", "cuisine": "indian", "name:en": "Ram Krishna"}}, {"type": "node", "id": 10688895851, "lat": 19.0184204, "lon": 72.8355487, "tags": {"addr:city": "Mumbai", "addr:postcode": "400028", "addr:street": "Gokhale Road", "amenity": "restaurant", "cuisine": "indian", "diet:non-vegetarian": "yes", "diet:vegetarian": "yes", "name": "Dadar Lucky Restaurant", "opening_hours": "Mo-Su 10:00-22:00"}}, {"type": "node", "id": 10720953805, "lat": 19.0822752, "lon": 72.8953991, "tags": {"addr:street": "Kirol Road", "amenity": "restaurant", "name:en": "The Food Town"}}, {"type": "node", "id": 10771263378, "lat": 19.0971989, "lon": 72.8833512, "tags": {"amenity": "restaurant", "name": "Vaishali Family Restaurant & Bar"}}, {"type": "node", "id": 10779234835, "lat": 19.0643615, "lon": 72.8662339, "tags": {"amenity": "restaurant", "cuisine": "regional", "indoor_seating": "yes", "name": "Indian Accent", "outdoor_seating": "no"}}, {"type": "node", "id": 10779234846, "lat": 19.0608947, "lon": 72.863034, "tags": {"amenity": "restaurant", "cuisine": "pizza", "indoor_seating": "yes", "name": "CinCin", "outdoor_seating": "yes"}}, {"type": "node", "id": 10779234847, "lat": 19.0609644, "lon": 72.8628825, "tags": {"amenity": "restaurant", "cuisine": "chinese", "indoor_seating": "yes", "name": "Yauatcha", "outdoor_seating": "yes"}}, {"type": "node", "id": 10779234848, "lat": 19.0609555, "lon": 72.8627457, "tags": {"amenity": "restaurant", "cuisine": "thai", "indoor_seating": "yes", "name": "Nara Thai", "outdoor_seating": "yes"}}, {"type": "node", "id": 10779234885, "lat": 19.0695355, "lon": 72.869828, "tags": {"amenity": "restaurant", "name": "Hitchki"}}, {"type": "node", "id": 10779234895, "lat": 19.0603737, "lon": 72.8653675, "tags": {"amenity": "restaurant", "name": "Kyma"}}, {"type": "node", "id": 10779234896, "lat": 19.0603661, "lon": 72.8651664, "tags": {"amenity": "restaurant", "name": "Sequel"}}, {"type": "node", "id": 10779234899, "lat": 19.0593672, "lon": 72.8650108, "tags": {"amenity": "restaurant", "name": "Amazonia"}}, {"type": "node", "id": 10779234901, "lat": 19.0592821, "lon": 72.8650856, "tags": {"amenity": "restaurant", "cuisine": "indian", "name": "Butterfly High"}}, {"type": "node", "id": 10779234902, "lat": 19.059327, "lon": 72.8650376, "tags": {"amenity": "restaurant", "cuisine": "regional", "name": "O Pedro"}}, {"type": "node", "id": 10779234903, "lat": 19.0611165, "lon": 72.868149, "tags": {"amenity": "restaurant", "contact:instagram": "origamifinedine", "cuisine": "asian", "name": "Origami Japanese & Korean Restaurant"}}, {"type": "node", "id": 10781543267, "lat": 19.0538947, "lon": 72.8377074, "tags": {"amenity": "restaurant", "name": "Lucky", "name:en": "Lucky"}}, {"type": "node", "id": 11022260027, "lat": 19.0474456, "lon": 72.8607129}, {"type": "node", "id": 11054957005, "lat": 19.0904176, "lon": 72.8270788, "tags": {"amenity": "restaurant", "cuisine": "italian", "name": "Cecconi\u2019s", "name:en": "Cecconi\u2019s"}}, {"type": "node", "id": 11069702458, "lat": 19.057386, "lon": 72.8475215, "tags": {"amenity": "restaurant", "name": "Amey"}}, {"type": "node", "id": 11069702459, "lat": 19.0573721, "lon": 72.8479721, "tags": {"access": "private", "air_conditioning": "yes", "amenity": "restaurant", "cuisine": "indian;chinese", "level": "1", "name": "Belvedere", "name:en": "Belvedere", "private": "members"}}, {"type": "node", "id": 11098485521, "lat": 19.0453834, "lon": 72.9029559, "tags": {"amenity": "restaurant", "name": "Pot Pourri"}}, {"type": "node", "id": 11283018639, "lat": 19.0517597, "lon": 72.9010567, "tags": {"amenity": "restaurant", "name": "Lucky Restaurant"}}, {"type": "node", "id": 11283018659, "lat": 19.0260654, "lon": 72.8550383, "tags": {"amenity": "restaurant", "name": "Koolar & Co"}}, {"type": "node", "id": 11294890306, "lat": 19.0387603, "lon": 72.8417951, "tags": {"amenity": "restaurant", "name": "Paramount Restaurant", "name:en": "Paramount Restaurant", "name:hi": "\u092a\u0947\u0930\u093e\u092e\u093e\u0909\u0902\u091f \u0930\u0947\u0938\u094d\u091f\u0949\u0930\u0902\u091f", "name:mr": "\u092a\u0945\u0930\u093e\u092e\u093e\u0909\u0902\u091f \u0930\u0947\u0938\u094d\u091f\u0949\u0930\u0902\u091f"}}, {"type": "node", "id": 11296361368, "lat": 19.062542, "lon": 72.8293871, "tags": {"amenity": "restaurant", "name": "Woodside Inn", "name:en": "Woodside Inn"}}, {"type": "node", "id": 11296371081, "lat": 19.0603008, "lon": 72.8311614, "tags": {"amenity": "restaurant", "cuisine": "tex-mex", "name": "Bombay Taco Company", "name:en": "Bombay Taco Company"}}, {"type": "node", "id": 11296371107, "lat": 19.0615782, "lon": 72.830578, "tags": {"amenity": "restaurant", "name": "The Coconut Boy", "theme": "goa"}}, {"type": "node", "id": 11296371108, "lat": 19.0616818, "lon": 72.8302955, "tags": {"amenity": "restaurant", "cuisine": "indian", "name": "Joseph's Tandoori Chicken", "name:en": "Joseph's Tandoori Chicken"}}, {"type": "node", "id": 11296371112, "lat": 19.0616694, "lon": 72.8293209, "tags": {"amenity": "restaurant", "name": "Kitchen Garden by Suzette"}}, {"type": "node", "id": 11296371116, "lat": 19.061648, "lon": 72.8289363, "tags": {"amenity": "restaurant", "name": "Project Hum", "name:en": "Project Hum"}}, {"type": "node", "id": 11296371126, "lat": 19.0606199, "lon": 72.8345481, "tags": {"amenity": "restaurant", "cuisine": "chinese", "name": "Hakkasan", "name:en": "Hakkasan", "website": "https://taogroup.com/venues/hakkasan-mumbai/"}}, {"type": "node", "id": 11296371127, "lat": 19.0598873, "lon": 72.834083, "tags": {"amenity": "restaurant", "cuisine": "lebanese", "name": "Arbab", "name:en": "Arbab", "name:hi": "\u0905\u0930\u094d\u092c\u093e\u092c", "name:mr": "\u0905\u0930\u094d\u092c\u093e\u092c", "outdoor_seating": "yes"}}, {"type": "node", "id": 11296371135, "lat": 19.0624232, "lon": 72.8308606, "tags": {"amenity": "restaurant", "name": "Miya Kebabs", "name:en": "Miya Kebabs"}}, {"type": "node", "id": 11298617853, "lat": 19.0629997, "lon": 72.8294247, "tags": {"amenity": "restaurant", "name": "Jhelum", "name:en": "Jhelum", "name:hi": "\u091d\u0947\u0932\u092e", "name:mr": "\u091d\u0947\u0932\u092e"}}, {"type": "node", "id": 11298645299, "lat": 19.0654365, "lon": 72.8305902, "tags": {"amenity": "restaurant", "name": "Sequel", "name:en": "Sequel"}}, {"type": "node", "id": 11298645321, "lat": 19.0655856, "lon": 72.8327487, "tags": {"amenity": "restaurant", "brand": "Pizza Hut", "brand:wikidata": "Q191615", "cuisine": "pizza", "name": "Pizza Hut"}}, {"type": "node", "id": 11298645405, "lat": 19.0664847, "lon": 72.8333221, "tags": {"amenity": "restaurant", "cuisine": "tex-mex;latin_american", "name": "Los Cavos"}}, {"type": "node", "id": 11339568160, "lat": 19.0514716, "lon": 72.8283149, "tags": {"amenity": "restaurant", "cuisine": "chinese", "name": "Dimsum Wu", "name:en": "Dimsum Wu"}}, {"type": "node", "id": 11364271006, "lat": 19.054425, "lon": 72.8375299, "tags": {"amenity": "restaurant", "diet:vegetarian": "yes", "name": "Sai Sagar"}}, {"type": "node", "id": 11364283705, "lat": 19.0540834, "lon": 72.8306392, "tags": {"amenity": "restaurant", "cuisine": "chinese", "name": "Meraki", "name:en": "Meraki", "website": "https://www.merakichinese.in/"}}, {"type": "node", "id": 11364283731, "lat": 19.0679012, "lon": 72.8340037, "tags": {"amenity": "restaurant", "cuisine": "chinese;indian", "name": "Sheetal Bukhara", "name:en": "Sheetal Bukhara", "name:hi": "\u0936\u0940\u0924\u0932 \u092c\u0941\u0916\u093e\u0930\u093e", "name:mr": "\u0936\u0940\u0924\u0932 \u092c\u0941\u0916\u093e\u0930\u093e", "opening_hours": "Mo-Su 11:30-01:30"}}, {"type": "node", "id": 11372185903, "lat": 19.0896644, "lon": 72.8276046, "tags": {"amenity": "restaurant", "name": "Little Italy", "name:en": "Little Italy"}}, {"type": "node", "id": 11372185915, "lat": 19.0979816, "lon": 72.8269836, "tags": {"amenity": "restaurant", "cuisine": "chinese", "name": "China Gate", "name:en": "China Gate"}}, {"type": "node", "id": 11384605318, "lat": 19.0601618, "lon": 72.8437179, "tags": {"amenity": "restaurant", "cuisine": "chinese", "name": "DP's Spice", "name:en": "DP's Spice"}}, {"type": "node", "id": 11384605345, "lat": 19.028707, "lon": 72.8417497}, {"type": "node", "id": 11384605346, "lat": 19.0285949, "lon": 72.8417344}, {"type": "node", "id": 11384605347, "lat": 19.0286184, "lon": 72.8416331}, {"type": "node", "id": 11384605348, "lat": 19.0287468, "lon": 72.8416044}, {"type": "node", "id": 11384605349, "lat": 19.0286763, "lon": 72.8416025}, {"type": "node", "id": 11384605350, "lat": 19.0286434, "lon": 72.8416104}, {"type": "node", "id": 11384605351, "lat": 19.0287086, "lon": 72.8416013}, {"type": "node", "id": 11385106146, "lat": 19.0629944, "lon": 72.8292602, "tags": {"amenity": "restaurant", "cuisine": "seafood", "name": "Jaihind Lunch Home", "name:en": "Jaihind Lunch Home", "opening_hours": "Mo 11:30-16:00,19:30-00:00; We-Su 11:30-16:00,19:30-00:00"}}, {"type": "node", "id": 11426727397, "lat": 19.0913756, "lon": 72.8278114, "tags": {"addr:street": "Juhu Tara Road", "amenity": "restaurant", "description": "North Indian Restaurant", "name": "Pritam Da Dhaba"}}, {"type": "node", "id": 11426734643, "lat": 19.0913972, "lon": 72.8277925, "tags": {"addr:street": "Juhu Tara Road", "amenity": "restaurant", "name": "Grandmama's Cafe"}}, {"type": "node", "id": 11432071328, "lat": 19.0805224, "lon": 72.8897014, "tags": {"amenity": "restaurant", "check_date": "2023-12-27", "internet_access": "no", "name": "Nityanand Family Restaurant", "wheelchair": "limited"}}, {"type": "node", "id": 11445779711, "lat": 19.0922998, "lon": 72.8827211, "tags": {"amenity": "restaurant", "name": "Al-baik.com"}}, {"type": "node", "id": 11449425962, "lat": 19.0504142, "lon": 72.8650434, "tags": {"amenity": "restaurant", "name": "Apna Hotel"}}, {"type": "node", "id": 11449425963, "lat": 19.0427526, "lon": 72.8644885, "tags": {"amenity": "restaurant", "name": "Peninsula Veg"}}, {"type": "node", "id": 11449425964, "lat": 19.0419569, "lon": 72.8641543, "tags": {"amenity": "restaurant", "name": "Hanuman Veg Restaurant", "phone": "+912224091565"}}, {"type": "node", "id": 11449429775, "lat": 19.0387731, "lon": 72.8509166, "tags": {"amenity": "restaurant", "name": "Rehmat multi cuisine restaurant"}}, {"type": "node", "id": 11449434866, "lat": 19.0417268, "lon": 72.85786, "tags": {"amenity": "restaurant", "name": "Mercy Hotel"}}, {"type": "node", "id": 11449438344, "lat": 19.0481833, "lon": 72.863567, "tags": {"amenity": "restaurant", "name": "Sangam Hotel"}}, {"type": "node", "id": 11451543495, "lat": 19.0831187, "lon": 72.8851007, "tags": {"amenity": "restaurant", "name": "Hotel Sitaram"}}, {"type": "node", "id": 11451935139, "lat": 19.0199692, "lon": 72.8419124, "tags": {"amenity": "restaurant", "name": "Adarsha Family Restaurant"}}, {"type": "node", "id": 11451942460, "lat": 19.0252725, "lon": 72.8354777, "tags": {"amenity": "restaurant", "name": "Tamnak Thai"}}, {"type": "node", "id": 11451948925, "lat": 19.0790685, "lon": 72.8799913, "tags": {"amenity": "restaurant", "name": "Istanbul Darbar"}}, {"type": "node", "id": 11451984338, "lat": 19.0253693, "lon": 72.8397943, "tags": {"amenity": "restaurant", "name": "Made over donuts"}}, {"type": "node", "id": 11451989747, "lat": 19.0254993, "lon": 72.8354998, "tags": {"amenity": "restaurant", "name": "Green restaurant and bar"}}, {"type": "node", "id": 11452002809, "lat": 19.0692375, "lon": 72.8694557, "tags": {"amenity": "restaurant", "brand": "PizzaExpress", "brand:wikidata": "Q662845", "cuisine": "pizza", "name": "PizzaExpress", "shop": "bakery"}}, {"type": "node", "id": 11452005242, "lat": 19.0251733, "lon": 72.8415058, "tags": {"amenity": "restaurant", "brand": "Pizza Hut", "brand:wikidata": "Q191615", "cuisine": "pizza", "name": "Pizza Hut"}}, {"type": "node", "id": 11452008048, "lat": 19.0824643, "lon": 72.8822461, "tags": {"amenity": "restaurant", "name": "SHAHI Dessert and Fast Food Juice"}}, {"type": "node", "id": 11452014432, "lat": 19.0770406, "lon": 72.8780007, "tags": {"amenity": "restaurant", "name": "Karizma Dhaba"}}, {"type": "node", "id": 11452014933, "lat": 19.0256904, "lon": 72.8356382, "tags": {"amenity": "restaurant", "name": "Rajarajeswari Bhuvan Veg Delight"}}, {"type": "node", "id": 11452017570, "lat": 19.0816717, "lon": 72.8817638, "tags": {"amenity": "restaurant", "name": "Sunlight Restaurant"}}, {"type": "node", "id": 11464716224, "lat": 19.0807466, "lon": 72.8961211, "tags": {"amenity": "restaurant", "name": "Hanuman Hotel"}}, {"type": "node", "id": 11464728721, "lat": 19.0799492, "lon": 72.8956772, "tags": {"amenity": "restaurant", "check_date": "2023-12-28", "name": "Lark pure Veg Restaurant"}}, {"type": "node", "id": 11464734826, "lat": 19.0821531, "lon": 72.8953863, "tags": {"amenity": "restaurant", "name": "Hrezzo Restaurant"}}, {"type": "node", "id": 11482202271, "lat": 19.0705997, "lon": 72.822656, "tags": {"amenity": "restaurant", "name": "Carter Road Social", "name:en": "Carter Road Social"}}, {"type": "node", "id": 11482202277, "lat": 19.0707048, "lon": 72.8228962, "tags": {"amenity": "restaurant", "cuisine": "pizza", "name": "The House Of Massimo", "name:en": "The House Of Massimo", "name:hi": "\u0926 \u0939\u093e\u0909\u0938 \u0911\u092b \u092e\u093e\u0938\u094d\u0938\u093f\u092e\u094b", "name:mr": "\u0926 \u0939\u093e\u0909\u0938 \u0911\u092b \u092e\u093e\u0938\u094d\u0938\u093f\u092e\u094b"}}, {"type": "node", "id": 11483543858, "lat": 19.0489652, "lon": 72.8287928, "tags": {"amenity": "restaurant", "name": "Border Bean Barbecue", "name:en": "Border Bean Barbecue"}}, {"type": "node", "id": 11483543859, "lat": 19.0489366, "lon": 72.8287341, "tags": {"amenity": "restaurant", "name": "QJ (Quarter Junction) Bar and Restaurant", "name:en": "QJ (Quarter Junction) Bar and Restaurant"}}, {"type": "node", "id": 11518380934, "lat": 19.0917013, "lon": 72.8280071, "tags": {"addr:city": "Mumbai", "addr:district": "mumbai", "addr:housenumber": "1005", "addr:postcode": "400049", "addr:street": "Juhu Tara Road", "amenity": "restaurant", "cuisine": "pan_asian;japanese", "name": "Sesame - Hyatt Centric Juhu", "name:en": "Sesame - Hyatt Centric Juhu", "opening_hours": "Mo-Su 07:00-23:30", "phone": "+91 86578 84964", "website": "https://www.hyatt.com/hyatt-centric/mumct-hyatt-centric-juhu-mumbai/dining"}}, {"type": "node", "id": 11551635212, "lat": 19.0955218, "lon": 72.8761889, "tags": {"amenity": "restaurant", "name": "The Cram Bar"}}, {"type": "node", "id": 11587655947, "lat": 19.061043, "lon": 72.8985203, "tags": {"addr:city": "Mumbai", "addr:housenumber": "8", "addr:place": "Garodia Market", "addr:postcode": "400071", "addr:street": "D K Sandu Marg", "addr:suburb": "Chembur East", "amenity": "restaurant", "branch": "Chembur", "contact:email": "manis.foodonline@gmail.com", "contact:mobile": "+91-81048-65809", "contact:phone": "+91-22-25-200-201", "cuisine": "south_indian", "level": "0", "name": "Mani's", "opening_hours": "Tu-Su 07:30-22:00", "toilets": "yes"}}, {"type": "node", "id": 11844937157, "lat": 19.0466766, "lon": 72.9069856, "tags": {"amenity": "restaurant", "name": "Nxt Level All Day Chembur"}}, {"type": "node", "id": 11911790368, "lat": 19.0498105, "lon": 72.8646224, "tags": {"amenity": "restaurant"}}, {"type": "node", "id": 12028951855, "lat": 19.0637688, "lon": 72.8365002, "tags": {"addr:city": "Mumbai", "addr:district": "Mumbai Suburban", "addr:postcode": "400050", "addr:street": "Off linking Road, Near National College, Bandra West, Mumbai, Maharashtra 400050", "amenity": "restaurant", "name": "Zima", "opening_hours": "Mo-Su 07:00-24:00", "phone": "+919930888880"}}, {"type": "node", "id": 12126380632, "lat": 19.0496371, "lon": 72.8300463, "tags": {"amenity": "restaurant", "diet:vegetarian": "yes", "name": "Love in Langos", "name:en": "Love in Langos", "name:mr": "\u0932\u0935\u094d\u0939 \u0907\u0928 \u0932\u0901\u0917\u094b\u0938", "phone": "+91 93210 55321"}}, {"type": "node", "id": 12126380637, "lat": 19.0531004, "lon": 72.8319027, "tags": {"amenity": "restaurant", "name": "Maaji's Foods", "name:en": "Maaji's Foods", "name:hi": "\u092e\u093e\u091c\u093f\u0938 \u092b\u0941\u0921\u094d\u0938", "name:mr": "\u092e\u093e\u091c\u093f\u0938 \u092b\u0941\u0921\u094d\u0938"}}, {"type": "node", "id": 12192784768, "lat": 19.061944, "lon": 72.8244934, "tags": {"amenity": "restaurant", "name": "Tiger Yaki", "name:en": "Tiger Yaki"}}, {"type": "node", "id": 12192784843, "lat": 19.0624039, "lon": 72.8305854, "tags": {"amenity": "restaurant", "name": "Shree Sagar Veg Restaurant", "name:en": "Shree Sagar Veg Restaurant"}}, {"type": "node", "id": 12306442151, "lat": 19.0223451, "lon": 72.8424101, "tags": {"addr:housenumber": "301", "addr:street": "N C Kelkar Marg", "amenity": "restaurant", "check_date": "2024-11-02", "name": "House Of Misal"}}, {"type": "node", "id": 12307927828, "lat": 19.052066, "lon": 72.8284465, "tags": {"amenity": "restaurant", "name": "The South Spice", "name:en": "The South Spice", "phone": "+91 89761 98832"}}, {"type": "node", "id": 12312152034, "lat": 19.0856764, "lon": 72.9074165, "tags": {"addr:city": "mumbai", "addr:district": "Mumbai", "addr:housenumber": "near ghatkopar station", "addr:postcode": "400077", "addr:street": "Shraddhanand Road", "amenity": "restaurant", "cuisine": "coffee_shop;pizza;sandwich;western", "diet:organic": "yes", "diet:vegan": "yes", "diet:vegetarian": "yes", "name": "Bharat Cafe", "opening_hours": "Mo-Su 10:00-22:00", "phone": "+91 0123 4567 89", "website": "https://bharatcafe.com"}}, {"type": "node", "id": 12327324799, "lat": 19.0852202, "lon": 72.9090456, "tags": {"addr:city": "Mumbai", "addr:district": "Mumbai", "addr:housenumber": "7th Floor, Neelyog Cine Plaza,", "addr:postcode": "400077", "addr:street": "Opp Ghatkopar East Railway Station, R.B mehta marg", "air_conditioning": "yes", "amenity": "restaurant", "contact:facebook": "https://www.facebook.com/triospicemumbai", "cuisine": "indian;mexican;italian;jain", "delivery": "yes", "diet:vegetarian": "yes", "name": "Triospice Restaurant (Roof Top)", "opening_hours": "Mo-Su 12:00-02:00", "parking": "yes", "phone": "+918976072766", "website": "https://triospice.com/", "wheelchair": "yes"}}, {"type": "node", "id": 12334116804, "lat": 19.0643147, "lon": 72.8329755, "tags": {"amenity": "restaurant", "cuisine": "japanese", "name": "Izumi", "name:en": "Izumi"}}, {"type": "node", "id": 12334116824, "lat": 19.0680108, "lon": 72.8323909, "tags": {"amenity": "restaurant", "cuisine": "chinese", "name": "5 Spice", "name:en": "5 Spice"}}, {"type": "node", "id": 12334116825, "lat": 19.0680214, "lon": 72.8323561, "tags": {"amenity": "restaurant", "cuisine": "indian", "name": "Jai Jawan", "name:en": "Jai Jawan"}}, {"type": "node", "id": 12387804302, "lat": 19.087103, "lon": 72.9087019, "tags": {"addr:postcode": "400086", "addr:street": "Station Road", "amenity": "restaurant", "cuisine": "indian", "name": "Meghdoot Restaurant & Bar"}}, {"type": "node", "id": 12452739633, "lat": 19.0474152, "lon": 72.8607731}, {"type": "node", "id": 12452739634, "lat": 19.0473687, "lon": 72.8607468}, {"type": "node", "id": 12452739635, "lat": 19.0473995, "lon": 72.8606865}, {"type": "node", "id": 12452739636, "lat": 19.0473774, "lon": 72.8607266}, {"type": "node", "id": 12468278101, "lat": 19.0138781, "lon": 72.8245896, "tags": {"addr:postcode": "400025", "addr:street": "Swatantrya Veer Savarkar Marg", "air_conditioning": "yes", "amenity": "restaurant", "contact:instagram": "milagromumbai", "cuisine": "fine_dining;mediterranean", "email": "reservations@milagromumbai.com", "name": "Milagro Mumbai", "opening_hours": "Mo-Tu, Th 19:00-01:30; Fr-Su 12:00-16:00, 07:00-01:30", "phone": "+91 9167779103", "self_service": "no", "website": "https://milagromumbai.com/", "website:menu": "https://www.milagromumbai.com/menu"}}, {"type": "node", "id": 12531357692, "lat": 19.0227431, "lon": 72.8494997, "tags": {"amenity": "restaurant", "cuisine": "indian", "name": "mani's", "survey:date": "2025-01-25", "wheelchair": "no"}}, {"type": "node", "id": 12600517531, "lat": 19.0607493, "lon": 72.8500616, "tags": {"amenity": "restaurant", "name": "Chinar Bar and Restaurant", "phone": "+918652467003"}}, {"type": "node", "id": 12633183100, "lat": 19.0914183, "lon": 72.8827563}, {"type": "node", "id": 12633252906, "lat": 19.0913792, "lon": 72.8827627}, {"type": "node", "id": 12706731748, "lat": 19.0534591, "lon": 72.8241094, "tags": {"amenity": "restaurant", "cuisine": "chinese", "name": "Royal China", "name:en": "Royal China", "name:hi": "\u0930\u0949\u092f\u0932 \u091a\u093e\u092f\u0928\u093e", "name:mr": "\u0930\u0949\u092f\u0932 \u091a\u093e\u092f\u0928\u093e"}}, {"type": "node", "id": 12770224136, "lat": 19.0273921, "lon": 72.8563206, "tags": {"amenity": "restaurant", "contact:phone": "+91 99871333", "cuisine": "indian", "delivery": "15:00-22:00", "level": "0", "name": "Ahar Restaurant", "opening_hours": "Mo-Su 11:00-23:00,13:30-18:30; 09:00-17:00; PH closed", "opening_hours:kitchen": "11:00-23:00", "operator": "Nayak", "takeaway": "yes", "toilets": "yes", "toilets:access": "private", "toilets:wheelchair": "no", "wheelchair": "no"}}, {"type": "node", "id": 12775789707, "lat": 19.0284643, "lon": 72.8440878, "tags": {"amenity": "restaurant", "bar": "yes", "name": "Tandoor Bar and Restaurant"}}, {"type": "node", "id": 12786049459, "lat": 19.0620609, "lon": 72.8342751, "tags": {"addr:city": "Mumbai", "addr:postcode": "400050", "addr:street": "RK Patkar Marg", "amenity": "restaurant", "cuisine": "seafood", "name": "GOH JIA TING", "name:en": "GOH JIA TING", "phone": "+91 91676 66730", "website": "https://chinagategroup.com/bora-bora/"}}, {"type": "node", "id": 12786049460, "lat": 19.0620379, "lon": 72.8343382, "tags": {"amenity": "restaurant", "cuisine": "chinese", "level": "2", "name": "China Gate", "name:en": "China Gate"}}, {"type": "node", "id": 12841326489, "lat": 19.0401284, "lon": 72.8394544, "tags": {"amenity": "restaurant", "name": "Nasir Restaurant"}}, {"type": "node", "id": 12853058852, "lat": 19.0601764, "lon": 72.8367356, "tags": {"amenity": "restaurant", "check_date": "2025-05-21", "cuisine": "indian", "name": "Persian Darbar", "name:en": "Persian Darbar", "name:mr": "\u092a\u0930\u094d\u0936\u093f\u092f\u0928 \u0926\u0930\u092c\u093e\u0930"}}, {"type": "node", "id": 12895990299, "lat": 19.0238403, "lon": 72.8381351, "tags": {"amenity": "restaurant", "name": "Oven Fresh", "opening_hours": "10:00-00:00"}}, {"type": "node", "id": 12923020640, "lat": 19.0644091, "lon": 72.8310334, "tags": {"amenity": "restaurant", "cuisine": "italian", "name": "Pomodoro", "name:en": "Pomodoro", "name:mr": "\u092a\u094b\u092e\u094b\u0921\u094b\u0930\u094b"}}, {"type": "node", "id": 12923020641, "lat": 19.0644625, "lon": 72.8310387, "tags": {"amenity": "restaurant", "cuisine": "asian", "name": "Tamari", "name:en": "Tamari"}}, {"type": "node", "id": 12923020645, "lat": 19.0655985, "lon": 72.8303139, "tags": {"amenity": "restaurant", "cuisine": "indian", "name": "Khane Khas", "name:en": "Khane Khas", "name:mr": "\u0916\u093e\u0928\u0947 \u0916\u093e\u0938"}}, {"type": "node", "id": 12923020648, "lat": 19.0656094, "lon": 72.8301902, "tags": {"amenity": "restaurant", "cuisine": "indian", "drive_through": "no", "name": "Salim's Shahi Sigdi", "name:en": "Salim's Shahi Sigdi", "phone": "+91 99671 38646"}}, {"type": "node", "id": 12926034660, "lat": 19.0620964, "lon": 72.8347235, "tags": {"amenity": "restaurant", "cuisine": "pizza", "name": "1441 Restaurant", "name:en": "1441 Restaurant", "name:mr": "\u0967\u096a\u096a\u0967 \u092a\u093f\u091d\u094d\u091d\u0947\u0930\u093f\u092f\u093e"}}, {"type": "node", "id": 12926036241, "lat": 19.0609221, "lon": 72.8364284, "tags": {"amenity": "restaurant", "name": "Copper Chimney", "name:en": "Copper Chimney", "name:mr": "\u0915\u0949\u092a\u0930 \u091a\u093f\u092e\u0928\u0940"}}, {"type": "node", "id": 12926508556, "lat": 19.047414, "lon": 72.8250525, "tags": {"amenity": "restaurant", "cuisine": "nepalese", "name": "Mountain Goat", "name:en": "Mountain Goat", "name:mr": "\u092e\u093e\u0909\u0902\u091f\u0947\u0928 \u0917\u094b\u091f", "opening_hours": "Mo-Su 13:00-01:00"}}, {"type": "node", "id": 12927277234, "lat": 19.0477206, "lon": 72.8251225, "tags": {"amenity": "restaurant", "contact:instagram": "theblackshepherdbom", "cuisine": "british", "name": "The Black Shepherd", "name:en": "The Black Shepherd", "opening_hours": "Mo 11:30-15:30,19:30-23:30; We-Su 11:30-15:30,19:30-23:30"}}, {"type": "node", "id": 12944653246, "lat": 19.0521091, "lon": 72.8999995, "tags": {"amenity": "restaurant", "cuisine": "chinese", "name": "Wok hei", "wheelchair": "no"}}, {"type": "node", "id": 12944665665, "lat": 19.0521518, "lon": 72.899802, "tags": {"air_conditioning": "yes", "amenity": "restaurant", "name": "Nom Nom express", "toilets:wheelchair": "no", "wheelchair": "no"}}, {"type": "node", "id": 12944665667, "lat": 19.0521415, "lon": 72.8998283, "tags": {"air_conditioning": "yes", "amenity": "restaurant", "cuisine": "sandwich", "name": "Sandwizzaa", "takeaway": "yes"}}, {"type": "node", "id": 12944826134, "lat": 19.0573713, "lon": 72.8980478}, {"type": "node", "id": 12944826135, "lat": 19.0573352, "lon": 72.8981573}, {"type": "node", "id": 12944826136, "lat": 19.057312, "lon": 72.898026}, {"type": "node", "id": 12944826137, "lat": 19.0572759, "lon": 72.8981354}, {"type": "node", "id": 13013445403, "lat": 19.0218791, "lon": 72.8422497, "tags": {"addr:housenumber": "8", "addr:postcode": "400028", "addr:street": "N C Kelkar Marg", "amenity": "restaurant", "cuisine": "indian", "name": "Trupti", "opening_hours": "Th-Tu 09:00-22:00"}}, {"type": "node", "id": 13040591057, "lat": 19.0249945, "lon": 72.8415353, "tags": {"addr:city": "Mumbai", "addr:district": "Dadar West", "addr:floor": "48", "addr:postcode": "400028", "addr:street": "Kohinoor Square", "amenity": "restaurant", "bar": "yes", "cuisine": "seafood;fine_dining", "level": "48", "name": "Bastian At The Top", "opening_hours": "Tu-Su 12:00-01:00", "phone": "02250333555", "reservation": "recommended", "website": "https://www.bastianhospitality.com/bastianattop"}}, {"type": "node", "id": 13041479724, "lat": 19.0832672, "lon": 72.9093889, "tags": {"addr:city": "ghatkopar east", "addr:district": "Mumbai", "addr:housenumber": "shop 1", "addr:postcode": "400077", "addr:street": "60 feet road", "amenity": "restaurant", "cuisine": "indian", "diet:vegetarian": "yes", "name": "bhagat tarachand", "opening_hours": "Mo-Su 09:00-21:00"}}, {"type": "node", "id": 13041513158, "lat": 19.0817283, "lon": 72.9066545, "tags": {"addr:city": "mumbai", "addr:district": "mumbai", "addr:housenumber": "123", "addr:postcode": "400077", "addr:street": "tilak road", "amenity": "restaurant", "cuisine": "pizza;sandwich", "diet:vegetarian": "yes", "name": "gupta sandwich", "opening_hours": "Mo-Su 09:00-21:00"}}, {"type": "node", "id": 13058306197, "lat": 19.0562652, "lon": 72.8350841, "tags": {"amenity": "restaurant", "name": "Gokul Refreshments", "name:en": "Gokul Refreshments", "name:mr": "\u0917\u094b\u0915\u0941\u0933 \u0930\u093f\u092b\u094d\u0930\u0947\u0936\u092e\u0947\u0928\u094d\u091f\u094d\u0938"}}, {"type": "node", "id": 13064131464, "lat": 19.0546772, "lon": 72.8262181, "tags": {"amenity": "restaurant", "name": "Cafe Delight Restaurant", "name:en": "Cafe Delight Restaurant", "name:mr": "\u0915\u0945\u092b\u0947 \u0921\u093f\u0932\u093e\u0908\u091f \u0930\u0947\u0938\u094d\u091f\u0949\u0930\u0902\u091f"}}, {"type": "node", "id": 13064902217, "lat": 19.0546688, "lon": 72.8282658, "tags": {"amenity": "restaurant", "cuisine": "asian", "name": "Seefah", "name:en": "Seefah", "name:mr": "\u0938\u0940\u092b\u093e"}}, {"type": "node", "id": 13067345239, "lat": 19.0530486, "lon": 72.8291774, "tags": {"amenity": "restaurant", "cuisine": "chinese", "name": "Four Chopsticks", "name:en": "Four Chopsticks", "name:mr": "\u092b\u094b\u0930 \u091a\u094b\u092a\u0938\u094d\u091f\u093f\u0915\u094d\u0938", "opening_hours": "Mo-Su 12:00-15:30,19:00-23:30", "payment:cash": "yes", "payment:upi": "yes"}}, {"type": "node", "id": 13082053987, "lat": 19.0543377, "lon": 72.8388343, "tags": {"amenity": "restaurant", "name": "New Riyaz Restaurant", "name:en": "New Riyaz Restaurant", "name:mr": "\u0928\u094d\u092f\u0941 \u0930\u093f\u092f\u093e\u091d \u0930\u0947\u0938\u094d\u091f\u094b\u0930\u0947\u0902\u091f"}}, {"type": "node", "id": 13089306642, "lat": 19.0628688, "lon": 72.829862, "tags": {"amenity": "restaurant", "name": "Scarlett House", "name:en": "Scarlett House"}}, {"type": "node", "id": 13089348621, "lat": 19.0715458, "lon": 72.8338617, "tags": {"amenity": "restaurant", "level": "1", "name": "Khao Piyo", "name:en": "Khao Piyo"}}, {"type": "node", "id": 13096612324, "lat": 19.0753432, "lon": 72.9052278, "tags": {"addr:city": "mumbai", "addr:district": "mumbai suburban", "addr:housenumber": "123", "addr:postcode": "400075", "addr:street": "tilak road", "amenity": "restaurant", "cuisine": "indian;western", "diet:vegetarian": "yes", "name": "blossom", "opening_hours": "Mo-Su 10:00-22:00"}}, {"type": "node", "id": 13097872577, "lat": 19.0679036, "lon": 72.8377151, "tags": {"amenity": "restaurant", "diet:vegetarian": "yes", "name": "Shiv Sagar", "name:en": "Shiv Sagar", "name:mr": "\u0936\u093f\u0935 \u0938\u093e\u0917\u0930"}}, {"type": "node", "id": 13097872634, "lat": 19.0673675, "lon": 72.8374577}, {"type": "node", "id": 13097872635, "lat": 19.0673653, "lon": 72.8375736}, {"type": "node", "id": 13097872636, "lat": 19.0674816, "lon": 72.8375761}, {"type": "node", "id": 13097872637, "lat": 19.0674839, "lon": 72.8374603}, {"type": "node", "id": 13130468365, "lat": 19.0507509, "lon": 72.8299171}, {"type": "node", "id": 13130468368, "lat": 19.0507718, "lon": 72.8299043}, {"type": "node", "id": 13130468369, "lat": 19.0507591, "lon": 72.8298822}, {"type": "node", "id": 13130468370, "lat": 19.0507389, "lon": 72.8298954}, {"type": "node", "id": 13205068199, "lat": 19.0658523, "lon": 72.8332728, "tags": {"air_conditioning": "yes", "amenity": "restaurant", "cuisine": "vietnamese", "level": "0", "name": "Vietnom Mumbai", "name:en": "Vietnom Mumbai", "name:mr": "\u0935\u093f\u092f\u0924\u0928\u093e\u092e \u092e\u0941\u0902\u092c\u0908", "opening_hours": "Mo-Su 12:00-24:00", "phone": "+9170212 17355", "website": "http://www.vietnommumbai.com/"}}, {"type": "node", "id": 13235113776, "lat": 19.038905, "lon": 72.8423594, "tags": {"amenity": "restaurant", "bar": "yes", "name": "Step In Family Restaurant & Bar"}}, {"type": "node", "id": 13235113778, "lat": 19.0399513, "lon": 72.8416932, "tags": {"amenity": "restaurant", "contact:website": "https://99pancakes.in/", "cuisine": "pancake", "level": "0", "name": "99 Pancakes"}}, {"type": "node", "id": 13300953389, "lat": 19.060538, "lon": 72.8476264, "tags": {"amenity": "restaurant", "cuisine": "indian", "name": "Sai Prasad"}}, {"type": "node", "id": 13324396403, "lat": 19.0275709, "lon": 72.8554829, "tags": {"addr:postcode": "400019", "addr:street": "King's Circle", "amenity": "restaurant", "name": "Cafe Mysore"}}, {"type": "way", "id": 40739096, "nodes": [495022325, 495022326, 495022327, 495022328, 495022325], "tags": {"amenity": "restaurant", "building": "apartments", "cuisine": "Goan", "name": "Goa Portuguesa"}}, {"type": "way", "id": 116616996, "nodes": [1314252804, 1314252827, 1314252825, 1314252847, 1314252804], "tags": {"addr:city": "Mumbai", "addr:postcode": "400019", "addr:street": "Nathalal Parekh Road", "amenity": "restaurant", "building": "yes", "cuisine": "chinese;indian;regional", "diet:vegetarian": "yes", "name": "classic", "opening_hours": "Mo-Fr 08:00-17:00"}}, {"type": "way", "id": 314367859, "nodes": [3204173570, 3204173571, 3204173572, 3204173573, 3204173570], "tags": {"amenity": "restaurant", "building": "yes", "cuisine": "regional", "name": "rozy ...noodle khaoo bhuk mitaao noodle khao"}}, {"type": "way", "id": 353160211, "nodes": [3589281105, 12633252906, 3589281097, 3589281100, 3589281139, 12633183100, 3589281105], "tags": {"amenity": "restaurant", "building": "yes", "name": "Naaz Restaurant"}}, {"type": "way", "id": 353415856, "nodes": [3591971094, 3591971098, 3591971097, 3591971093, 3591971094], "tags": {"addr:city": "Mumbai", "addr:postcode": "400074", "addr:street": "Acharya Shopping Centre, CG Road", "amenity": "restaurant", "building": "yes", "cuisine": "indian", "name": "Sadguru", "outdoor_seating": "yes", "smoking": "no", "takeaway": "yes"}}, {"type": "way", "id": 353425056, "nodes": [3592043944, 3592043945, 3592043946, 3592043947, 3592043949, 3592043948, 3592043950, 3592043951, 3592043954, 3592043953, 3592043955, 3592043952, 3592043944], "tags": {"addr:city": "Mumbai", "addr:housenumber": "Next to Jenny Pohtot Studio", "addr:postcode": "400 071", "addr:street": "Shell Colony Road", "air_conditioning": "yes", "amenity": "restaurant", "bar": "yes", "building": "apartments", "building:levels": "2", "cuisine": "chicken;american;chinese;seafood;indian", "diet:fish": "yes", "diet:meat": "yes", "diet:non-vegetarian": "yes", "diet:pescetarian": "yes", "diet:vegetarian": "yes", "name": "Chembur Adda", "opening_hours": "Mo-Su 08:00-22:00", "payment:apple_pay": "yes", "payment:cash": "yes", "payment:credit_cards": "yes", "payment:debit_cards": "yes", "payment:google_pay": "yes", "phone": "+91 22 2666 1575", "reservation": "yes", "takeaway": "yes"}}, {"type": "way", "id": 354066471, "nodes": [3598454271, 3598454270, 3598454264, 3598454265, 3598454271], "tags": {"addr:city": "Santacruz East, Mumbai", "addr:district": "Mumbai", "addr:postcode": "400055", "addr:street": "Road No 6", "amenity": "restaurant", "building": "residential", "cuisine": "regional;soup;western", "diet:vegetarian": "yes", "name": "Hotel Radhakrishna", "opening_hours": "Mo-Su 10:00-22:00"}}, {"type": "way", "id": 357472079, "nodes": [3627070970, 3627070987, 3627070988, 3627070971, 3627070970], "tags": {"amenity": "restaurant", "building": "yes", "name": "Hotel Sahil", "name:en": "Hotel Sahil", "name:mr": "\u0939\u0949\u091f\u0947\u0932 \u0938\u093e\u0939\u0940\u0932"}}, {"type": "way", "id": 359780137, "nodes": [3644260075, 3644260074, 3644260072, 3644260073, 3644260075], "tags": {"amenity": "restaurant", "building": "yes", "name": "Deluxe Restaurant"}}, {"type": "way", "id": 480788776, "nodes": [4737541126, 4737541127, 4737541128, 4737541129, 4737541130, 4737541131, 4737541126], "tags": {"addr:city": "Mumbai", "addr:postcode": "400094", "amenity": "restaurant", "building": "yes", "cuisine": "indian", "internet_access": "no", "name": "BARC Hospital Canteen", "opening_hours": "PH,Mo-Su 07:00-23:00", "outdoor_seating": "no"}}, {"type": "way", "id": 543778459, "nodes": [5256637209, 5256637210, 5256637211, 5256637212, 5256637209], "tags": {"addr:city": "Mumbai", "addr:postcode": "400050", "addr:street": "Chapel Road", "amenity": "restaurant", "building": "yes", "name": "Bandra Born", "name:en": "Bandra Born"}}, {"type": "way", "id": 824809087, "nodes": [7701747706, 7701747707, 7701747713, 7701747708, 7701747709, 7699687640, 7701747706], "tags": {"amenity": "restaurant", "building": "yes", "name": "Dil Bahar Hotel"}}, {"type": "way", "id": 824809089, "nodes": [7701747714, 7701747715, 7701747716, 7701747717, 7701747714], "tags": {"amenity": "restaurant", "building": "yes", "name": "Shalimar"}}, {"type": "way", "id": 824809141, "nodes": [7701817369, 7701817370, 7701817371, 7701817372, 7701817369], "tags": {"amenity": "restaurant", "building": "yes", "name": "Abhinandan Family Restaurant and bar"}}, {"type": "way", "id": 824809156, "nodes": [7701817432, 7701817433, 7701817434, 7701817435, 7701817436, 7701817437, 7701817438, 7701817432], "tags": {"amenity": "restaurant", "building": "yes", "name": "Nogauri Ama Milk center"}}, {"type": "way", "id": 824809183, "nodes": [7701817553, 7701817554, 7701817555, 7701817556, 7701817553], "tags": {"amenity": "restaurant", "building": "yes", "name": "Datar Darbar"}}, {"type": "way", "id": 824809184, "nodes": [7701817557, 7701817558, 7701817559, 7701817560, 7701817557], "tags": {"amenity": "restaurant", "building": "yes", "name": "Datar Darbar"}}, {"type": "way", "id": 1227680048, "nodes": [11384605345, 11384605346, 11384605347, 11384605350, 11384605349, 11384605351, 11384605348, 11384605345], "tags": {"amenity": "restaurant", "building": "residential", "cuisine": "fish", "diet:non-vegetarian": "yes", "name": "masoli", "name:en": "masoli", "opening_hours": "Mo-Su 08:00-21:00"}}, {"type": "way", "id": 1346339129, "nodes": [11022260027, 12452739633, 12452739634, 12452739636, 12452739635, 11022260027], "tags": {"addr:city": "Mumbai", "addr:district": "Dharavi", "addr:postcode": "400017", "amenity": "restaurant", "building": "yes", "cuisine": "chinese;moghlai", "name": "Saheel Restaurant", "opening_hours": "Mo 07:00 - 00:30 Tu - Su 07:30 - 00:30", "phone": "+91 77384 50409"}}, {"type": "way", "id": 1408576356, "nodes": [12944826136, 12944826134, 12944826135, 12944826137, 12944826136], "tags": {"air_conditioning": "yes", "amenity": "restaurant", "contact:mobile": "+91-88283-37133", "contact:phone": "+91-22-3540-6760", "contact:website": "https://graciasgranny.com", "cuisine": "mexican", "delivery": "yes", "diet:lacto_vegetarian": "yes", "diet:vegan": "yes", "level": "0", "name": "Gracias Granny", "opening_hours": "10:00-23:00", "operator": "New Norm Foods Private Limited", "outdoor_seating": "yes", "takeaway": "yes", "toilets": "yes"}}, {"type": "way", "id": 1424948150, "nodes": [13097872634, 13097872635, 13097872636, 13097872637, 13097872634], "tags": {"amenity": "restaurant", "building": "yes", "cuisine": "indian", "name": "Rajasthan Restaurant", "name:en": "Rajasthan Restaurant", "name:mr": "\u0930\u093e\u091c\u0938\u094d\u0925\u093e\u0928 \u0930\u0947\u0938\u094d\u091f\u0949\u0930\u0928\u094d\u091f"}}, {"type": "way", "id": 1428230097, "nodes": [13130468368, 13130468369, 13130468370, 13130468365, 13130468368], "tags": {"amenity": "restaurant", "building": "yes", "cuisine": "indian", "name": "Mysore Thatte Tales", "name:en": "Mysore Thatte Tales", "name:mr": "\u092e\u094d\u0939\u0948\u0938\u0942\u0930 \u0925\u0924\u094d\u0924\u0947 \u091f\u0947\u0932\u094d\u0938", "opening_hours": "Mo-Su 07:00-21:00"}}]}