{"version": 0.6, "generator": "Overpass API 0.7.62.8 e802775f", "osm3s": {"timestamp_osm_base": "2025-11-29T05:52:52Z", "copyright": "The data included in this document is from www.openstreetmap.org. The data is made available under ODbL."}, "elements": [{"type": "node", "id": 542383450, "lat": 12.2922036, "lon": 76.6423443, "tags": {"amenity": "hospital", "name": "Ashoka Clinic"}}, {"type": "node", "id": 1636785470, "lat": 12.2951389, "lon": 76.6412904, "tags": {"amenity": "hospital", "designation": "Diagnostic Centre", "emergency": "no", "name": "Clumax Diagnostics", "source": "MedAll"}}, {"type": "node", "id": 1637367301, "lat": 12.2972634, "lon": 76.6545837}, {"type": "node", "id": 1637367303, "lat": 12.2969061, "lon": 76.6545291}, {"type": "node", "id": 1637367304, "lat": 12.2965234, "lon": 76.6550015}, {"type": "node", "id": 1637367305, "lat": 12.2968746, "lon": 76.654744}, {"type": "node", "id": 1637367306, "lat": 12.2948195, "lon": 76.6555141}, {"type": "node", "id": 1637367318, "lat": 12.2946889, "lon": 76.655495}, {"type": "node", "id": 1637367320, "lat": 12.2962194, "lon": 76.6568201}, {"type": "node", "id": 1637367322, "lat": 12.2954437, "lon": 76.6536014}, {"type": "node", "id": 1637367323, "lat": 12.2945684, "lon": 76.6567074}, {"type": "node", "id": 1637367324, "lat": 12.2965654, "lon": 76.6546958}, {"type": "node", "id": 1637367325, "lat": 12.294951, "lon": 76.6545348}, {"type": "node", "id": 1637367326, "lat": 12.2964843, "lon": 76.6549956}, {"type": "node", "id": 1637367327, "lat": 12.2952707, "lon": 76.6546046}, {"type": "node", "id": 1637367328, "lat": 12.2973952, "lon": 76.6539717}, {"type": "node", "id": 2499182938, "lat": 12.3151994, "lon": 76.6513152}, {"type": "node", "id": 2499182941, "lat": 12.3153042, "lon": 76.6515334}, {"type": "node", "id": 2499182943, "lat": 12.3152464, "lon": 76.6519515}, {"type": "node", "id": 2499182945, "lat": 12.3145994, "lon": 76.6518664}, {"type": "node", "id": 2499182947, "lat": 12.3146066, "lon": 76.6515667}, {"type": "node", "id": 2499182949, "lat": 12.3147078, "lon": 76.651452}, {"type": "node", "id": 3002889703, "lat": 12.3141277, "lon": 76.6513617}, {"type": "node", "id": 3002889704, "lat": 12.3123634, "lon": 76.649091}, {"type": "node", "id": 3002889705, "lat": 12.312284, "lon": 76.6518172}, {"type": "node", "id": 3002889710, "lat": 12.3146668, "lon": 76.6479132}, {"type": "node", "id": 3002889712, "lat": 12.3144252, "lon": 76.6510812}, {"type": "node", "id": 3002889713, "lat": 12.3121914, "lon": 76.6507848}, {"type": "node", "id": 3002889714, "lat": 12.3126588, "lon": 76.6479081}, {"type": "node", "id": 3002889715, "lat": 12.3124912, "lon": 76.6491201}, {"type": "node", "id": 3002889717, "lat": 12.3147647, "lon": 76.6480076}, {"type": "node", "id": 3224353374, "lat": 12.3121104, "lon": 76.6507986}, {"type": "node", "id": 3229089054, "lat": 12.3088189, "lon": 76.6676595}, {"type": "node", "id": 3229089055, "lat": 12.3087807, "lon": 76.6682066}, {"type": "node", "id": 3229089056, "lat": 12.3084116, "lon": 76.6681871}, {"type": "node", "id": 3229089057, "lat": 12.3084593, "lon": 76.6676367}, {"type": "node", "id": 3254793250, "lat": 12.2973151, "lon": 76.6539565}, {"type": "node", "id": 3254793251, "lat": 12.2973206, "lon": 76.6539216}, {"type": "node", "id": 3254793252, "lat": 12.2971502, "lon": 76.6539297}, {"type": "node", "id": 3254793253, "lat": 12.2971731, "lon": 76.6538458}, {"type": "node", "id": 3254793254, "lat": 12.2972839, "lon": 76.6539156}, {"type": "node", "id": 3254793255, "lat": 12.2972924, "lon": 76.6538727}, {"type": "node", "id": 3272654654, "lat": 12.2961243, "lon": 76.6435138}, {"type": "node", "id": 3272654655, "lat": 12.2961243, "lon": 76.6438127}, {"type": "node", "id": 3272655174, "lat": 12.2962491, "lon": 76.6438026}, {"type": "node", "id": 3272655175, "lat": 12.2962491, "lon": 76.6438127}, {"type": "node", "id": 3272655176, "lat": 12.2962518, "lon": 76.6435138}, {"type": "node", "id": 3272655177, "lat": 12.2962518, "lon": 76.6435535}, {"type": "node", "id": 3272655182, "lat": 12.2962716, "lon": 76.6435535}, {"type": "node", "id": 3272655183, "lat": 12.2962716, "lon": 76.6438026}, {"type": "node", "id": 3328017132, "lat": 12.320427, "lon": 76.6500703, "tags": {"addr:district": "Mysuru", "addr:full": "Mandi Mohalla , Na", "addr:postcode": "570009", "addr:state": "Karnataka", "amenity": "hospital", "healthcare": "hospital", "name": "Csi Holdsworth Memorial Hospital", "source": "OpenGovernmentData"}}, {"type": "node", "id": 3358924721, "lat": 12.2888478, "lon": 76.6520122}, {"type": "node", "id": 3358924722, "lat": 12.2889281, "lon": 76.6524037}, {"type": "node", "id": 3358924723, "lat": 12.2887275, "lon": 76.6522295}, {"type": "node", "id": 3358927311, "lat": 12.2887558, "lon": 76.6520436}, {"type": "node", "id": 3358927312, "lat": 12.2887086, "lon": 76.6523623}, {"type": "node", "id": 3630740152, "lat": 12.306409, "lon": 76.6455915, "tags": {"addr:district": "Mysuru", "addr:full": "313, Deewans Road Near Marimallappa College Deewans Road", "addr:postcode": "570024", "addr:state": "Karnataka", "amenity": "hospital", "name": "Sushrutha Eye Hospital", "source": "OpenGovernmentData"}}, {"type": "node", "id": 3632571466, "lat": 12.2949273, "lon": 76.6547116}, {"type": "node", "id": 4326778366, "lat": 12.3145687, "lon": 76.6498592}, {"type": "node", "id": 4326778367, "lat": 12.3146873, "lon": 76.6488488}, {"type": "node", "id": 4326778374, "lat": 12.3145644, "lon": 76.649896}, {"type": "node", "id": 4326778385, "lat": 12.3144588, "lon": 76.650795}, {"type": "node", "id": 4326781882, "lat": 12.3146939, "lon": 76.6487768}, {"type": "node", "id": 4326786590, "lat": 12.3144417, "lon": 76.6479126}, {"type": "node", "id": 4852190221, "lat": 12.2973328, "lon": 76.6413368, "tags": {"amenity": "hospital", "name": "Nethradhama Eye Hospital", "name:kn": "\u0ca8\u0cc7\u0ca4\u0ccd\u0cb0\u0ca7\u0cbe\u0cae \u0c95\u0ca3\u0ccd\u0ca3\u0cbf\u0ca8 \u0c86\u0cb8\u0ccd\u0caa\u0ca4\u0ccd\u0cb0\u0cc6"}}, {"type": "node", "id": 5112209424, "lat": 12.3147301, "lon": 76.6518836}, {"type": "node", "id": 5977292538, "lat": 12.2963218, "lon": 76.6568356}, {"type": "node", "id": 6938762575, "lat": 12.2988923, "lon": 76.6455086, "tags": {"addr:district": "Mysuru", "addr:full": "No. 873, M. G. Road, Laksmipuram", "addr:postcode": "570004", "addr:state": "Karnataka", "amenity": "hospital", "healthcare": "hospital", "name": "Preethi Centre For Oncology", "source": "OpenGovernmentData"}}, {"type": "node", "id": 6938777920, "lat": 12.3161539, "lon": 76.6510481, "tags": {"addr:district": "Mysuru", "addr:full": "1475, 1 st Floor , Above Hotel Venkatesh Bhavan , Near Ayurvedic Hospital , Mission Hospital Road", "addr:postcode": "570001", "addr:state": "Karnataka", "amenity": "hospital", "healthcare": "hospital", "name": "Netra Jyothi Eye Hospital", "name:kn": "\u0ca8\u0cc7\u0ca4\u0ccd\u0cb0\u0c9c\u0ccd\u0caf\u0ccb\u0ca4\u0cbf \u0c95\u0ca3\u0ccd\u0ca3\u0cbf\u0ca8 \u0c86\u0cb8\u0ccd\u0caa\u0ca4\u0ccd\u0cb0\u0cc6", "source": "OpenGovernmentData"}}, {"type": "node", "id": 6944194878, "lat": 12.2902204, "lon": 76.6494012, "tags": {"addr:district": "Mysuru", "addr:full": "Narayana Shastry Road, Chamundipuram", "addr:postcode": "570004", "addr:state": "Karnataka", "amenity": "hospital", "name": "Mythri Hospital, Mysuru", "name:kn": "\u0cae\u0cc8\u0ca4\u0ccd\u0cb0\u0cbf \u0c86\u0cb8\u0ccd\u0caa\u0ca4\u0ccd\u0cb0\u0cc6", "source": "OpenGovernmentData"}}, {"type": "node", "id": 6944231442, "lat": 12.2972852, "lon": 76.6536548, "tags": {"addr:district": "Mysuru", "addr:full": "OppositeTo Sbm Bank, J.S.S Hospital, Ramanuja Road, Agrahara", "addr:postcode": "570004", "addr:state": "Karnataka", "amenity": "hospital", "name": "Mithi Surgery Hospital", "source": "OpenGovernmentData"}}, {"type": "node", "id": 6944276822, "lat": 12.2887482, "lon": 76.6496627, "tags": {"addr:district": "Mysuru", "addr:full": "#2876, 4Th Cross,Narayana Shastry Road, Chamundipuram,Opposite G.R.T,Chamundipuram", "addr:postcode": "570004", "addr:state": "Karnataka", "amenity": "hospital", "name": "Vidyaranya Hospital (P) Ltd", "source": "OpenGovernmentData"}}, {"type": "node", "id": 6944276841, "lat": 12.2982394, "lon": 76.6443821, "tags": {"addr:district": "Mysuru", "addr:full": "No. 877 / 1, Dewans Road, Lakshmipuram", "addr:postcode": "570004", "addr:state": "Karnataka", "amenity": "hospital", "healthcare": "hospital", "name": "Usha Kiran Eye Hospital and Usha Kiran Charitable Trust", "source": "OpenGovernmentData"}}, {"type": "node", "id": 6944996519, "lat": 12.2952836, "lon": 76.648398, "tags": {"addr:district": "Mysuru", "addr:full": "Sita Ranga Healthcare Complex,No.1659, Narayan Shastri Road,Narayan Shastri Road, Lakshmipuram", "addr:postcode": "570008", "addr:state": "Karnataka", "amenity": "hospital", "healthcare": "hospital", "name": "Vaatsalaya Hospital, Mysuru", "source": "OpenGovernmentData"}}, {"type": "node", "id": 6945192067, "lat": 12.3101589, "lon": 76.6563984, "tags": {"addr:district": "Mysuru", "addr:full": "410 Contour Road Gokulam 3Road Stage", "addr:postcode": "570007", "addr:state": "Karnataka", "amenity": "hospital", "healthcare": "hospital", "name": "Ramesh Hospital For Piles and Proctology", "source": "OpenGovernmentData"}}, {"type": "node", "id": 6945716390, "lat": 12.2965546, "lon": 76.6466251, "tags": {"addr:district": "Mysuru", "addr:full": "933 Hemaganga 1st Main Laxmipuram", "addr:postcode": "570004", "addr:state": "Karnataka", "amenity": "hospital", "healthcare": "hospital", "name": "Simha Heart Foundation", "source": "OpenGovernmentData"}}, {"type": "node", "id": 6947293187, "lat": 12.3113639, "lon": 76.647771, "tags": {"addr:district": "Mysuru", "addr:full": "Opposite Sangeetha Lodge, 1374, Naryana Shastri Road", "addr:postcode": "570001", "addr:state": "Karnataka", "amenity": "hospital", "healthcare": "hospital", "name": "Sharda Surgery and Cyro- Surgery Centre", "source": "OpenGovernmentData"}}, {"type": "node", "id": 6948503464, "lat": 12.2922659, "lon": 76.6422933, "tags": {"addr:district": "Mysuru", "addr:full": "1498, Ramaiyer Road, K.M.Puram, Near Sharadavilas Educational Institutions", "addr:postcode": "570004", "addr:state": "Karnataka", "amenity": "hospital", "name": "Raman Memorial Hospital-Mysore", "source": "OpenGovernmentData"}}, {"type": "node", "id": 6948620732, "lat": 12.3144454, "lon": 76.6552249, "tags": {"addr:district": "Mysuru", "addr:full": "25/1A Irwin Road", "addr:postcode": "570024", "addr:state": "Karnataka", "amenity": "hospital", "healthcare": "hospital", "name": "Chitra's Hospital", "source": "OpenGovernmentData"}}, {"type": "node", "id": 7562027204, "lat": 12.2996624, "lon": 76.6524005, "tags": {"addr:district": "Mysuru", "addr:full": "Agrahara, Fort Mohalla, Mysuru", "addr:postcode": "570004", "addr:state": "Karnataka", "amenity": "hospital", "name": "Anagha Hospital", "source": "Local Knowledge"}}, {"type": "node", "id": 7562027211, "lat": 12.3079269, "lon": 76.6471859, "tags": {"addr:district": "Mysuru", "addr:full": "ESI Hospital Road, Subbarayanakere, Chamrajpura, Mysuru", "addr:postcode": "570004", "addr:state": "Karnataka", "amenity": "hospital", "healthcare": "hospital", "name": "ESI Hospital", "name:kn": "\u0c87\u0c8e\u0cb8\u0ccd\u0c90 \u0c86\u0cb8\u0ccd\u0caa\u0ca4\u0ccd\u0cb0\u0cc6", "operator": "Employees' State Insurance", "operator:short": "ESI", "operator:wikidata": "Q3595726", "source": "Local Knowledge"}}, {"type": "node", "id": 7562027237, "lat": 12.3193378, "lon": 76.663692, "tags": {"addr:district": "Mysuru", "addr:full": "Mohammed Sait Block, Earangere, Gayathri Puram, Mysuru", "addr:postcode": "570007", "addr:state": "Karnataka", "amenity": "hospital", "name": "Al Ansaar Hospital", "name:kn": "\u0c85\u0cb2\u0ccd \u0c85\u0ca8\u0ccd\u0cb8\u0cbe\u0cb0\u0ccd \u0c86\u0cb8\u0ccd\u0caa\u0ca4\u0ccd\u0cb0\u0cc6", "source": "Local Knowledge"}}, {"type": "node", "id": 7562027270, "lat": 12.2960015, "lon": 76.6393656, "tags": {"addr:district": "Mysuru", "addr:full": "Chamarajapura, Chamarajapuram Mohalla, Lakshmipuram, Mysore", "addr:postcode": "570004", "addr:state": "Karnataka", "amenity": "hospital", "name": "Sindhu Eye Hospital", "source": "Local Knowledge"}}, {"type": "node", "id": 7562027272, "lat": 12.301903, "lon": 76.6433102, "tags": {"addr:district": "Mysuru", "addr:full": "Mangalore - Mysore Highway, Chamarajapura, Chamarajapuram Mohalla, Lakshmipuram, Mysuru", "addr:postcode": "570005", "addr:state": "Karnataka", "amenity": "hospital", "name": "Preety Cancer Hospital", "source": "Local Knowledge"}}, {"type": "node", "id": 7562027276, "lat": 12.316897, "lon": 76.6504964, "tags": {"addr:district": "Mysuru", "addr:full": "Near K.R Hospital, Kabir Road, CFTRI Campus, Yadavagiri, Mysuru", "addr:postcode": "570021", "addr:state": "Karnataka", "amenity": "hospital", "healthcare": "hospital", "name": "Hitech Kidney Stone Hospital", "source": "Local Knowledge"}}, {"type": "node", "id": 7562027284, "lat": 12.2875301, "lon": 76.6523576, "tags": {"addr:district": "Mysuru", "addr:full": "Bettadpura, Mysuru", "addr:postcode": "570004", "addr:state": "Karnataka", "amenity": "hospital", "name": "Leelavathi Hospital", "source": "Local Knowledge"}}, {"type": "node", "id": 7562027299, "lat": 12.302911, "lon": 76.6443991, "tags": {"addr:district": "Mysuru", "addr:full": "Dewance Road, Near Chamraja Mohalla, Mysuru", "addr:postcode": "570024", "addr:state": "Karnataka", "amenity": "hospital", "name": "Sapthagiri Hospital", "name:kn": "\u0cb8\u0caa\u0ccd\u0ca4\u0c97\u0cbf\u0cb0\u0cbf \u0c86\u0cb8\u0ccd\u0caa\u0ca4\u0ccd\u0cb0\u0cc6", "source": "Local Knowledge"}}, {"type": "node", "id": 7562027304, "lat": 12.320474, "lon": 76.648926, "tags": {"addr:district": "Mysuru", "addr:full": "Tilak Nagar, Mysuru", "addr:postcode": "570001", "addr:state": "Karnataka", "amenity": "hospital", "healthcare": "hospital", "name": "Gayatri Hospital", "name:kn": "\u0c97\u0cbe\u0caf\u0ca4\u0ccd\u0cb0\u0cbf \u0c86\u0cb8\u0ccd\u0caa\u0ca4\u0ccd\u0cb0\u0cc6", "source": "Local Knowledge"}}, {"type": "node", "id": 8188038278, "lat": 12.3141191, "lon": 76.6493079, "tags": {"addr:full": "Opp Mysore Medical College, KR Hospital Compound, Irwin Rd, Devaraja Mohalla, Devraj Mohalla, Mysuru, Karnataka", "addr:state": "Karnataka", "amenity": "hospital", "healthcare": "hospital", "name": "Cheluvamba Hospital", "name:kn": "\u0c9a\u0cc6\u0cb2\u0cc1\u0cb5\u0cbe\u0c82\u0cac \u0c86\u0cb8\u0ccd\u0caa\u0ca4\u0ccd\u0cb0\u0cc6"}}, {"type": "node", "id": 11067289535, "lat": 12.2957207, "lon": 76.6567861}, {"type": "node", "id": 11410061744, "lat": 12.3144389, "lon": 76.6509376}, {"type": "way", "id": 150869510, "nodes": [1637367328, 3254793250, 3254793251, 3254793254, 3254793255, 3254793253, 3254793252, 1637367322, 1637367327, 1637367325, 3632571466, 1637367306, 1637367318, 1637367323, 11067289535, 1637367320, 5977292538, 1637367326, 1637367304, 1637367324, 1637367305, 1637367303, 1637367301, 1637367328], "tags": {"addr:city": "Mysuru", "addr:street": "Ramanuja Road", "amenity": "hospital", "emergency": "yes", "name": "JSS Hospital", "name:kn": "\u0c9c\u0cc7.\u0c8e\u0cb8\u0ccd.\u0c8e\u0cb8\u0ccd. \u0c86\u0cb8\u0ccd\u0caa\u0ca4\u0ccd\u0cb0\u0cc6"}}, {"type": "way", "id": 242454055, "nodes": [2499182938, 2499182941, 2499182943, 5112209424, 2499182945, 2499182947, 2499182949, 2499182938], "tags": {"addr:city": "Mysore", "addr:postcode": "570001", "addr:street": "Sayyaji Rao Road", "amenity": "hospital", "building": "yes", "healthcare": "hospital", "name": "Government Ayurveda Medical College", "name:kn": "\u0cb8\u0cb0\u0ccd\u0c95\u0cbe\u0cb0\u0cbf \u0c85\u0caf\u0cc1\u0cb0\u0ccd\u0cb5\u0cc7\u0ca6 \u0c95\u0cbe\u0cb2\u0cc7\u0c9c\u0cc1"}}, {"type": "way", "id": 296503412, "nodes": [3002889717, 3002889710, 4326786590, 3002889714, 3002889704, 3002889715, 3002889713, 3224353374, 3002889705, 3002889703, 3002889712, 11410061744, 4326778385, 4326778374, 4326778366, 4326778367, 4326781882, 3002889717], "tags": {"addr:district": "Mysuru", "addr:full": "Irwin Road, Mysuru", "addr:postcode": "570001", "addr:state": "Karnataka", "alt_name": "K R Hospital", "amenity": "hospital", "emergency": "yes", "healthcare": "hospital", "name": "Krishna Rajendra Hospital", "name:etymology:wikidata": "Q2429324", "name:kn": "\u0c95\u0cc3\u0cb7\u0ccd\u0ca3\u0cb0\u0cbe\u0c9c\u0cc7\u0c82\u0ca6\u0ccd\u0cb0 \u0c86\u0cb8\u0ccd\u0caa\u0ca4\u0ccd\u0cb0\u0cc6", "source": "OpenGovernmentData"}}, {"type": "way", "id": 316747947, "nodes": [3229089054, 3229089055, 3229089056, 3229089057, 3229089054], "tags": {"addr:city": "Mysuru", "addr:district": "Mysuru", "addr:full": "T Narasipura Road, Opp Nazarbad Police Station", "addr:postcode": "570010", "addr:state": "Karnataka", "addr:street": "Bannur Road", "amenity": "hospital", "building": "yes", "name": "Gopalagowda Shanthaveri Memorial Hospital", "name:kn": "\u0cb6\u0cbe\u0c82\u0ca4\u0cb5\u0cc7\u0cb0\u0cbf \u0c97\u0ccb\u0caa\u0cbe\u0cb2\u0c97\u0ccc\u0ca1 \u0c86\u0cb8\u0ccd\u0caa\u0ca4\u0ccd\u0cb0\u0cc6", "source": "OpenGovernmentData"}}, {"type": "way", "id": 320649146, "nodes": [3272655177, 3272655182, 3272655183, 3272655174, 3272655175, 3272654655, 3272654654, 3272655176, 3272655177], "tags": {"addr:district": "Mysuru", "addr:full": "966/2, Jlb Road, Chamrajamohalla, Lakshmipuram", "addr:postcode": "570004", "addr:state": "Karnataka", "amenity": "hospital", "building": "yes", "emergency": "no", "name": "Vasan Eye Care Hospital, Mysuru", "source": "OpenGovernmentData"}}, {"type": "way", "id": 329067435, "nodes": [3358924721, 3358924722, 3358927312, 3358924723, 3358927311, 3358924721], "tags": {"amenity": "hospital"}}]}