{"version": 0.6, "generator": "Overpass API 0.7.62.8 e802775f", "osm3s": {"timestamp_osm_base": "2025-11-29T19:15:26Z", "copyright": "The data included in this document is from www.openstreetmap.org. The data is made available under ODbL."}, "elements": [{"type": "node", "id": 307413315, "lat": 12.9314045, "lon": 77.5924636, "tags": {"amenity": "pharmacy", "healthcare": "pharmacy"}}, {"type": "node", "id": 312507443, "lat": 12.9601717, "lon": 77.6387672, "tags": {"amenity": "pharmacy", "created_by": "Potlatch 0.10f"}}, {"type": "node", "id": 312507653, "lat": 12.9603255, "lon": 77.638371, "tags": {"amenity": "pharmacy"}}, {"type": "node", "id": 316996413, "lat": 12.9605409, "lon": 77.6372314, "tags": {"amenity": "pharmacy", "brand": "MedPlus", "brand:wikidata": "Q65684234", "healthcare": "pharmacy", "name": "MedPlus", "name:kn": "\u0cae\u0cc6\u0ca1\u0ccd \u0caa\u0ccd\u0cb2\u0cb8\u0ccd"}}, {"type": "node", "id": 316996472, "lat": 12.9600511, "lon": 77.6371358, "tags": {"amenity": "pharmacy", "created_by": "Potlatch 0.10f"}}, {"type": "node", "id": 316996475, "lat": 12.9586589, "lon": 77.6375328, "tags": {"amenity": "pharmacy", "created_by": "Potlatch 0.10f"}}, {"type": "node", "id": 316996550, "lat": 12.9581727, "lon": 77.6402029, "tags": {"amenity": "pharmacy"}}, {"type": "node", "id": 617760063, "lat": 13.0006252, "lon": 77.5652425, "tags": {"addr:city": "Malleswaram, Bangalore", "addr:street": "8th Main", "amenity": "pharmacy", "name": "Pushyamee"}}, {"type": "node", "id": 625857657, "lat": 13.0009721, "lon": 77.5640265, "tags": {"amenity": "pharmacy", "name": "Manipal North Side Pharmacy", "wheelchair": "yes"}}, {"type": "node", "id": 664332016, "lat": 13.0059079, "lon": 77.578507, "tags": {"amenity": "pharmacy", "healthcare": "pharmacy", "name": "Keshava Medical & General Stores"}}, {"type": "node", "id": 665871294, "lat": 12.9965785, "lon": 77.6045552, "tags": {"addr:street": "Benson Cross Road", "amenity": "pharmacy", "healthcare": "pharmacy", "name": "S. S. Pharma"}}, {"type": "node", "id": 673860153, "lat": 13.0129089, "lon": 77.5742856, "tags": {"amenity": "pharmacy", "name": "Saisudha Medical"}}, {"type": "node", "id": 860057144, "lat": 13.0050896, "lon": 77.623376, "tags": {"amenity": "pharmacy", "healthcare": "pharmacy", "name": "Amruth Medicals", "name:kn": "\u0c85\u0cae\u0cc3\u0ca4 \u0cae\u0cc6\u0ca1\u0cbf\u0c95\u0cb2\u0ccd\u0cb8\u0ccd"}}, {"type": "node", "id": 860057145, "lat": 13.0052518, "lon": 77.6233121, "tags": {"amenity": "pharmacy", "brand": "Apollo Pharmacy", "brand:wikidata": "Q62562612", "healthcare": "pharmacy", "name": "Apollo Pharmacy", "name:kn": "\u0c85\u0caa\u0cca\u0cb2\u0ccb \u0cab\u0cbe\u0cb0\u0ccd\u0cae\u0cb8\u0cbf"}}, {"type": "node", "id": 1067181200, "lat": 13.0044271, "lon": 77.6037741, "tags": {"amenity": "pharmacy", "healthcare": "pharmacy", "name": "Vijay Medicals", "name:kn": "\u0cb5\u0cbf\u0c9c\u0caf\u0ccd \u0cae\u0cc6\u0ca1\u0cbf\u0c95\u0cb2\u0ccd\u0cb8\u0ccd"}}, {"type": "node", "id": 1290107605, "lat": 13.0077106, "lon": 77.5640402, "tags": {"addr:city": "Bangalore", "addr:postcode": "560055", "addr:street": "8th Main Road", "amenity": "pharmacy", "dispensing": "yes", "name": "Sri Ganesh Medicals"}}, {"type": "node", "id": 1290125219, "lat": 13.0067295, "lon": 77.5642274, "tags": {"amenity": "pharmacy", "brand": "MedPlus", "brand:wikidata": "Q65684234", "healthcare": "pharmacy", "name": "MedPlus", "name:kn": "\u0cae\u0cc6\u0ca1\u0ccd\u200d\u0caa\u0ccd\u0cb2\u0cb8\u0ccd"}}, {"type": "node", "id": 1328617013, "lat": 12.9701421, "lon": 77.6314807, "tags": {"addr:street": "Sai Baba Mandira Road", "amenity": "pharmacy", "name": "Health and Glow"}}, {"type": "node", "id": 1375978247, "lat": 12.9360494, "lon": 77.6149821, "tags": {"amenity": "pharmacy", "healthcare": "pharmacy", "name": "Shakti Medical"}}, {"type": "node", "id": 1375978268, "lat": 12.9351354, "lon": 77.6134273, "tags": {"amenity": "pharmacy", "healthcare": "pharmacy", "name": "Health And Glow"}}, {"type": "node", "id": 1375978276, "lat": 12.9363466, "lon": 77.6146761, "tags": {"amenity": "pharmacy", "brand": "Apollo Pharmacy", "brand:wikidata": "Q62562612", "dispensing": "no", "healthcare": "pharmacy", "name": "Apollo Pharmacy", "name:kn": "\u0c85\u0caa\u0ccb\u0cb2\u0ccb \u0cab\u0cbe\u0cb0\u0ccd\u0cae\u0cb8\u0cbf"}}, {"type": "node", "id": 1440356371, "lat": 12.9354499, "lon": 77.5925943, "tags": {"amenity": "pharmacy", "healthcare": "pharmacy", "name": "Ramdev Medicals"}}, {"type": "node", "id": 1440356373, "lat": 12.9358054, "lon": 77.5927686, "tags": {"amenity": "pharmacy", "brand": "Wellness Forever", "brand:wikidata": "Q123114721", "healthcare": "pharmacy", "name": "Wellness Forever", "name:en": "Wellness forever"}}, {"type": "node", "id": 1446122916, "lat": 12.9683152, "lon": 77.6004368, "tags": {"addr:city": "Bangalore", "addr:full": "St. Marks Road, Opp Bishop Cotton Boys School, Srinivas Nagar, Shanthala Nagar, Ashok Nagar, Bengaluru", "addr:housenumber": "74/5", "addr:postcode": "560001", "addr:street": "Saint Mark's Road", "amenity": "pharmacy", "dispensing": "yes", "name": "The Cash Pharmacy", "phone": "080 3361 8456"}}, {"type": "node", "id": 1449018888, "lat": 12.9668907, "lon": 77.5986274, "tags": {"amenity": "pharmacy", "name": "Residency Pharmacy"}}, {"type": "node", "id": 1464885140, "lat": 12.9373048, "lon": 77.6244506, "tags": {"addr:postcode": "560095", "addr:street": "17th b main, 6th block", "amenity": "pharmacy", "brand": "Apollo Pharmacy", "brand:wikidata": "Q62562612", "dispensing": "yes", "healthcare": "pharmacy", "name": "Apollo Pharmacy", "name:kn": "\u0c85\u0caa\u0ccb\u0cb2\u0ccb \u0cab\u0cbe\u0cb0\u0ccd\u0cae\u0cb8\u0cbf"}}, {"type": "node", "id": 1465059607, "lat": 13.0061311, "lon": 77.5536439, "tags": {"amenity": "pharmacy", "dispensing": "yes", "name": "St Theresa Pharmacy"}}, {"type": "node", "id": 1466380358, "lat": 12.9370493, "lon": 77.5686801, "tags": {"amenity": "pharmacy", "healthcare": "pharmacy", "name": "Sagar Pharmacy"}}, {"type": "node", "id": 1466650618, "lat": 12.9423666, "lon": 77.6174611, "tags": {"amenity": "pharmacy", "brand": "Apollo Pharmacy", "brand:wikidata": "Q62562612", "healthcare": "pharmacy", "name": "Apollo Pharmacy", "name:kn": "\u0c85\u0caa\u0ccb\u0cb2\u0ccb \u0cab\u0cbe\u0cb0\u0ccd\u0cae\u0cb8\u0cbf"}}, {"type": "node", "id": 1467778592, "lat": 12.9336091, "lon": 77.5661398, "tags": {"addr:postcode": "560028", "addr:street": "6th Main", "amenity": "pharmacy", "dispensing": "yes", "name": "Rakesh Medicals"}}, {"type": "node", "id": 1467794454, "lat": 12.9334734, "lon": 77.5661076, "tags": {"addr:postcode": "560028", "addr:street": "6th Cross, 6th Main", "amenity": "pharmacy", "dispensing": "yes", "name": "Subramanya Medicals"}}, {"type": "node", "id": 1467794502, "lat": 12.9327937, "lon": 77.5677437, "tags": {"addr:postcode": "560028", "addr:street": "2nd Main", "amenity": "pharmacy", "dispensing": "yes", "name": "T R Medicals"}}, {"type": "node", "id": 1470553353, "lat": 12.9323571, "lon": 77.5676123, "tags": {"addr:postcode": "560028", "addr:street": "2nd Main Road", "amenity": "pharmacy", "brand": "Apollo Pharmacy", "brand:wikidata": "Q62562612", "dispensing": "yes", "healthcare": "pharmacy", "name": "Apollo Pharmacy", "name:kn": "\u0c85\u0caa\u0ccb\u0cb2\u0ccb \u0cab\u0cbe\u0cb0\u0ccd\u0cae\u0cb8\u0cbf"}}, {"type": "node", "id": 1470707052, "lat": 12.941581, "lon": 77.617208, "tags": {"amenity": "pharmacy", "name": "Krishna Pharma"}}, {"type": "node", "id": 1472248473, "lat": 12.9271081, "lon": 77.6226087, "tags": {"amenity": "pharmacy", "dispensing": "Vijayashree Diagnostics", "healthcare": "pharmacy", "name": "Vijaya Shree Diagnostics"}}, {"type": "node", "id": 1473082673, "lat": 12.9275755, "lon": 77.6160908, "tags": {"addr:housenumber": "15/95", "addr:street": "Hosur Road", "amenity": "pharmacy", "dispensing": "yes", "healthcare": "pharmacy", "name": "Balaji Medicals", "name:kn": "\u0cac\u0cbe\u0cb2\u0cbe\u0c9c\u0cbf \u0cae\u0cc6\u0ca1\u0cbf\u0c95\u0cb2\u0ccd"}}, {"type": "node", "id": 1473308076, "lat": 12.9377532, "lon": 77.6266479, "tags": {"amenity": "pharmacy", "healthcare": "pharmacy", "name": "Himalaya Health care - druggists"}}, {"type": "node", "id": 1473308080, "lat": 12.9353953, "lon": 77.6233434, "tags": {"amenity": "pharmacy", "healthcare": "pharmacy", "name": "Arathi medicals"}}, {"type": "node", "id": 1474244819, "lat": 12.9425654, "lon": 77.5854098, "tags": {"amenity": "pharmacy", "dispensing": "no", "name": "Maiyya's Pharmacy"}}, {"type": "node", "id": 1474819885, "lat": 12.9971233, "lon": 77.5512976, "tags": {"amenity": "pharmacy", "healthcare": "pharmacy", "name": "Sri Rama Medicals and General Stores"}}, {"type": "node", "id": 1474819903, "lat": 13.0002224, "lon": 77.5688175, "tags": {"amenity": "pharmacy", "healthcare": "pharmacy", "name": "Religare Medicals"}}, {"type": "node", "id": 1491765447, "lat": 12.9322462, "lon": 77.5894525, "tags": {"amenity": "pharmacy"}}, {"type": "node", "id": 1719595655, "lat": 12.9345466, "lon": 77.5895421, "tags": {"amenity": "pharmacy", "dispensing": "yes", "name": "Sudha Parimala Medical Store"}}, {"type": "node", "id": 1741794881, "lat": 12.933396, "lon": 77.5626216, "tags": {"amenity": "pharmacy"}}, {"type": "node", "id": 1741797182, "lat": 12.9352471, "lon": 77.5607927, "tags": {"amenity": "pharmacy"}}, {"type": "node", "id": 1781815219, "lat": 12.9410107, "lon": 77.6176795, "tags": {"amenity": "pharmacy", "dispensing": "no", "name": "Lavish Medical"}}, {"type": "node", "id": 1851792669, "lat": 13.0055429, "lon": 77.6252364, "tags": {"addr:city": "Bangalore", "addr:housenumber": "32/2", "addr:postcode": "560084", "addr:street": "Wheeler Road Extension", "addr:unit": "St. Thomas Town", "amenity": "pharmacy", "healthcare": "pharmacy", "name": "Priyanka Pharma", "toilets:wheelchair": "no", "wheelchair": "no"}}, {"type": "node", "id": 1863318903, "lat": 12.9997824, "lon": 77.5681888, "tags": {"amenity": "pharmacy", "healthcare": "pharmacy", "name": "Apple Pharma"}}, {"type": "node", "id": 1916533478, "lat": 12.9535215, "lon": 77.5780606, "tags": {"amenity": "pharmacy", "healthcare": "pharmacy", "name": "Kasturi Medicals"}}, {"type": "node", "id": 2196138330, "lat": 13.0037706, "lon": 77.5653221, "tags": {"amenity": "pharmacy", "dispensing": "yes", "name": "New Pushyamee"}}, {"type": "node", "id": 2285468610, "lat": 12.9295466, "lon": 77.6291289, "tags": {"amenity": "pharmacy", "healthcare": "pharmacy", "name": "Ajit Medicals"}}, {"type": "node", "id": 2285469191, "lat": 12.9356219, "lon": 77.631044, "tags": {"amenity": "pharmacy", "healthcare": "pharmacy", "name": "Trustx"}}, {"type": "node", "id": 2285469320, "lat": 12.935306, "lon": 77.6306217, "tags": {"addr:housenumber": "924", "addr:street": "1st Cross Road", "amenity": "pharmacy", "healthcare": "pharmacy", "name": "Pharma Plus"}}, {"type": "node", "id": 2298050805, "lat": 13.0045164, "lon": 77.5785881, "tags": {"addr:housename": "Janhavi Medicals", "amenity": "pharmacy", "designation": "Pharmacy", "healthcare": "pharmacy", "name": "Janhavi Medicals"}}, {"type": "node", "id": 2312872639, "lat": 12.9786968, "lon": 77.638473, "tags": {"amenity": "pharmacy", "name": "Sri Sai Pharma"}}, {"type": "node", "id": 2487524464, "lat": 12.9634823, "lon": 77.5523641, "tags": {"addr:city": "Bangalore", "addr:housename": "Goripalya", "addr:street": "Hosahalli Main Road", "amenity": "pharmacy", "healthcare": "pharmacy", "name": "Ganesh Medicals & General Store"}}, {"type": "node", "id": 2513569169, "lat": 12.9785893, "lon": 77.5736371, "tags": {"addr:city": "Gandhi Nagar, Bangalore", "addr:street": "4th Cross", "amenity": "pharmacy", "healthcare": "pharmacy", "name": "Vaidya Ratnam Ayurvedic Center"}}, {"type": "node", "id": 2542702362, "lat": 12.9312166, "lon": 77.6233097, "tags": {"amenity": "pharmacy", "brand": "MedPlus", "brand:wikidata": "Q65684234", "healthcare": "pharmacy", "name": "MedPlus", "name:kn": "\u0cae\u0cc6\u0ca1\u0ccd\u200d\u0caa\u0ccd\u0cb2\u0cb8\u0ccd"}}, {"type": "node", "id": 3019539252, "lat": 12.9664142, "lon": 77.5925401, "tags": {"addr:city": "Bangalore", "addr:postcode": "560027", "addr:street": "Chidananda Maharashi Ashram Road", "amenity": "pharmacy", "brand": "Apollo Pharmacy", "brand:wikidata": "Q62562612", "healthcare": "pharmacy", "name": "Apollo Pharmacy", "name:kn": "\u0c85\u0caa\u0ccb\u0cb2\u0ccb \u0cab\u0cbe\u0cb0\u0ccd\u0cae\u0cb8\u0cbf"}}, {"type": "node", "id": 3019541639, "lat": 12.9668083, "lon": 77.592647, "tags": {"addr:city": "Bangalore", "addr:postcode": "560027", "addr:street": "Chidananda Maharashi Ashram Road", "amenity": "pharmacy", "name": "Manjula Medicals"}}, {"type": "node", "id": 3370171480, "lat": 12.9820581, "lon": 77.6396986, "tags": {"amenity": "pharmacy", "name": "Sagar Ayur Pharma"}}, {"type": "node", "id": 3370455929, "lat": 12.9742234, "lon": 77.6359937, "tags": {"amenity": "pharmacy", "healthcare": "pharmacy", "name": "Healing Touch Pharma"}}, {"type": "node", "id": 3391133321, "lat": 12.9976064, "lon": 77.5512613, "tags": {"amenity": "pharmacy", "brand": "Apollo Pharmacy", "brand:wikidata": "Q62562612", "healthcare": "pharmacy", "name": "Apollo Pharmacy", "name:kn": "\u0c85\u0caa\u0cca\u0cb2\u0ccb \u0cab\u0cbe\u0cb0\u0ccd\u0cae\u0cb8\u0cbf"}}, {"type": "node", "id": 3395246644, "lat": 12.9606852, "lon": 77.5715513, "tags": {"amenity": "pharmacy", "check_date": "2025-06-19", "name": "Sri Manjunatha Medical & General Stores"}}, {"type": "node", "id": 3400223636, "lat": 13.0003234, "lon": 77.5693738, "tags": {"amenity": "pharmacy", "healthcare": "pharmacy", "name": "Leela medicals"}}, {"type": "node", "id": 3412401298, "lat": 12.9896302, "lon": 77.5560208, "tags": {"amenity": "pharmacy", "name": "Standard Medicals", "wheelchair": "no"}}, {"type": "node", "id": 3412651166, "lat": 12.9891599, "lon": 77.5559116, "tags": {"amenity": "pharmacy", "name": "Sairam Medicals and General Stores"}}, {"type": "node", "id": 3412690280, "lat": 12.9904639, "lon": 77.5569256, "tags": {"amenity": "pharmacy", "healthcare": "pharmacy", "name": "Sri Prasamshi Medical Stores"}}, {"type": "node", "id": 3453556776, "lat": 12.9587021, "lon": 77.6384108, "tags": {"amenity": "pharmacy", "name": "Ram Medicals"}}, {"type": "node", "id": 3453556780, "lat": 12.9582908, "lon": 77.6382738, "tags": {"amenity": "pharmacy", "name": "Sri Balaji Medicals"}}, {"type": "node", "id": 3537816697, "lat": 12.9371535, "lon": 77.5795128}, {"type": "node", "id": 3537816702, "lat": 12.937184, "lon": 77.5795506}, {"type": "node", "id": 3537816722, "lat": 12.937278, "lon": 77.5794074}, {"type": "node", "id": 3537816728, "lat": 12.9373085, "lon": 77.5794452}, {"type": "node", "id": 3556046905, "lat": 12.9780448, "lon": 77.6332441, "tags": {"amenity": "pharmacy", "healthcare": "pharmacy", "name": "Swathi Medical Store"}}, {"type": "node", "id": 3556214253, "lat": 12.9800601, "lon": 77.6386765, "tags": {"addr:city": "Bengaluru, Karnataka", "addr:housenumber": "No.119", "addr:postcode": "560038", "addr:street": "5th Main Rd, near Kairleenikethan School, Binnamangala, Stage 1, Indiranagar", "amenity": "pharmacy", "brand": "Apollo Pharmacy", "brand:wikidata": "Q62562612", "dispensing": "no", "healthcare": "pharmacy", "name": "Apollo Pharmacy", "name:kn": "\u0c85\u0caa\u0cca\u0cb2\u0ccb \u0cab\u0cbe\u0cb0\u0ccd\u0cae\u0cb8\u0cbf"}}, {"type": "node", "id": 3556262809, "lat": 12.9800438, "lon": 77.6380403, "tags": {"amenity": "pharmacy", "name": "Sree Maruthi Medicals", "name:kn": "\u0cb6\u0ccd\u0cb0\u0cc0 \u0cae\u0cbe\u0cb0\u0cc1\u0ca4\u0cbf \u0cae\u0cc6\u0ca1\u0cbf\u0c95\u0cb2\u0ccd\u0cb8\u0ccd"}}, {"type": "node", "id": 3710229278, "lat": 12.9483481, "lon": 77.6000553, "tags": {"amenity": "pharmacy", "healthcare": "pharmacy", "name": "Padmavathi Medicals"}}, {"type": "node", "id": 3710229282, "lat": 12.948665, "lon": 77.6001706, "tags": {"amenity": "pharmacy", "healthcare": "pharmacy", "name": "Sanjana Medicals"}}, {"type": "node", "id": 3725656677, "lat": 12.9827789, "lon": 77.6405257, "tags": {"amenity": "pharmacy", "name": "Padam Pharma"}}, {"type": "node", "id": 3839535785, "lat": 12.9663977, "lon": 77.6372165, "tags": {"addr:housenumber": "225", "addr:street": "Indiranagar Double Road", "amenity": "pharmacy", "name": "Fortis Healthworld"}}, {"type": "node", "id": 3862572029, "lat": 12.9674186, "lon": 77.5997528, "tags": {"amenity": "pharmacy", "healthcare": "pharmacy", "level": "0", "name": "Balaji Pharma"}}, {"type": "node", "id": 3862572657, "lat": 12.9678054, "lon": 77.6002865, "tags": {"amenity": "pharmacy", "level": "-1", "name": "Chetak Pharmacy"}}, {"type": "node", "id": 3899682773, "lat": 13.0016906, "lon": 77.630597, "tags": {"amenity": "pharmacy", "healthcare": "pharmacy", "name": "Shiva Medicals", "toilets:wheelchair": "no", "wheelchair": "no"}}, {"type": "node", "id": 3899682777, "lat": 13.0020057, "lon": 77.6321604, "tags": {"amenity": "pharmacy", "healthcare": "pharmacy", "name": "The Medicals", "toilets:wheelchair": "no", "wheelchair": "no"}}, {"type": "node", "id": 4024967046, "lat": 13.00281, "lon": 77.6336462, "tags": {"amenity": "pharmacy", "healthcare": "pharmacy", "name": "Medreich"}}, {"type": "node", "id": 4100763598, "lat": 12.9640156, "lon": 77.5510964, "tags": {"addr:street": "Hosahalli Main Road", "amenity": "pharmacy", "healthcare": "pharmacy", "name": "Bangalore Medical", "opening_hours": "Mo-Su 10:00-00:00"}}, {"type": "node", "id": 4101097393, "lat": 12.9641843, "lon": 77.5502624, "tags": {"addr:street": "Hosahalli Main Road", "amenity": "pharmacy", "healthcare": "pharmacy", "name": "star hospital ", "opening_hours": "24/7"}}, {"type": "node", "id": 4109508587, "lat": 13.0014659, "lon": 77.6306068, "tags": {"amenity": "pharmacy", "healthcare": "pharmacy", "name": "Jay Medicals"}}, {"type": "node", "id": 4111128617, "lat": 13.0014222, "lon": 77.6291289, "tags": {"amenity": "pharmacy", "healthcare": "pharmacy", "name": "Pavan Pharma", "name:kn": "\u0caa\u0cb5\u0ca8\u0ccd \u0cab\u0cbe\u0cb0\u0ccd\u0cae\u0cbe"}}, {"type": "node", "id": 4111128819, "lat": 13.0013994, "lon": 77.6288185, "tags": {"amenity": "pharmacy", "healthcare": "pharmacy", "name": "Chandra Medicals", "name:kn": "\u0c9a\u0c82\u0ca6\u0ccd\u0cb0 \u0cae\u0cc6\u0ca1\u0cbf\u0c95\u0cb2\u0ccd"}}, {"type": "node", "id": 4130913291, "lat": 12.9633542, "lon": 77.5487215, "tags": {"addr:street": "Hosahalli Main Road", "amenity": "pharmacy", "healthcare": "pharmacy", "name": "Kashif Medical"}}, {"type": "node", "id": 4130913294, "lat": 12.9640984, "lon": 77.5506116, "tags": {"addr:street": "Hosahalli Main Road", "amenity": "pharmacy", "healthcare": "pharmacy", "name": "Mysore Medical"}}, {"type": "node", "id": 4130960392, "lat": 12.9618971, "lon": 77.552098, "tags": {"amenity": "pharmacy"}}, {"type": "node", "id": 4130960489, "lat": 12.9642578, "lon": 77.5489199, "tags": {"addr:street": "Hosahalli Main Road", "amenity": "pharmacy", "healthcare": "pharmacy", "name": "Shifa Medical"}}, {"type": "node", "id": 4130960490, "lat": 12.9621356, "lon": 77.5493894, "tags": {"amenity": "pharmacy", "healthcare": "pharmacy"}}, {"type": "node", "id": 4130960990, "lat": 12.9634155, "lon": 77.5520086, "tags": {"amenity": "pharmacy", "healthcare": "pharmacy", "name": "Global Medical"}}, {"type": "node", "id": 4130962590, "lat": 12.9608525, "lon": 77.5490077, "tags": {"amenity": "pharmacy", "healthcare": "pharmacy"}}, {"type": "node", "id": 4151360961, "lat": 12.9653807, "lon": 77.5941925, "tags": {"amenity": "pharmacy"}}, {"type": "node", "id": 4294252468, "lat": 12.9676134, "lon": 77.6061839, "tags": {"amenity": "pharmacy", "name": "Sundeep Medical Shop", "name:hi": "\u0938\u0928\u0926\u093f\u092a \u092e\u0947\u0926\u093f\u0915\u0932 \u0936\u092a"}}, {"type": "node", "id": 4294257524, "lat": 12.9687933, "lon": 77.6063684, "tags": {"amenity": "pharmacy", "check_date": "2024-01-02", "level": "0", "name": "Model Medical Stores"}}, {"type": "node", "id": 4294281307, "lat": 12.9814081, "lon": 77.6012679, "tags": {"amenity": "pharmacy", "level": "0", "name": "Green Apple"}}, {"type": "node", "id": 4294801429, "lat": 12.9719937, "lon": 77.635835, "tags": {"amenity": "pharmacy", "healthcare": "pharmacy", "name": "Shree Guru Ganesh Pharma"}}, {"type": "node", "id": 4294801431, "lat": 12.9729985, "lon": 77.6357302, "tags": {"amenity": "pharmacy", "healthcare": "pharmacy", "level": "1", "name": "The Homeo Centre"}}, {"type": "node", "id": 4294810899, "lat": 12.9737814, "lon": 77.6359277, "tags": {"amenity": "pharmacy", "healthcare": "pharmacy", "name": "SLV Sagar Pharma"}}, {"type": "node", "id": 4307677591, "lat": 12.9683737, "lon": 77.5948809, "tags": {"amenity": "pharmacy", "name": "Green Apple"}}, {"type": "node", "id": 4324811748, "lat": 12.9810274, "lon": 77.6366103, "tags": {"addr:city": "Bengaluru", "addr:landmark": "RTO Office", "addr:postcode": "560038", "addr:suburb": "Indiranagar 2nd Stage", "amenity": "pharmacy", "brand": "Apollo Pharmacy", "brand:wikidata": "Q62562612", "healthcare": "pharmacy", "name": "Apollo Pharmacy", "name:kn": "\u0c85\u0caa\u0cca\u0cb2\u0ccb \u0cab\u0cbe\u0cb0\u0ccd\u0cae\u0cb8\u0cbf", "name:ml": "\u0d05\u0d2a\u0d4d\u0d2a\u0d4b\u0d33\u0d4b \u0d2b\u0d3e\u0d7c\u0d2e\u0d38\u0d3f"}}, {"type": "node", "id": 4344769202, "lat": 12.9567335, "lon": 77.5513304, "tags": {"addr:street": "Mysore Road", "amenity": "pharmacy", "name:hi": "\u0930\u093e\u091c \u0938\u0928\u094d\u0938 \u092b\u094b\u092e\u093e"}}, {"type": "node", "id": 4349316995, "lat": 12.9455735, "lon": 77.5712921, "tags": {"amenity": "pharmacy", "healthcare": "pharmacy", "name": "Pavitra Medicals"}}, {"type": "node", "id": 4362723794, "lat": 12.9453043, "lon": 77.5798656, "tags": {"amenity": "pharmacy", "healthcare": "pharmacy", "name": "Basavangudi Medical Centre"}}, {"type": "node", "id": 4383686517, "lat": 12.9988718, "lon": 77.5498125, "tags": {"amenity": "pharmacy", "healthcare": "pharmacy", "name": "Universal Pharma"}}, {"type": "node", "id": 4443484964, "lat": 12.9898377, "lon": 77.5550568, "tags": {"addr:city": "bangalore", "addr:housenumber": "723/B", "addr:postcode": "560010", "addr:street": "11th Main Rd, 3rd Block, Rajaji Nagar", "amenity": "pharmacy", "healthcare": "pharmacy", "name": "Dr. Suresh's Dia Care", "phone": "080 2338 2867", "website": "drsureshdiacare.com"}}, {"type": "node", "id": 4443494165, "lat": 12.9861471, "lon": 77.5598537, "tags": {"addr:city": "bangalore", "addr:housenumber": "403", "addr:postcode": "560010", "addr:street": "Dr. Rajkumar Road, 6th Block, 80 Feet Rd, 4th Block, Ramchandrapuram, Rajaji Nagar", "amenity": "pharmacy", "name": "Amrutha Medicals", "name:kn": "\u0c85\u0cae\u0cc3\u0ca4 \u0cae\u0cc6\u0ca1\u0cbf\u0c95\u0cb2\u0ccd\u0cb8\u0ccd", "phone": "080 2311 7929"}}, {"type": "node", "id": 4443504959, "lat": 12.9988814, "lon": 77.5552883, "tags": {"addr:city": "bangalore", "addr:housenumber": "2941/5", "addr:postcode": "560010", "addr:street": "Mahakavi Kuvempu Road, 2nd Stage, Rajajinagar, Near Varalaxmi Nursing Home, D-Block, Gayatrinagar, Rajaji Nagar", "amenity": "pharmacy", "name": "Health Shopee by Manjushree Medicals", "phone": "+91 98861 14333"}}, {"type": "node", "id": 4443592306, "lat": 12.9882463, "lon": 77.5584271, "tags": {"addr:city": "bangalore", "addr:housenumber": "2/835/64/1", "addr:postcode": "560010", "addr:street": "4th Block, Amulya Corner, 3rd Main, 3rd Main Road, 4th Block, Rajaji Nagar", "amenity": "pharmacy", "name": "Nandhi Medical And General Stores", "phone": "080 2314 5334"}}, {"type": "node", "id": 4445141696, "lat": 13.0023897, "lon": 77.629504, "tags": {"addr:city": "Bengaluru", "addr:housenumber": "#2/5", "addr:postcode": "560033", "addr:street": "4th Cross Road, jai bharathnagar", "amenity": "pharmacy", "healthcare": "pharmacy", "name": "Siddaiah Multi Speciality Clinic And Lab", "phone": "+919916130707"}}, {"type": "node", "id": 4445433675, "lat": 13.0057354, "lon": 77.5763934, "tags": {"addr:city": "bangalore", "addr:housenumber": "33", "addr:postcode": "560003", "addr:street": "2nd Main Road, Near-Pizza Hut, Vyalikaval", "amenity": "pharmacy", "healthcare": "pharmacy", "name": "Keshava Medicals And General Stores", "phone": "080 4113 8233"}}, {"type": "node", "id": 4445451366, "lat": 13.0081894, "lon": 77.5638484, "tags": {"addr:city": "Bangalore", "addr:housenumber": "112", "addr:postcode": "560055", "addr:street": "8th Main, 18th Cross, H V Nanjundaiah Rd, Malleshwaram", "amenity": "pharmacy", "healthcare": "pharmacy", "name": "Sri Ganesh Medicals And Surgicals", "phone": "080 2331 2346"}}, {"type": "node", "id": 4445607998, "lat": 12.9702378, "lon": 77.6356539, "tags": {"addr:city": "Bangalore", "addr:housenumber": "3155", "addr:postcode": "560038", "addr:street": "Service Road, Hal 2nd Stage, Near-ESI Hospital, Indiranagar", "amenity": "pharmacy", "healthcare": "pharmacy", "name": "Shri Siddhanth Pharma", "phone": "080 2520 0422"}}, {"type": "node", "id": 4446206057, "lat": 12.9785445, "lon": 77.640549, "tags": {"addr:city": "Bangalore", "addr:housenumber": "292", "addr:postcode": "560038", "addr:street": "CMH Road, 100 Feet Road, Indira Nagar II Stage, Hoysala Nagar, Indira Nagar", "amenity": "pharmacy", "name": "Padma Medicals", "phone": "+9194485 42503"}}, {"type": "node", "id": 4446352742, "lat": 12.982224, "lon": 77.6029281, "tags": {"addr:city": "Bangalore", "addr:postcode": "560001", "addr:street": "Near Bowring Hospital , hospital Road , 22/2, Central St, Shivaji Nagar", "amenity": "pharmacy", "name": "J S Homoeo House", "phone": "+9198802 46426"}}, {"type": "node", "id": 4446357143, "lat": 12.9855813, "lon": 77.6071086, "tags": {"addr:city": "bangalore", "addr:housenumber": "33", "addr:postcode": "560001", "addr:street": "Quadrant Road, Sulthangunta, Shivaji Nagar", "amenity": "pharmacy", "name": "V L Nathan & Co", "phone": "080 2551 2993"}}, {"type": "node", "id": 4446360304, "lat": 12.9762816, "lon": 77.5991019, "tags": {"addr:city": "Bangalore", "addr:housenumber": "32", "addr:postcode": "560001", "addr:street": "Quadrant Road, Shivaji Nagar, Near Taj Hotel, Shanthala Nagar, Ashok Nagar", "amenity": "pharmacy", "healthcare": "pharmacy", "name": "Nathans Vet Pharma Centre", "phone": "080 2286 1740"}}, {"type": "node", "id": 4446364966, "lat": 12.9813318, "lon": 77.6041058, "tags": {"addr:city": "Bangalore", "addr:housenumber": "23", "addr:postcode": "560001", "addr:street": "Opposite Bowring Hospital, Lady Curzon Rd, Tasker Town, Shivaji Nagar", "amenity": "pharmacy", "name": "Mahaveer Ayur & Homoeo", "phone": "080 2559 3299", "website": "ayurhomoeo.com"}}, {"type": "node", "id": 4446366088, "lat": 12.9308168, "lon": 77.5739459, "tags": {"addr:city": "Bangalore", "addr:housenumber": "#36-44", "addr:postcode": "560082", "addr:street": "Krishna Rajendra Road,Yadiyur,7th Block, Jayanagara", "amenity": "pharmacy", "name": "Patanjali Chikitsalayas", "phone": "080 2676 8560", "source": "http://bestofhealthindia.com/"}}, {"type": "node", "id": 4446378097, "lat": 12.9781121, "lon": 77.5739587, "tags": {"addr:city": "Gandhi Nagar, Bangalore", "addr:housenumber": "15", "addr:postcode": "560009", "addr:street": "Tank Bund Rd, RK Puram, Gandhi Nagar", "amenity": "pharmacy", "healthcare": "pharmacy", "name": "Gururaja Pharmacy", "phone": "080 2235 0038"}}, {"type": "node", "id": 4446388835, "lat": 12.9813797, "lon": 77.6029956, "tags": {"addr:city": "Bangalore", "addr:housenumber": "4/5", "addr:postcode": "560001", "addr:street": "Central Square Complex, 47, Central Street, Tasker Town, Shivaji Nagar, Tasker Town, Shivaji Nagar", "amenity": "pharmacy", "name": "Balaji Vaidyasala", "name:kn": "\u0cac\u0cbe\u0cb2\u0cbe\u0c9c\u0cbf \u0cb5\u0cc8\u0ca6\u0ccd\u0caf\u0cb6\u0cbe\u0cb2\u0cc6", "phone": "+9198455 01642"}}, {"type": "node", "id": 4446394588, "lat": 12.9843238, "lon": 77.5984752, "tags": {"addr:city": "Bangalore", "addr:housenumber": "22", "addr:postcode": "560051", "addr:street": "1st Floor, NG Chambers, Venkataswamy Naidu Rd, Shivaji Nagar", "amenity": "pharmacy", "name": "T. K. Diagnostic Centre", "phone": "080 2286 0567"}}, {"type": "node", "id": 4446404579, "lat": 12.9833669, "lon": 77.5966639, "tags": {"addr:city": "Bangalore", "addr:housenumber": "1 1/2", "addr:postcode": "560001", "addr:street": "Indian Express Building, 3rd Floor,, Queens Rd, Vasanth Nagar", "amenity": "pharmacy", "name": "elbitdiagnostics", "phone": "080 4057 0000", "website": "https://elbitdiagnostics.net/"}}, {"type": "node", "id": 4446406412, "lat": 12.9873157, "lon": 77.6059871, "tags": {"addr:city": "bangalore", "addr:housenumber": "28", "addr:postcode": "560051", "addr:street": "Charminar Masjid Road, Near-Russel Market, Shivaji Nagar, Sulthangunta, Shivaji Nagar", "amenity": "pharmacy", "name": "Al Shifa Unani & Ayurvedic Dawa Khana", "phone": "080 2530 2786"}}, {"type": "node", "id": 4446409631, "lat": 12.9816041, "lon": 77.6011061, "tags": {"addr:city": "Bangalore", "addr:housenumber": "55", "addr:postcode": "560001", "addr:street": "Infantry Road, Shivaji Nagar", "amenity": "pharmacy", "name": "Medinova", "phone": "080 2286 8423"}}, {"type": "node", "id": 4446433567, "lat": 12.9674206, "lon": 77.6058454, "tags": {"addr:city": "Bangalore", "addr:housenumber": "137", "addr:postcode": "560025", "addr:street": "Brigade Road, Richmond Town, Shanthala Nagar, Ashok Nagar, Shanthala Nagar, Ashok Nagar", "amenity": "pharmacy", "name": "Sundeep Medicals", "phone": "080 2221 2968"}}, {"type": "node", "id": 4446439863, "lat": 12.9713618, "lon": 77.6062443, "tags": {"addr:city": "Bangalore", "addr:floor": "G", "addr:hamlet": "Shanthala Nagar", "addr:housenumber": "C007", "addr:postcode": "560025", "addr:state": "KA", "addr:suburb": "Ashok Nagar", "amenity": "pharmacy", "building:material": "plastic", "name": "Hitesh Medicals & General Stor", "phone": "+91 80 2558 4302"}}, {"type": "node", "id": 4446442047, "lat": 12.9658632, "lon": 77.5998808, "tags": {"addr:city": "Bengaluru", "addr:housenumber": "5/1", "addr:postcode": "560025", "addr:street": "2nd Floor, Rich Homes, Richmond Road, Shanthala Nagar, Ashok Nagar, Shanthala Nagar, Ashok Nagar", "amenity": "pharmacy", "name": "Bangalore Fetal Medicine Centre", "phone": "080 2221 0540", "website": "bangalorefetalmedicine.com"}}, {"type": "node", "id": 4446497849, "lat": 12.9919478, "lon": 77.5708501, "tags": {"addr:city": "Bengaluru", "addr:housenumber": "LG-34", "addr:postcode": "560003", "addr:street": "Sampige Road", "air_conditioning": "yes", "amenity": "pharmacy", "healthcare": "pharmacy", "name": "Trust Pharmacy", "opening_hours": "9:30-23:00", "phone": "+91 8022667221", "website": "https://www.trustpharmacy.co.in/"}}, {"type": "node", "id": 4446528557, "lat": 13.0008545, "lon": 77.5631699, "tags": {"addr:city": "bangalore", "addr:housenumber": "19", "addr:postcode": "560003", "addr:street": "8th Main Rd, Malleshwaram", "amenity": "pharmacy", "name": "Pushyamee Medicals", "phone": "+91 80 2356 5016"}}, {"type": "node", "id": 4446572478, "lat": 12.9858304, "lon": 77.5708651, "tags": {"addr:city": "560009", "addr:housenumber": "15", "addr:street": "Tank Bund Rd, RK Puram, Gandhi Nagar", "amenity": "pharmacy", "name": "Gururaja Pharma", "phone": "+91 80 2235 0038"}}, {"type": "node", "id": 4446599790, "lat": 12.9853462, "lon": 77.5708101, "tags": {"addr:city": "bangalore", "addr:housenumber": "30", "addr:postcode": "560020", "addr:street": "1st Main Road, Jai Bheema Nagar, Seshadripuram", "amenity": "pharmacy", "name": "Brindhavan pharma", "phone": "+91 98456 79745"}}, {"type": "node", "id": 4446613297, "lat": 13.0024248, "lon": 77.571574, "tags": {"amenity": "pharmacy", "healthcare": "pharmacy"}}, {"type": "node", "id": 4446613298, "lat": 13.0023294, "lon": 77.5719173, "tags": {"addr:city": "bangalore", "addr:housenumber": "40", "addr:postcode": "560003", "addr:street": "12th Cross, Kodandarampura, Near-Prasidh Clinic, Malleshwaram", "amenity": "pharmacy", "healthcare": "pharmacy", "name": "Megha Medicals", "name:kn": "\u0cae\u0cc7\u0c98 \u0cae\u0cc6\u0ca1\u0cbf\u0c95\u0cb2\u0ccd\u0cb8\u0ccd", "phone": "+91 80 2334 7034"}}, {"type": "node", "id": 4446656257, "lat": 13.0078415, "lon": 77.5617719, "tags": {"addr:city": "Bangalore", "addr:housenumber": "112", "addr:postcode": "560055", "addr:street": "8th Main, 18th Cross, H V Nanjundaiah Rd", "amenity": "pharmacy", "name": "Sri Ganesh Medicals", "phone": "+91 80 2331 2346"}}, {"type": "node", "id": 4446670981, "lat": 12.9883267, "lon": 77.5549712, "tags": {"addr:city": "bangalore", "addr:housenumber": "2", "addr:postcode": "560010", "addr:street": "46th cross, Rajajinagar 4th Block", "amenity": "pharmacy", "name": "Nandhi Medicals", "phone": "+91 80 2314 5334"}}, {"type": "node", "id": 4446692224, "lat": 12.9898567, "lon": 77.5542305, "tags": {"addr:city": "Bangalore", "addr:housenumber": "955", "addr:postcode": "560010,", "addr:street": "3rd Block, Rajajinagar", "amenity": "pharmacy", "healthcare": "pharmacy", "name": "Sri Venkateshwara Medical & General Store", "phone": "+91 94491 68854"}}, {"type": "node", "id": 4446701038, "lat": 12.9862636, "lon": 77.5575477, "tags": {"addr:city": "Bangalore", "addr:housenumber": "403", "addr:postcode": "560010", "addr:street": "Dr Rajkumar Road, Rajajinagar", "amenity": "pharmacy", "name": "Amrutha Medicals", "name:kn": "\u0c85\u0cae\u0cc3\u0ca4 \u0cae\u0cc6\u0ca1\u0cbf\u0c95\u0cb2\u0ccd\u0cb8\u0ccd", "phone": "+91 80 2311 7929"}}, {"type": "node", "id": 4446726399, "lat": 13.014751, "lon": 77.5490654, "tags": {"addr:city": "bangalore", "addr:housenumber": "7", "addr:postcode": "560086,", "addr:street": "2nd stage a.g,b layout, Yeshwanthpur Industrial Suburb, Mahalakshmi Layout,", "amenity": "pharmacy", "name": "Sri Ranga Medicals", "phone": "+91 99020 91732"}}, {"type": "node", "id": 4446742748, "lat": 12.9906244, "lon": 77.5633161, "tags": {"addr:city": "bangalore", "addr:housenumber": "529", "addr:postcode": "560010", "addr:street": "10th Main, 2nd Block, Rajajinagar", "amenity": "pharmacy", "name": "Prasad Medicals", "phone": "+91 80507 82573"}}, {"type": "node", "id": 4446894387, "lat": 12.9559132, "lon": 77.5561779, "tags": {"addr:city": "bangalore", "addr:housenumber": "9", "addr:postcode": "560026", "addr:street": "2nd Main Road valmikinagar Mysore Road, Ramachandra Agrahara, Azad Nagar", "amenity": "pharmacy", "name": "Sri Ganesh Pharma", "phone": "089708 85482"}}, {"type": "node", "id": 4446897124, "lat": 13.013929, "lon": 77.6389286, "tags": {"addr:city": "bangalore", "addr:housenumber": "8", "addr:postcode": "560033", "addr:street": "Nehru Road, Kullappa Road, Near-Kullapa Circle, Kammanahalli, PNS Layout, Subbayianiah Palyam, Banswadi", "amenity": "pharmacy", "name": "Royal Medicals", "phone": "08033792698"}}, {"type": "node", "id": 4446899258, "lat": 12.9671955, "lon": 77.5736828, "tags": {"addr:city": "bangalore", "addr:housenumber": "164", "addr:postcode": "560053", "addr:street": "P.o box 7182,1st floor, sultanpet,", "amenity": "pharmacy", "name": "Fair Deal Pharma (Medkart)", "phone": "080 2234 1736"}}, {"type": "node", "id": 4446912425, "lat": 13.0120076, "lon": 77.629801, "tags": {"addr:city": "bengaluru", "addr:postcode": "560066", "addr:street": "Immadihalli Main Rd, Vinayaka Layout, Whitefield", "amenity": "pharmacy", "drive_through": "no", "name": "Sri Durga Medicals", "phone": "+9198456 19107", "source": "http://www.bangalorean.co.in/"}}, {"type": "node", "id": 4446915143, "lat": 12.9383428, "lon": 77.5598834, "tags": {"addr:city": "bangalore", "addr:housenumber": "786", "addr:postcode": "560050", "addr:street": "10th Main, BSK 1st Stage, Banashankari Stage 1, Banashankari,", "amenity": "pharmacy", "name": "Shakti Medicals & Generals", "phone": "080 2667 4045", "source": "just dial"}}, {"type": "node", "id": 4446923444, "lat": 12.9383175, "lon": 77.5549076, "tags": {"addr:city": "Bangalore", "addr:housenumber": "207", "addr:postcode": "560050", "addr:street": "7th Main, Near Panchami Chats, 80 Feet Rd, Banashankari Stage I, Srinivasnagar, Banashankari", "amenity": "pharmacy", "brand": "Apollo Pharmacy", "brand:wikidata": "Q62562612", "healthcare": "pharmacy", "name": "Apollo Pharmacy", "name:kn": "\u0c85\u0caa\u0ccb\u0cb2\u0ccb \u0cab\u0cbe\u0cb0\u0ccd\u0cae\u0cb8\u0cbf", "phone": "080 2295 7428", "source": "justdial", "website": "https://apollopharmacy.in/"}}, {"type": "node", "id": 4446962739, "lat": 12.9644242, "lon": 77.5968789, "tags": {"addr:city": "Bangalore", "addr:postcode": "560025", "addr:street": "Lalbagh Road", "amenity": "pharmacy", "healthcare": "pharmacy", "name": "Central Lab", "phone": "+9180 222 37370"}}, {"type": "node", "id": 4446967197, "lat": 13.0058891, "lon": 77.571338, "tags": {"addr:city": "bangalore", "addr:housenumber": "311", "addr:postcode": "560003", "addr:street": "16th Cross, Sampige Road,", "amenity": "pharmacy", "healthcare": "pharmacy", "name": "Isha Diagnostics", "phone": "8023562111", "website": "https://ishadiagnostics.com/"}}, {"type": "node", "id": 4446968478, "lat": 12.9869612, "lon": 77.5602264, "tags": {"addr:city": "bangalore", "addr:housenumber": "2/10", "addr:postcode": "560010", "addr:street": "Dr Rajkumar Rd, 4N Block", "amenity": "pharmacy", "name": "Kanva Diagnostics", "phone": "+9180 2313 3840", "source": "www.yellowpages.co.in", "website": "https://kanvadiagnostic.com/"}}, {"type": "node", "id": 4446974323, "lat": 12.9469375, "lon": 77.5981349, "tags": {"addr:city": "Bangalore", "addr:housenumber": "466/1", "addr:postcode": "560027", "addr:street": "10th Main, 13th Cross, Near-Brand Factory, Wilson Garden", "amenity": "pharmacy", "healthcare": "pharmacy", "name": "Nisarga Ayurvedic Medicine Research Centre", "phone": "+9180 2212 6994", "source": "www.justdial.com"}}, {"type": "node", "id": 4446978212, "lat": 12.9360789, "lon": 77.5601504, "tags": {"addr:city": "bangalore", "addr:housenumber": "47/1", "addr:postcode": "560050", "addr:street": "11th Cross, Ashok Nagar, Near-Vidya Peeta Circle, Banashankari 1st Stage", "amenity": "pharmacy", "name": "Mahaveer medicals", "phone": "+91 80 2242 7245", "source": "www.justdial.com"}}, {"type": "node", "id": 4446980627, "lat": 12.9348997, "lon": 77.573964, "tags": {"addr:city": "Bangalore", "addr:postcode": "560010", "addr:street": "rajajinagar", "amenity": "pharmacy", "healthcare": "pharmacy", "name": "Prashanth Pharma", "phone": "8022512593", "source": "www.asklaila.com"}}, {"type": "node", "id": 4446986134, "lat": 12.9267767, "lon": 77.5838359, "tags": {"addr:city": "bangalore", "addr:housenumber": "#771", "addr:postcode": "560011", "addr:street": "34th Cross Road,  4th Block, Jayanagara Jaya Nagar", "amenity": "pharmacy", "drive_through": "yes", "name": "Star Homeopathy", "phone": "+9191009 60066", "source": "http://www.bangalorehospital.co.in/", "website": "https://www.starhomeo.com/"}}, {"type": "node", "id": 4446986158, "lat": 12.9877039, "lon": 77.5530939, "tags": {"addr:city": "bangalore", "addr:housenumber": "13", "addr:postcode": "560003", "addr:street": ",2nd Main Rd, Malleshwaram", "amenity": "pharmacy", "name": "Sridhar Medicals", "phone": "080 2336 3765"}}, {"type": "node", "id": 4446992064, "lat": 12.9385698, "lon": 77.5531314, "tags": {"addr:city": "Bangalore", "addr:housenumber": "415/A", "addr:postcode": "560050", "addr:street": "12th Main Road, Bank Colony Circle, Beside NIIT, BSK 1st Stage, 80 Feet Rd, Banashankari", "amenity": "pharmacy", "name": "Sri Swaraj Medicals", "phone": "+9198864 58232", "shop": "medical_supply", "source": "justdial"}}, {"type": "node", "id": 4446994840, "lat": 13.0053426, "lon": 77.5542101, "tags": {"addr:city": "bangalore", "addr:postcode": "560010,", "addr:street": "Subramanyanagar,2", "amenity": "pharmacy", "name": "Venkateshwara Medicals", "phone": "+9196327 00311", "source": "www.yellowpages.co.in"}}, {"type": "node", "id": 4446999695, "lat": 12.9887964, "lon": 77.5555474, "tags": {"addr:city": "Bangalore", "addr:housenumber": "2/835/64/1,", "addr:postcode": "560010", "addr:street": "4th Block, Rajaji Nagar", "amenity": "pharmacy", "name": "Nandhi Medicals", "phone": "+9180 2314 5334", "source": "www.justdial.com"}}, {"type": "node", "id": 4447006919, "lat": 13.0026859, "lon": 77.5738983, "tags": {"addr:city": "Bangalore", "addr:housenumber": "40", "addr:postcode": "560003", "addr:street": "12th Cross, Kodandarampura, Near-Prasidh Clinic, Malleshwaram", "amenity": "pharmacy", "healthcare": "pharmacy", "name": "Megha Medicals", "name:kn": "\u0cae\u0cc7\u0c98 \u0cae\u0cc6\u0ca1\u0cbf\u0c95\u0cb2\u0ccd\u0cb8\u0ccd", "phone": "080 2334 7034"}}, {"type": "node", "id": 4447007999, "lat": 13.0019448, "lon": 77.5716235, "tags": {"addr:city": "Bangalore", "addr:housenumber": "42", "addr:postcode": "560003", "addr:street": "Vyalikaval, 2nd Main, Opposite-Rajesh Hotel, Sadashiv Nagar", "amenity": "pharmacy", "healthcare": "pharmacy", "name": "Janhavi Medicals Malleshwaram", "phone": "080 2336 6503"}}, {"type": "node", "id": 4447009028, "lat": 13.0020076, "lon": 77.5713914, "tags": {"addr:city": "Bangalore", "addr:housenumber": "17", "addr:postcode": "560003", "addr:street": "1, 3rd Cross Rd, Malleshwaram", "amenity": "pharmacy", "healthcare": "pharmacy", "name": "K C G Pharma And Generals", "phone": "094485 11024"}}, {"type": "node", "id": 4447013196, "lat": 13.005882, "lon": 77.5761593, "tags": {"addr:city": "bangalore", "addr:postcode": "560003", "addr:street": "Gayathri Devi Park Extension, Kodandarampura", "amenity": "pharmacy", "healthcare": "pharmacy", "name": "Medall Clumax Diagnostics", "phone": "+9180 4933 7777", "source": "www.justdial.com", "website": "https://www.medall.in/"}}, {"type": "node", "id": 4447013605, "lat": 12.9398696, "lon": 77.6257338, "tags": {"addr:city": "bangalore", "addr:housenumber": "914", "addr:postcode": "560095", "addr:street": "Venkateshwara Complex, 80 Feet Main Road, 6th Block, Venkappa Garden, Koramangala, Venkappa Garden, Ejipura", "amenity": "pharmacy", "healthcare": "pharmacy", "name": "Diabetacare", "phone": "+9180679 19191", "source": "justdial", "website": "https://diabetacare.com/"}}, {"type": "node", "id": 4447018781, "lat": 13.0064642, "lon": 77.5488867, "tags": {"addr:city": "bangalore", "addr:postcode": "560010", "addr:street": "1st 'R' Block, Near Mahalakshmi Layout Entrance", "amenity": "pharmacy", "name": "Pathocon Diagnostics", "phone": "+9180 2347 6990", "source": "www.justdial.com", "website": "https://www.pathocondiagnostics.com"}}, {"type": "node", "id": 4447025891, "lat": 12.9301422, "lon": 77.6231727, "tags": {"addr:city": "Bangalore", "addr:housenumber": "677", "addr:postcode": "560034", "addr:street": "16th main, 3rd Block, Koramangala, Bengaluru", "amenity": "pharmacy", "healthcare": "pharmacy", "name": "Anand Diagnostic Laboratory", "phone": "080 2550 4207", "source": "justdial", "website": "https://www.anandlab.com/"}}, {"type": "node", "id": 4447072622, "lat": 12.9317312, "lon": 77.6230979, "tags": {"addr:city": "Bangalore", "addr:postcode": "560034", "addr:street": "Koramangala BDA, 6th B Cross Road, Koramangala 3 Block, Koramangala", "amenity": "pharmacy", "healthcare": "pharmacy", "name": "Ruth Medicals", "phone": "+9180 2553 7424", "source": "justdail"}}, {"type": "node", "id": 4447075923, "lat": 12.9340694, "lon": 77.625222, "tags": {"addr:city": "Bengaluru", "addr:postcode": "560034", "addr:street": "BDA Complex, Koramangala 4th Block, Koramangala", "amenity": "pharmacy", "healthcare": "pharmacy", "name": "Maxwell Pharma", "phone": "+9180 2553 1177", "source": "justdial"}}, {"type": "node", "id": 4447076790, "lat": 13.0022281, "lon": 77.5739218, "tags": {"addr:city": "Bangalore", "addr:housenumber": "16", "addr:postcode": "560003", "addr:street": "12th cross, Palace Guttahalli main road, Malleshwaram", "amenity": "pharmacy", "healthcare": "pharmacy", "name": "Roots Advanced Hair Transplant Center", "phone": "+9194821 66333", "source": "www.asklaila.com", "website": "rootshairclinic.com"}}, {"type": "node", "id": 4447082034, "lat": 12.9917005, "lon": 77.5706529, "tags": {"addr:city": "Bengaluru", "addr:postcode": "560003", "addr:street": "Sampige Road", "air_conditioning": "yes", "amenity": "pharmacy", "healthcare": "pharmacy", "name": "Kaya Skin Bar", "phone": "+9180 2266 7211", "source": "www.justdial.com", "website": "https://kaya.in/"}}, {"type": "node", "id": 4447082865, "lat": 12.9495697, "lon": 77.6182599, "tags": {"addr:city": "bangalore", "addr:housenumber": "999", "addr:postcode": "560034", "addr:street": "80 Feet Road, Koramangala 1st Block, HSR Layout", "amenity": "pharmacy", "name": "Sri Balaji Medicals", "phone": "+9180 2552 9317", "source": "justdial"}}, {"type": "node", "id": 4447086612, "lat": 12.9681071, "lon": 77.570295, "tags": {"addr:city": "bangalore", "addr:housenumber": "76/2", "addr:postcode": "560001", "addr:street": "Avenue Road, Bangalore City", "amenity": "pharmacy", "phone": "+91 80 2287 7428", "source": "www.asklaila.com", "website": "https://www.microlabsltd.com/"}}, {"type": "node", "id": 4447329235, "lat": 12.9314177, "lon": 77.5913754, "tags": {"addr:city": "bangalore", "addr:housenumber": "72", "addr:postcode": "560078", "addr:street": "73 24th Main End Puttenahalli J. P Nagar 7th Phase,", "amenity": "pharmacy", "healthcare": "pharmacy", "name": "Sri Balaji medicals", "phone": "080 2653 5363"}}, {"type": "node", "id": 4506393240, "lat": 13.0027302, "lon": 77.6348876, "tags": {"amenity": "pharmacy", "brand": "Apollo Pharmacy", "brand:wikidata": "Q62562612", "healthcare": "pharmacy", "name": "Apollo Pharmacy", "name:kn": "\u0c85\u0caa\u0cca\u0cb2\u0ccb \u0cab\u0cbe\u0cb0\u0ccd\u0cae\u0cb8\u0cbf"}}, {"type": "node", "id": 4545940589, "lat": 12.9341008, "lon": 77.6272181, "tags": {"amenity": "pharmacy", "brand": "MedPlus", "brand:wikidata": "Q65684234", "healthcare": "pharmacy", "name": "MedPlus", "name:en": "Medplus Pharmacy"}}, {"type": "node", "id": 4599733255, "lat": 13.0017154, "lon": 77.5507797, "tags": {"addr:city": "Bengaluru", "addr:country": "IN", "addr:district": "Bengaluru Urban", "addr:floor": "0", "addr:hamlet": "Rajajinagar 1st Block", "addr:housenumber": "38", "addr:postcode": "560010", "addr:street": "11th Cross Road", "amenity": "pharmacy", "check_date": "2023-12-23", "dispensing": "no", "drive_through": "no", "healthcare": "pharmacy", "internet_access": "no", "level": "0", "name": "SS Pharma & Surgicals", "opening_hours": "Mo-Su 09:00-22:30", "payment:cash": "yes", "payment:credit_cards": "yes", "payment:debit_cards": "yes", "source": "local knowledge", "wheelchair": "no"}}, {"type": "node", "id": 4716486089, "lat": 12.9899208, "lon": 77.5944935, "tags": {"amenity": "pharmacy", "name:en": "Pharmacy"}}, {"type": "node", "id": 4757433421, "lat": 13.0054971, "lon": 77.6161129, "tags": {"amenity": "pharmacy", "healthcare": "pharmacy", "name": "Primecare Pharmacy", "name:en": "Primecare Pharmacy", "name:kn": "\u0caa\u0ccd\u0cb0\u0cc8\u0cae \u0c95\u0cc7\u0cb0\u0ccd", "source": "survey", "website": "https://primecare.in/"}}, {"type": "node", "id": 4840186222, "lat": 12.9753996, "lon": 77.6223913, "tags": {"amenity": "pharmacy", "healthcare": "pharmacy", "name": "Suneel Pharma", "name:en": "Suneel Pharma"}}, {"type": "node", "id": 4844863325, "lat": 13.0028658, "lon": 77.6347877, "tags": {"amenity": "pharmacy", "healthcare": "pharmacy", "name": "Maruti Medicals", "name:en": "Maruti Medicals"}}, {"type": "node", "id": 4844863375, "lat": 13.0027812, "lon": 77.6345924, "tags": {"amenity": "pharmacy", "healthcare": "pharmacy", "name": "Primecare", "name:en": "Primecare", "name:kn": "\u0caa\u0ccd\u0cb0\u0cc8\u0cae \u0c95\u0cc7\u0cb0\u0ccd"}}, {"type": "node", "id": 4844865046, "lat": 12.9945444, "lon": 77.6159681, "tags": {"amenity": "pharmacy", "check_date": "2024-08-11", "name": "Kiran medicals", "name:en": "Kiran medicals"}}, {"type": "node", "id": 4844865050, "lat": 13.0072315, "lon": 77.6403015, "tags": {"amenity": "pharmacy", "name": "Manjunatha", "name:en": "Manjunatha"}}, {"type": "node", "id": 4844867524, "lat": 12.9964814, "lon": 77.621145, "tags": {"amenity": "pharmacy", "name": "Manoj Medicals", "name:en": "Manoj Medicals"}}, {"type": "node", "id": 4847824929, "lat": 12.9410118, "lon": 77.592838, "tags": {"amenity": "pharmacy", "healthcare": "pharmacy", "name": "AT pharma", "name:en": "AT pharma"}}, {"type": "node", "id": 4847845822, "lat": 12.9359972, "lon": 77.5926337, "tags": {"amenity": "pharmacy", "healthcare": "pharmacy", "name": "Jaisheel", "name:en": "Jaisheel"}}, {"type": "node", "id": 4847845823, "lat": 12.935905, "lon": 77.5928069, "tags": {"amenity": "pharmacy", "healthcare": "pharmacy", "name": "Prasad medicals", "name:en": "Prasad medicals"}}, {"type": "node", "id": 4847845824, "lat": 12.9357029, "lon": 77.59262, "tags": {"amenity": "pharmacy", "healthcare": "pharmacy", "name": "Guru medicals", "name:en": "Guru medicals"}}, {"type": "node", "id": 4849577732, "lat": 12.9430018, "lon": 77.5944379, "tags": {"amenity": "pharmacy", "healthcare": "pharmacy", "name": "Ghousia"}}, {"type": "node", "id": 4849577740, "lat": 12.9422748, "lon": 77.594039, "tags": {"amenity": "pharmacy", "healthcare": "pharmacy", "name": "Ram Krishna Medicals"}}, {"type": "node", "id": 4849577745, "lat": 12.9416745, "lon": 77.5935357, "tags": {"amenity": "pharmacy", "healthcare": "pharmacy", "name": "Bright Pharmacy"}}, {"type": "node", "id": 4849618955, "lat": 12.9437303, "lon": 77.5947351, "tags": {"amenity": "pharmacy", "healthcare": "pharmacy", "name": "Venkatagiri", "name:kn": "\u0cb5\u0cc6\u0c82\u0c95\u0c9f\u0c97\u0cbf\u0cb0\u0cbf"}}, {"type": "node", "id": 4973098282, "lat": 13.0074875, "lon": 77.5485022, "tags": {"amenity": "pharmacy", "name": "Metro Medical Center"}}, {"type": "node", "id": 5061380661, "lat": 12.9902704, "lon": 77.5744146, "tags": {"amenity": "pharmacy", "name": "Brindavan Pharma"}}, {"type": "node", "id": 5061395356, "lat": 12.9671456, "lon": 77.6103961, "tags": {"amenity": "pharmacy", "name": "Hosmat Pharmacy"}}, {"type": "node", "id": 5157373803, "lat": 12.9899364, "lon": 77.5528432, "tags": {"amenity": "pharmacy", "healthcare": "pharmacy", "name": "Kasturi Pharma and General Stores"}}, {"type": "node", "id": 5174892806, "lat": 12.9958589, "lon": 77.6082728, "tags": {"amenity": "pharmacy", "check_date": "2024-12-29", "healthcare": "pharmacy", "name": "Santosh Pharma", "wheelchair": "no"}}, {"type": "node", "id": 5174892809, "lat": 12.9941962, "lon": 77.6076009, "tags": {"amenity": "pharmacy", "healthcare": "pharmacy", "name": "Mustafai Unani Pharmacy"}}, {"type": "node", "id": 5229482743, "lat": 12.9867071, "lon": 77.5796028, "tags": {"amenity": "pharmacy", "brand": "Apollo Pharmacy", "brand:wikidata": "Q62562612", "healthcare": "pharmacy", "name": "Apollo Pharmacy", "name:kn": "\u0c85\u0caa\u0cca\u0cb2\u0ccb \u0cab\u0cbe\u0cb0\u0ccd\u0cae\u0cb8\u0cbf"}}, {"type": "node", "id": 5234729473, "lat": 12.948031, "lon": 77.5972353, "tags": {"amenity": "pharmacy", "healthcare": "pharmacy", "name": "Trust Medicals"}}, {"type": "node", "id": 5246614722, "lat": 12.9467131, "lon": 77.5692249, "tags": {"addr:housenumber": "65", "amenity": "pharmacy", "healthcare": "pharmacy", "name": "Ayurvedic Pharmacy", "name:kn": "\u0c86\u0caf\u0cc1\u0cb0\u0ccd\u0cb5\u0cc7\u0ca6 \u0c94\u0cb7\u0ca6\u0cbe\u0cb2\u0caf", "name:ru": "\u0410\u044e\u0440\u0432\u0435\u0434\u0438\u0447\u0435\u0441\u043a\u0438\u0435 \u043f\u0440\u0435\u043f\u0430\u0440\u0430\u0442\u044b"}}, {"type": "node", "id": 5249129421, "lat": 12.9334146, "lon": 77.5626612, "tags": {"amenity": "pharmacy", "name": "\u0cac\u0cbe\u0cb2\u0cbe\u0c9c\u0cbf \u0cae\u0cc6\u0ca1\u0cbf\u0c95\u0cb2\u0ccd\u0cb8\u0ccd"}}, {"type": "node", "id": 5304601934, "lat": 12.9391798, "lon": 77.551355, "tags": {"amenity": "pharmacy", "name": "Seetha Medicals"}}, {"type": "node", "id": 5304601965, "lat": 12.9386733, "lon": 77.5526257, "tags": {"amenity": "pharmacy", "name": "Jaganni Medicals and General Stores"}}, {"type": "node", "id": 5304601990, "lat": 12.9387648, "lon": 77.5530495, "tags": {"amenity": "pharmacy", "level": "0", "name": "Suraksha Medicals"}}, {"type": "node", "id": 5304601993, "lat": 12.9388177, "lon": 77.5528852, "tags": {"amenity": "pharmacy", "brand": "MedPlus", "brand:wikidata": "Q65684234", "healthcare": "pharmacy", "name": "MedPlus", "name:kn": "\u0cae\u0cc6\u0ca1\u0ccd\u200d\u0caa\u0ccd\u0cb2\u0cb8\u0ccd"}}, {"type": "node", "id": 5304602002, "lat": 12.9389135, "lon": 77.5525787, "tags": {"amenity": "pharmacy", "level": "0"}}, {"type": "node", "id": 5304602020, "lat": 12.9386903, "lon": 77.5518841, "tags": {"amenity": "pharmacy", "name": "Adarsh Medical Center", "shop": "medical_supply"}}, {"type": "node", "id": 5306751771, "lat": 12.9524904, "lon": 77.5773248, "tags": {"amenity": "pharmacy", "level": "0", "name": "Nagashri Medicals"}}, {"type": "node", "id": 5349525426, "lat": 12.9273803, "lon": 77.6162014, "tags": {"amenity": "pharmacy", "name": "Kottakkal Aruna Vaidya Sala"}}, {"type": "node", "id": 5537917022, "lat": 12.9760847, "lon": 77.6377952, "tags": {"amenity": "pharmacy", "healthcare": "pharmacy", "name": "Sai Ram Medicals"}}, {"type": "node", "id": 5585615826, "lat": 12.9744474, "lon": 77.6394513, "tags": {"amenity": "pharmacy", "healthcare": "pharmacy", "name": "Amar Medicals"}}, {"type": "node", "id": 5585629422, "lat": 12.9744956, "lon": 77.6381464, "tags": {"amenity": "pharmacy", "healthcare": "pharmacy", "name": "Sri Balaji Medicals"}}, {"type": "node", "id": 5602313541, "lat": 13.0021577, "lon": 77.5526639, "tags": {"amenity": "pharmacy", "dispensing": "yes", "healthcare": "pharmacy", "name": "Sri Banashankari Medicals"}}, {"type": "node", "id": 5623433261, "lat": 12.9864932, "lon": 77.5558162, "tags": {"amenity": "pharmacy", "brand": "Apollo Pharmacy", "brand:wikidata": "Q62562612", "healthcare": "pharmacy", "name": "Apollo Pharmacy", "name:kn": "\u0c85\u0caa\u0cca\u0cb2\u0ccb \u0cab\u0cbe\u0cb0\u0ccd\u0cae\u0cb8\u0cbf"}}, {"type": "node", "id": 5624263031, "lat": 12.9880221, "lon": 77.5558457, "tags": {"amenity": "pharmacy", "name": "Sree Prabhu Medical Centre"}}, {"type": "node", "id": 5922660393, "lat": 12.9899104, "lon": 77.5531138, "tags": {"amenity": "pharmacy", "name": "Seetha Medicals & General Store"}}, {"type": "node", "id": 6067868839, "lat": 12.9332568, "lon": 77.6296592, "tags": {"amenity": "pharmacy", "healthcare": "pharmacy", "name": "Kiran Medical Store"}}, {"type": "node", "id": 6458991781, "lat": 12.9777866, "lon": 77.6302967, "tags": {"amenity": "pharmacy", "check_date": "2024-02-06", "healthcare": "pharmacy", "name": "Suresh Pharma"}}, {"type": "node", "id": 6570421952, "lat": 13.0078107, "lon": 77.5484819, "tags": {"amenity": "pharmacy", "name": "Nayan Drugs and Opticals"}}, {"type": "node", "id": 6681254105, "lat": 12.9963828, "lon": 77.5508957, "tags": {"amenity": "pharmacy", "healthcare": "pharmacy", "name": "Prashanthi Ayurvedic Centre"}}, {"type": "node", "id": 6711246907, "lat": 12.9993177, "lon": 77.5502049, "tags": {"amenity": "pharmacy", "healthcare": "pharmacy", "name": "Homoeo Mart"}}, {"type": "node", "id": 7018761629, "lat": 12.9379662, "lon": 77.568428, "tags": {"addr:city": "Bengaluru", "addr:street": "Subbrama Chetty Road", "amenity": "pharmacy", "brand": "Apollo Pharmacy", "brand:wikidata": "Q62562612", "dispensing": "yes", "drive_through": "no", "healthcare": "pharmacy", "name": "Apollo Pharmacy", "name:kn": "\u0c85\u0caa\u0ccb\u0cb2\u0ccb \u0cab\u0cbe\u0cb0\u0ccd\u0cae\u0cb8\u0cbf", "operator": "Apollo Pharmacy"}}, {"type": "node", "id": 7043262185, "lat": 12.9553721, "lon": 77.5855419, "tags": {"addr:housenumber": "120/1", "addr:street": "Lalbagh Road", "amenity": "pharmacy", "name": "Sapthagiri Medicals"}}, {"type": "node", "id": 7043906886, "lat": 12.9882933, "lon": 77.5561065, "tags": {"amenity": "pharmacy", "brand": "Wellness Forever", "healthcare": "pharmacy", "name": "Wellness Forever"}}, {"type": "node", "id": 7156536792, "lat": 12.9906161, "lon": 77.5505832, "tags": {"amenity": "pharmacy", "name": "Harshitha Medical & General Store"}}, {"type": "node", "id": 7236205648, "lat": 12.9900398, "lon": 77.5557384, "tags": {"amenity": "pharmacy", "name": "Stay Happi Pharmacy"}}, {"type": "node", "id": 7236205657, "lat": 12.9850504, "lon": 77.5532533, "tags": {"amenity": "pharmacy", "brand": "Apollo Pharmacy", "brand:wikidata": "Q62562612", "healthcare": "pharmacy", "name": "Apollo Pharmacy", "name:kn": "\u0c85\u0caa\u0cca\u0cb2\u0ccb \u0cab\u0cbe\u0cb0\u0ccd\u0cae\u0cb8\u0cbf"}}, {"type": "node", "id": 7817577922, "lat": 13.0038285, "lon": 77.6154682, "tags": {"amenity": "pharmacy", "brand": "Apollo Pharmacy", "brand:wikidata": "Q62562612", "dispensing": "yes", "healthcare": "pharmacy", "name": "Apollo Pharmacy", "name:kn": "\u0c85\u0caa\u0cca\u0cb2\u0ccb \u0cab\u0cbe\u0cb0\u0ccd\u0cae\u0cb8\u0cbf"}}, {"type": "node", "id": 7941607043, "lat": 13.0039944, "lon": 77.6155412, "tags": {"amenity": "pharmacy", "brand": "MedPlus", "brand:wikidata": "Q65684234", "brand:wikipedia": "en:MedPlus", "dispensing": "yes", "healthcare": "pharmacy", "name": "MedPlus"}}, {"type": "node", "id": 8120700204, "lat": 13.0001038, "lon": 77.6230624, "tags": {"amenity": "pharmacy", "healthcare": "pharmacy", "name": "Sarooj Pharma", "opening_hours": "10:00-14:00, 17:30-21:30", "shop": "chemist"}}, {"type": "node", "id": 8170392717, "lat": 12.9564805, "lon": 77.5828736, "tags": {"amenity": "pharmacy", "name": "Max Medicals"}}, {"type": "node", "id": 8186304650, "lat": 13.0004506, "lon": 77.6218199, "tags": {"amenity": "pharmacy", "dispensing": "yes", "healthcare": "pharmacy", "name": "Axis Pharma and Dental Supplies"}}, {"type": "node", "id": 9066455075, "lat": 12.9715511, "lon": 77.635481, "tags": {"addr:housenumber": "3142, Ground Floor", "addr:street": "7th Main, ESI Hospital Road", "amenity": "pharmacy", "branch": "ESI Hospital Road Indiranagar", "brand": "MedPlus", "brand:wikidata": "Q65684234", "healthcare": "pharmacy", "name": "MedPlus", "name:kn": "\u0cae\u0cc6\u0ca1\u0ccd\u200d\u0caa\u0ccd\u0cb2\u0cb8\u0ccd", "opening_hours": "Mo-Su 07:00-23:00", "phone": "+916366374166", "website": "https://pharmacy.medplusmart.com/INKABLR00500"}}, {"type": "node", "id": 9136927430, "lat": 12.9953858, "lon": 77.5546266, "tags": {"addr:housenumber": "624", "amenity": "pharmacy", "name": "Pradhanmantri Bharatiya Janaushadhi Kendra"}}, {"type": "node", "id": 9350054873, "lat": 13.0023102, "lon": 77.552568, "tags": {"amenity": "pharmacy", "name": "Aster Pharmacy", "name:kn": "\u0c86\u0cb8\u0ccd\u0c9f\u0cb0\u0ccd \u0cab\u0cbe\u0cb0\u0ccd\u0cae\u0cb8\u0cbf"}}, {"type": "node", "id": 9784639597, "lat": 12.9945697, "lon": 77.5716164, "tags": {"amenity": "pharmacy"}}, {"type": "node", "id": 9936582860, "lat": 13.005053, "lon": 77.5497289, "tags": {"amenity": "pharmacy", "name": "Bhoomi Medicals"}}, {"type": "node", "id": 9953939217, "lat": 12.9411755, "lon": 77.6277014, "tags": {"amenity": "pharmacy", "brand": "MedPlus", "brand:wikidata": "Q65684234", "healthcare": "pharmacy", "name": "MedPlus"}}, {"type": "node", "id": 9961663318, "lat": 12.9417192, "lon": 77.6278767, "tags": {"amenity": "pharmacy", "name": "Mahaveer Medical"}}, {"type": "node", "id": 10036648121, "lat": 12.940938, "lon": 77.6241703, "tags": {"amenity": "pharmacy", "healthcare": "pharmacy", "name": "Vitamin Galaxy"}}, {"type": "node", "id": 10047234717, "lat": 12.9818781, "lon": 77.6040785, "tags": {"amenity": "pharmacy", "name": "Jain Medicals"}}, {"type": "node", "id": 10079235531, "lat": 12.9350365, "lon": 77.6332951, "tags": {"addr:housenumber": "991", "addr:street": "7th Main Road", "amenity": "pharmacy", "dispensing": "yes", "healthcare": "pharmacy", "name": "Skanda Medicals"}}, {"type": "node", "id": 10079235533, "lat": 12.9352067, "lon": 77.6315454, "tags": {"addr:street": "4th Main Road", "amenity": "pharmacy", "dispensing": "yes", "healthcare": "pharmacy", "name": "iCure Medicals"}}, {"type": "node", "id": 10079235534, "lat": 12.935561, "lon": 77.6309798, "tags": {"amenity": "pharmacy", "brand": "Apollo Pharmacy", "brand:wikidata": "Q62562612", "dispensing": "yes", "healthcare": "pharmacy", "name": "Apollo Pharmacy", "website": "https://www.apollopharmacy.in/"}}, {"type": "node", "id": 10101174018, "lat": 12.9509127, "lon": 77.6230621, "tags": {"amenity": "pharmacy", "healthcare": "pharmacy", "name": "United Medicals"}}, {"type": "node", "id": 10101174122, "lat": 12.9509673, "lon": 77.623189, "tags": {"amenity": "pharmacy", "healthcare": "pharmacy", "name": "Bright Medicals"}}, {"type": "node", "id": 10114142768, "lat": 12.9394907, "lon": 77.6257893, "tags": {"amenity": "pharmacy", "healthcare": "pharmacy", "name": "Ramdev Medical"}}, {"type": "node", "id": 10118711001, "lat": 12.9507714, "lon": 77.6238421, "tags": {"amenity": "pharmacy", "healthcare": "pharmacy"}}, {"type": "node", "id": 10159395930, "lat": 12.9505124, "lon": 77.6243668, "tags": {"amenity": "pharmacy", "healthcare": "pharmacy", "name": "Ambica Medical"}}, {"type": "node", "id": 10228304187, "lat": 12.98669, "lon": 77.5796975, "tags": {"amenity": "pharmacy", "name": "Panchavati Chemists and Druggists"}}, {"type": "node", "id": 10272932180, "lat": 12.9720878, "lon": 77.6009403, "tags": {"amenity": "pharmacy", "name": "Forster Pharma"}}, {"type": "node", "id": 10276162819, "lat": 13.0010747, "lon": 77.5505476, "tags": {"addr:floor": "0", "addr:postcode": "560010", "amenity": "pharmacy", "check_date": "2023-12-23", "dispensing": "no", "drive_through": "no", "internet_access": "no", "level": "0", "name": "Sri Reddy Pharma", "payment:cash": "yes", "payment:credit_cards": "yes", "payment:debit_cards": "yes", "source": "local knowledge", "wheelchair": "no"}}, {"type": "node", "id": 11036798846, "lat": 12.9400467, "lon": 77.6179642, "tags": {"amenity": "pharmacy", "healthcare": "pharmacy", "name": "Roots Pharma"}}, {"type": "node", "id": 11131430560, "lat": 12.9714734, "lon": 77.6277316, "tags": {"amenity": "pharmacy", "brand": "MedPlus", "brand:wikidata": "Q65684234", "healthcare": "pharmacy", "name": "MedPlus"}}, {"type": "node", "id": 11171324534, "lat": 12.9597011, "lon": 77.6015633, "tags": {"amenity": "pharmacy", "healthcare": "pharmacy", "name": "Hafiz Pharma"}}, {"type": "node", "id": 11171324535, "lat": 12.9600253, "lon": 77.6016276, "tags": {"amenity": "pharmacy", "healthcare": "pharmacy", "name": "HKGN Medicals"}}, {"type": "node", "id": 11178144186, "lat": 12.9571579, "lon": 77.5718768, "tags": {"addr:housenumber": "38/1", "addr:street": "Pampa Mahakavi Road", "addr:unit": "3", "amenity": "pharmacy", "check_date": "2023-09-09", "dispensing": "yes", "drive_through": "no", "healthcare": "pharmacy", "name": "Sri Lakshminarasimha Drug Centre"}}, {"type": "node", "id": 11178186960, "lat": 12.9588046, "lon": 77.5649867, "tags": {"amenity": "pharmacy", "check_date": "2023-09-09", "healthcare": "pharmacy", "name": "Arihant Shri Jain Pharma"}}, {"type": "node", "id": 11180654059, "lat": 13.011635, "lon": 77.5568763, "tags": {"amenity": "pharmacy", "check_date": "2023-09-10", "healthcare": "pharmacy", "name": "Value Pharma"}}, {"type": "node", "id": 11197006509, "lat": 13.0059256, "lon": 77.555443, "tags": {"amenity": "pharmacy", "brand": "MedPlus", "brand:wikidata": "Q65684234", "check_date": "2023-09-17", "healthcare": "pharmacy", "name": "MedPlus"}}, {"type": "node", "id": 11245004192, "lat": 12.9787061, "lon": 77.638013, "tags": {"amenity": "pharmacy", "name": "Sri Sai Paharmacy"}}, {"type": "node", "id": 11261004461, "lat": 13.0074683, "lon": 77.5709752}, {"type": "node", "id": 11261004462, "lat": 13.0074212, "lon": 77.5709737}, {"type": "node", "id": 11261004463, "lat": 13.0074175, "lon": 77.5711032}, {"type": "node", "id": 11261004464, "lat": 13.0074647, "lon": 77.5711046}, {"type": "node", "id": 11268357659, "lat": 12.9673234, "lon": 77.6400936, "tags": {"amenity": "pharmacy", "healthcare": "pharmacy"}}, {"type": "node", "id": 11268362649, "lat": 12.9671096, "lon": 77.6403708, "tags": {"amenity": "pharmacy", "healthcare": "pharmacy"}}, {"type": "node", "id": 11282630647, "lat": 12.9961725, "lon": 77.6131645, "tags": {"amenity": "pharmacy", "name": "Balaji Medicals"}}, {"type": "node", "id": 11292257027, "lat": 12.9776273, "lon": 77.5695903, "tags": {"amenity": "pharmacy", "contact:mobile": "+91-8433-808080", "contact:whatsapp": "+91-8433-808080", "healthcare": "pharmacy", "level": "0", "name": "Davadost", "operator": "Davadost Pharma Private Limited", "wheelchair": "limited"}}, {"type": "node", "id": 11295265923, "lat": 12.9406356, "lon": 77.5948929, "tags": {"amenity": "pharmacy", "check_date": "2023-10-28", "name": "NIMHANS Pharmacy", "shop": "chemist"}}, {"type": "node", "id": 11295469699, "lat": 12.9519038, "lon": 77.5944072, "tags": {"amenity": "pharmacy", "healthcare": "pharmacy", "level": "0", "name": "Primecare Pharma", "opening_hours": "Mo-Su 08:00-23:00,13:30-18:30; PH open"}}, {"type": "node", "id": 11295921628, "lat": 12.9500344, "lon": 77.5965335, "tags": {"amenity": "pharmacy", "healthcare": "pharmacy", "level": "0", "name": "Kamaldeep Medicals"}}, {"type": "node", "id": 11295921629, "lat": 12.9499736, "lon": 77.5966031, "tags": {"amenity": "pharmacy", "healthcare": "pharmacy", "level": "0", "name": "Amruth Medicals"}}, {"type": "node", "id": 11295921635, "lat": 12.9514745, "lon": 77.595132, "tags": {"amenity": "pharmacy", "healthcare": "pharmacy", "level": "0", "name": "Rajalakshmi Medicals"}}, {"type": "node", "id": 11295921636, "lat": 12.94961, "lon": 77.5962261, "tags": {"amenity": "pharmacy", "brand": "Apollo Pharmacy", "brand:wikidata": "Q62562612", "healthcare": "pharmacy", "level": "0", "name": "Apollo Pharmacy", "name:kn": "\u0c85\u0caa\u0ccb\u0cb2\u0ccb \u0cab\u0cbe\u0cb0\u0ccd\u0cae\u0cb8\u0cbf"}}, {"type": "node", "id": 11296003727, "lat": 12.9494082, "lon": 77.59618, "tags": {"amenity": "pharmacy", "healthcare": "pharmacy", "level": "0", "name": "Susheela Medicals"}}, {"type": "node", "id": 11385580177, "lat": 12.9374519, "lon": 77.6265817, "tags": {"amenity": "pharmacy", "check_date": "2023-11-30", "healthcare": "pharmacy", "name": "Lavish Pharma"}}, {"type": "node", "id": 11391167232, "lat": 13.0084969, "lon": 77.5685026, "tags": {"amenity": "pharmacy", "check_date": "2023-12-03", "healthcare": "pharmacy", "name": "Narayana Pharma"}}, {"type": "node", "id": 11404712824, "lat": 12.9776472, "lon": 77.6273121, "tags": {"amenity": "pharmacy", "name": "Shree Raajarajeshwari Medicals & General store"}}, {"type": "node", "id": 11463065115, "lat": 12.9614804, "lon": 77.6363697, "tags": {"amenity": "pharmacy", "check_date": "2025-08-23", "healthcare": "pharmacy", "name": "Prashanth Medicals"}}, {"type": "node", "id": 11472852215, "lat": 13.0003625, "lon": 77.6169853, "tags": {"amenity": "pharmacy", "check_date": "2023-12-31", "healthcare": "pharmacy", "name": "Topmost Medicals"}}, {"type": "node", "id": 11472852233, "lat": 13.0001367, "lon": 77.6188756, "tags": {"amenity": "pharmacy", "check_date": "2023-12-31", "healthcare": "pharmacy", "name": "Sri Balaji Medicals"}}, {"type": "node", "id": 11505830447, "lat": 12.9552768, "lon": 77.6207566, "tags": {"amenity": "pharmacy", "check_date": "2024-01-10", "healthcare": "pharmacy", "name": "Sundeep Pharma"}}, {"type": "node", "id": 11512935332, "lat": 13.0091522, "lon": 77.5787543, "tags": {"amenity": "pharmacy", "check_date": "2024-01-13", "healthcare": "pharmacy"}}, {"type": "node", "id": 11592710084, "lat": 12.9762005, "lon": 77.5755635, "tags": {"addr:city": "Be\u1e45ga\u1e37\u016bru", "addr:neighborhood": "G\u0101ndhinagara", "addr:state": "KA", "amenity": "pharmacy", "dispensing": "yes", "drive_through": "no", "healthcare": "pharmacy", "name:en": "Gurur\u0101ja Medicals", "name:hi-Latn": "Gurur\u0101j", "name:ur-Latn": "Gurur\u0101j", "opening_hours": "08:00-22:00", "phone": "+9180 2225 6783;+918022911966;+917259440612", "website": "https://business.google.com/website/gururaja-medicals"}}, {"type": "node", "id": 11630738956, "lat": 12.9784085, "lon": 77.630885, "tags": {"amenity": "pharmacy", "check_date": "2024-02-16", "healthcare": "pharmacy", "internet_access": "no", "name": "Eshwar Pharma", "payment:cash": "yes", "payment:credit_cards": "yes", "payment:debit_cards": "yes", "phone": "+91 91643 45443", "wheelchair": "no"}}, {"type": "node", "id": 11659385837, "lat": 12.9736597, "lon": 77.6229416, "tags": {"amenity": "pharmacy", "check_date": "2024-02-24", "healthcare": "pharmacy", "internet_access": "no", "name": "Pharma Point", "payment:cash": "yes", "payment:credit_cards": "yes", "payment:debit_cards": "yes", "wheelchair": "no"}}, {"type": "node", "id": 11659905692, "lat": 12.930344, "lon": 77.6332226, "tags": {"amenity": "pharmacy", "brand": "MedPlus", "brand:wikidata": "Q65684234", "healthcare": "pharmacy", "name": "MedPlus", "name:kn": "\u0cae\u0cc6\u0ca1\u0ccd\u200d\u0caa\u0ccd\u0cb2\u0cb8\u0ccd"}}, {"type": "node", "id": 11677179256, "lat": 12.9781021, "lon": 77.5752146, "tags": {"amenity": "pharmacy", "check_date": "2024-02-29", "healthcare": "pharmacy", "name": "Sri Krishna Medicals"}}, {"type": "node", "id": 11677179263, "lat": 12.9783411, "lon": 77.575127, "tags": {"amenity": "pharmacy", "check_date": "2024-02-29", "healthcare": "pharmacy", "name": "Amogh Medical"}}, {"type": "node", "id": 11694214521, "lat": 12.9761609, "lon": 77.6244665, "tags": {"amenity": "pharmacy", "check_date": "2024-03-05", "healthcare": "pharmacy", "name": "Sri Sai Med Pharma", "phone": "+91 98443 85199"}}, {"type": "node", "id": 11708703072, "lat": 12.9811642, "lon": 77.6286416, "tags": {"amenity": "pharmacy", "check_date": "2024-03-09", "healthcare": "pharmacy", "internet_access": "no", "name": "Friends Pharma", "payment:cash": "yes", "payment:credit_cards": "yes", "payment:debit_cards": "yes", "wheelchair": "no"}}, {"type": "node", "id": 11853327833, "lat": 12.9970164, "lon": 77.6141416, "tags": {"amenity": "pharmacy", "brand": "Apollo Pharmacy", "brand:wikidata": "Q62562612", "check_date": "2024-04-27", "healthcare": "pharmacy", "name": "Apollo Pharmacy"}}, {"type": "node", "id": 11897968141, "lat": 13.0031199, "lon": 77.5713727, "tags": {"amenity": "pharmacy", "check_date": "2024-05-12", "healthcare": "pharmacy", "name": "Sri Sai Medicals"}}, {"type": "node", "id": 11897985622, "lat": 13.0053599, "lon": 77.5712888, "tags": {"amenity": "pharmacy", "check_date": "2024-05-12", "healthcare": "pharmacy", "name": "Yashvini Ayurveda"}}, {"type": "node", "id": 11949210770, "lat": 12.998839, "lon": 77.5763743, "tags": {"amenity": "pharmacy", "check_date": "2024-06-01", "healthcare": "pharmacy"}}, {"type": "node", "id": 11982693070, "lat": 12.995114, "lon": 77.6160795, "tags": {"amenity": "pharmacy", "check_date": "2024-06-15", "healthcare": "pharmacy", "name": "Surana Chemist"}}, {"type": "node", "id": 11982693072, "lat": 12.9966446, "lon": 77.6116049, "tags": {"amenity": "pharmacy", "check_date": "2024-06-15", "healthcare": "pharmacy", "name": "Health Green Pharma"}}, {"type": "node", "id": 11986964427, "lat": 12.9924482, "lon": 77.5756565, "tags": {"amenity": "pharmacy", "name": "Shanti Medicals"}}, {"type": "node", "id": 12000328232, "lat": 12.9932604, "lon": 77.571151, "tags": {"amenity": "pharmacy", "check_date": "2024-06-22", "healthcare": "pharmacy", "name": "NE Pharmacy"}}, {"type": "node", "id": 12103968917, "lat": 12.9989667, "lon": 77.5800117, "tags": {"amenity": "pharmacy", "check_date": "2024-08-11", "healthcare": "pharmacy", "name": "The Drug Hut"}}, {"type": "node", "id": 12103968933, "lat": 12.9989823, "lon": 77.5802854, "tags": {"amenity": "pharmacy", "check_date": "2024-08-11", "healthcare": "pharmacy", "name": "Bilva Pharmacy"}}, {"type": "node", "id": 12168445593, "lat": 12.9482059, "lon": 77.5987156, "tags": {"addr:floor": "G", "amenity": "pharmacy", "brand": "MedPlus", "brand:wikidata": "Q65684234", "check_date": "2024-09-10", "healthcare": "pharmacy", "level": "0", "name": "MedPlus", "name:en": "Med Plus", "name:kn": "\u0cae\u0cc6\u0ca1\u0ccd\u200d\u0caa\u0ccd\u0cb2\u0cb8\u0ccd"}}, {"type": "node", "id": 12401325625, "lat": 12.9857934, "lon": 77.5957495, "tags": {"amenity": "pharmacy", "check_date": "2024-12-07", "healthcare": "pharmacy", "name": "ThinkCare Pharma"}}, {"type": "node", "id": 12676261360, "lat": 13.0044903, "lon": 77.5536452, "tags": {"amenity": "pharmacy", "check_date": "2025-03-18", "healthcare": "pharmacy", "name": "Sri Balaji Medical and General Store"}}, {"type": "node", "id": 13072556914, "lat": 12.9784737, "lon": 77.6394515, "tags": {"addr:floor": "G", "amenity": "pharmacy", "check_date": "2025-08-15", "healthcare": "pharmacy", "level": "0", "name": "Cosmo", "name:en": "Cosmo"}}, {"type": "node", "id": 13114667051, "lat": 12.9777179, "lon": 77.6306728, "tags": {"amenity": "pharmacy", "name": "Revive Janata", "panoramax": "79f2bf3c-3de5-4988-ae0e-9fb07b69e622"}}, {"type": "node", "id": 13130983134, "lat": 12.9280491, "lon": 77.5808814}, {"type": "node", "id": 13130983135, "lat": 12.9280487, "lon": 77.5807611}, {"type": "node", "id": 13130983136, "lat": 12.9279349, "lon": 77.5807633}, {"type": "node", "id": 13130983137, "lat": 12.9279353, "lon": 77.5808281}, {"type": "node", "id": 13130983138, "lat": 12.9279892, "lon": 77.5808836}, {"type": "way", "id": 347489268, "nodes": [3537816697, 3537816722, 3537816728, 3537816702, 3537816697], "tags": {"amenity": "pharmacy", "building": "yes", "healthcare": "pharmacy", "name": "Shubha Ayurvedic Center"}}, {"type": "way", "id": 1215422857, "nodes": [11261004461, 11261004462, 11261004463, 11261004464, 11261004461], "tags": {"amenity": "pharmacy", "building": "yes", "healthcare": "pharmacy", "name": "SLN Medicals"}}, {"type": "way", "id": 1428296327, "nodes": [13130983134, 13130983135, 13130983136, 13130983137, 13130983138, 13130983134], "tags": {"addr:city": "Bengaluru", "addr:district": "Bengaluru Urban", "addr:housenumber": "184", "addr:postcode": "560011", "addr:street": "5th Main Road", "amenity": "pharmacy", "building": "retail", "building:levels": "1", "height": "4", "name": "Healthway Pharma", "smoking": "no"}}]}