{"version": 0.6, "generator": "Overpass API 0.7.62.8 e802775f", "osm3s": {"timestamp_osm_base": "2025-11-29T05:52:52Z", "copyright": "The data included in this document is from www.openstreetmap.org. The data is made available under ODbL."}, "elements": [{"type": "node", "id": 390131177, "lat": 12.3110701, "lon": 76.6593011, "tags": {"name": "Pai Vista", "tourism": "hotel"}}, {"type": "node", "id": 540645461, "lat": 12.3114826, "lon": 76.6440802, "tags": {"addr:city": "Mysore", "designation": "Metropole", "name": "Metropole", "source": "Metropole", "tourism": "hotel"}}, {"type": "node", "id": 540645893, "lat": 12.3117845, "lon": 76.6430331, "tags": {"addr:city": "Mysore", "name": "Regaalis, Mysore", "tourism": "hotel"}}, {"type": "node", "id": 541313398, "lat": 12.3125141, "lon": 76.6433728, "tags": {"name": "Hotel Guru Residency", "tourism": "hotel"}}, {"type": "node", "id": 541329537, "lat": 12.3080613, "lon": 76.6598093, "tags": {"name": "Hotel Ramanashree", "tourism": "hotel"}}, {"type": "node", "id": 633121758, "lat": 12.3123503, "lon": 76.6531011, "tags": {"name": "Bombay Tiffanys", "tourism": "hotel"}}, {"type": "node", "id": 647850322, "lat": 12.3110043, "lon": 76.6542796, "tags": {"name": "Hotel New Shilpashri Bar and Restaurant", "tourism": "hotel"}}, {"type": "node", "id": 647850323, "lat": 12.3128041, "lon": 76.6538693, "tags": {"name": "Chandra Palace", "tourism": "hotel"}}, {"type": "node", "id": 1065137570, "lat": 12.3086026, "lon": 76.6587377, "tags": {"internet_access": "no", "name": "Hotel RRR", "tourism": "hotel"}}, {"type": "node", "id": 1153301920, "lat": 12.31096, "lon": 76.6578378, "tags": {"name": "Sri Uma Maheswara Lodge", "tourism": "hotel"}}, {"type": "node", "id": 1153301956, "lat": 12.3060376, "lon": 76.6507364, "tags": {"name": "Kalpana Lodge", "tourism": "hotel"}}, {"type": "node", "id": 1153369471, "lat": 12.3103941, "lon": 76.6578212, "tags": {"name": "MRT Yatri Nivas", "tourism": "hotel"}}, {"type": "node", "id": 1153369558, "lat": 12.3103101, "lon": 76.6576189, "tags": {"name": "Karnataka Tourist Center", "tourism": "hotel"}}, {"type": "node", "id": 1153369589, "lat": 12.3103309, "lon": 76.6579416, "tags": {"name": "Shreyas Lodge", "tourism": "hotel"}}, {"type": "node", "id": 1636850568, "lat": 12.3008074, "lon": 76.6403651, "tags": {"name": "Jade Garden", "tourism": "hotel"}}, {"type": "node", "id": 1638073734, "lat": 12.3086497, "lon": 76.6583683, "tags": {"amenity": "restaurant", "internet_access": "wlan", "name": "Parklane Hotel", "tourism": "hotel", "wheelchair": "yes"}}, {"type": "node", "id": 1649140635, "lat": 12.2981407, "lon": 76.6655704, "tags": {"addr:city": "Mysuru", "addr:housenumber": "1", "addr:street": "Mahatma Gandhi Road", "brand": "Radisson Blu", "brand:wikidata": "Q7281341", "name": "Radisson Blu Plaza Hotel", "name:kn": "\u0cb0\u0ca1\u0cbf\u0cb8\u0ca8\u0ccd \u0cac\u0ccd\u0cb2\u0cc2", "tourism": "hotel"}}, {"type": "node", "id": 1659014527, "lat": 12.310275, "lon": 76.6583818, "tags": {"name": "Ganesh Hotel", "tourism": "hotel"}}, {"type": "node", "id": 1670004234, "lat": 12.3118335, "lon": 76.6539708, "tags": {"name": "Hotel Dasparakash Akshaya", "tourism": "hotel"}}, {"type": "node", "id": 1798917854, "lat": 12.3124209, "lon": 76.6405996, "tags": {"name": "Quorum", "source": "Quorum", "tourism": "hotel"}}, {"type": "node", "id": 1818604065, "lat": 12.2917329, "lon": 76.670955, "tags": {"name": "Windflower Spa and Resorts", "tourism": "hotel"}}, {"type": "node", "id": 2039590845, "lat": 12.3096499, "lon": 76.6623106}, {"type": "node", "id": 2039590877, "lat": 12.3091572, "lon": 76.6618278}, {"type": "node", "id": 2039590882, "lat": 12.3092778, "lon": 76.6619727}, {"type": "node", "id": 2039590890, "lat": 12.3094788, "lon": 76.6629394}, {"type": "node", "id": 2039590916, "lat": 12.3089423, "lon": 76.6627881}, {"type": "node", "id": 2232361185, "lat": 12.315877, "lon": 76.6581867, "tags": {"addr:city": "Mysore", "addr:country": "IN", "addr:housenumber": "2932/A", "addr:place": "off Bangalore Nilgiri Road", "addr:postcode": "570001", "addr:state": "KA", "addr:suburb": "Lashkar Mohalla", "email": "info@aishwaryaresidency.com", "internet_access": "wlan", "internet_access:fee": "no", "name": "Aishwarya Residency", "phone": "+91 821 2445592", "tourism": "hotel", "website": "http://www.aishwaryaresidency.com"}}, {"type": "node", "id": 2620887349, "lat": 12.3183859, "lon": 76.6596091, "tags": {"name": "M. B. International", "tourism": "hotel"}}, {"type": "node", "id": 2623349400, "lat": 12.318868, "lon": 76.6589358, "tags": {"name": "Hotel Silver Star", "tourism": "hotel"}}, {"type": "node", "id": 2831401358, "lat": 12.3112197, "lon": 76.6596385, "tags": {"addr:city": "Near Bus stand", "name": "Maharaja Hotel Mysore", "tourism": "hotel"}}, {"type": "node", "id": 2869682111, "lat": 12.319111, "lon": 76.6619921, "tags": {"name": "Green wood inn", "tourism": "hotel"}}, {"type": "node", "id": 2982356915, "lat": 12.3111165, "lon": 76.657859, "tags": {"addr:city": "Mysore", "addr:housenumber": "2898/1", "addr:postcode": "570001", "addr:street": "behind suburban bus stand road", "ele": "4", "internet_access": "wlan", "internet_access:fee": "customers", "name": "The Grand Inn", "note": "The place to relax inn", "operator": "MANJU", "phone": "+918214253300", "smoking": "outside", "source": "HOTEL", "tourism": "hotel", "wheelchair": "limited"}}, {"type": "node", "id": 3224354484, "lat": 12.3116997, "lon": 76.6450303}, {"type": "node", "id": 3224354485, "lat": 12.3116856, "lon": 76.6450959}, {"type": "node", "id": 3224354486, "lat": 12.3117179, "lon": 76.6451031}, {"type": "node", "id": 3224354487, "lat": 12.311696, "lon": 76.6452045}, {"type": "node", "id": 3224354488, "lat": 12.3112499, "lon": 76.645104}, {"type": "node", "id": 3224354489, "lat": 12.3112842, "lon": 76.6449445}, {"type": "node", "id": 3224354490, "lat": 12.311449, "lon": 76.6449817}, {"type": "node", "id": 3224354491, "lat": 12.3114613, "lon": 76.6449246}, {"type": "node", "id": 3224354492, "lat": 12.3115381, "lon": 76.6449419}, {"type": "node", "id": 3224354493, "lat": 12.3115275, "lon": 76.6449915}, {"type": "node", "id": 3390879641, "lat": 12.3093019, "lon": 76.6583321}, {"type": "node", "id": 3390879642, "lat": 12.3088616, "lon": 76.6582624}, {"type": "node", "id": 3390879643, "lat": 12.308804, "lon": 76.6589276}, {"type": "node", "id": 3390879644, "lat": 12.3092416, "lon": 76.658949}, {"type": "node", "id": 3408363308, "lat": 12.308918, "lon": 76.6563983}, {"type": "node", "id": 3408363309, "lat": 12.3089398, "lon": 76.6562389}, {"type": "node", "id": 3408363310, "lat": 12.3090981, "lon": 76.656424}, {"type": "node", "id": 3408363311, "lat": 12.3091199, "lon": 76.6562646}, {"type": "node", "id": 3666690950, "lat": 12.3121132, "lon": 76.6449845}, {"type": "node", "id": 3666690951, "lat": 12.3120559, "lon": 76.6453043}, {"type": "node", "id": 3666690952, "lat": 12.3117417, "lon": 76.6452453}, {"type": "node", "id": 3666690953, "lat": 12.311799, "lon": 76.6449255}, {"type": "node", "id": 3666690954, "lat": 12.3124146, "lon": 76.6450181}, {"type": "node", "id": 3666690955, "lat": 12.3124027, "lon": 76.6450804}, {"type": "node", "id": 3666690956, "lat": 12.3125379, "lon": 76.6451075}, {"type": "node", "id": 3666690957, "lat": 12.3125152, "lon": 76.6452262}, {"type": "node", "id": 3666690958, "lat": 12.3124774, "lon": 76.6452186}, {"type": "node", "id": 3666690959, "lat": 12.3124832, "lon": 76.6451881}, {"type": "node", "id": 3666690960, "lat": 12.3122097, "lon": 76.6451334}, {"type": "node", "id": 3666690961, "lat": 12.3122058, "lon": 76.6451539}, {"type": "node", "id": 3666690962, "lat": 12.3121664, "lon": 76.645146}, {"type": "node", "id": 3666690963, "lat": 12.3121894, "lon": 76.6450255}, {"type": "node", "id": 3666690964, "lat": 12.3123315, "lon": 76.6450539}, {"type": "node", "id": 3666690965, "lat": 12.3123411, "lon": 76.6450034}, {"type": "node", "id": 4400995690, "lat": 12.3184352, "lon": 76.6630743, "tags": {"addr:city": "Mysore", "addr:housenumber": "3", "addr:postcode": "570007", "addr:street": "Abba Road", "internet_access": "wlan", "name": "Fortune JP Palace", "operator": "ITC", "phone": "1-800-102-2333", "rooms": "108", "smoking": "isolated", "stars": "4", "tourism": "hotel"}}, {"type": "node", "id": 4460010191, "lat": 12.3005288, "lon": 76.6401445, "tags": {"name": "Hotel Airlines", "name:en": "Hotel Airlines", "tourism": "hotel"}}, {"type": "node", "id": 4809187121, "lat": 12.3029882, "lon": 76.6636041, "tags": {"addr:housenumber": "853", "addr:postcode": "570010", "addr:street": "lokaranjan mahal road", "email": "dharamdarshanpalace@gmail.com", "internet_access": "wlan", "name": "Hotel Darshan Palace", "name:en": "Hotel Darshan Palace", "opening_hours": "24/7", "operator": "Dharam Prakash", "phone": "+919845442277", "tourism": "hotel", "website": "https://www.hoteldarshanpalace.com/"}}, {"type": "node", "id": 4848868923, "lat": 12.3060781, "lon": 76.6505589, "tags": {"addr:street": "Lakshmivilas Road", "name": "Iyengers Plaza", "name:en": "Iyengers Plaza", "phone": "08212439123", "tourism": "hotel"}}, {"type": "node", "id": 5038018222, "lat": 12.3110927, "lon": 76.6531514, "tags": {"addr:housenumber": "9/5", "addr:postcode": "570 001", "addr:street": "Hanumantha Rao Street", "email": "hotelmauryamysooru@gmail.com", "internet_access": "wlan", "name": "Hotel Maurya", "name:en": "Hotel Maurya", "name:fr": "Hotel Maurya", "phone": "+919945546714", "tourism": "hotel", "website": "http://www.hotelmauryamysore.com"}}, {"type": "node", "id": 5081389456, "lat": 12.320061, "lon": 76.65748, "tags": {"name": "Oyo Rooms", "tourism": "hotel"}}, {"type": "node", "id": 5081389457, "lat": 12.3203545, "lon": 76.6576087, "tags": {"air_conditioning": "no", "internet_access": "no", "tourism": "hotel"}}, {"type": "node", "id": 5172494420, "lat": 12.3116678, "lon": 76.6535881, "tags": {"name": "Samasth", "tourism": "hotel"}}, {"type": "node", "id": 5244267523, "lat": 12.3108923, "lon": 76.6575924, "tags": {"internet_access": "wlan", "name": "Mannars Deluxe Lodge", "phone": "+918212448344", "tourism": "hotel", "website": "https://mannarsresidency.com/"}}, {"type": "node", "id": 5363812983, "lat": 12.3187366, "lon": 76.6615253, "tags": {"name": "Hotel Sumudra Mysore", "tourism": "hotel"}}, {"type": "node", "id": 6117496107, "lat": 12.3180148, "lon": 76.6525783, "tags": {"name": "Hotel Hanumanthu Original 1930", "tourism": "hotel"}}, {"type": "node", "id": 6220049985, "lat": 12.3039903, "lon": 76.6506485, "tags": {"addr:housenumber": "369", "addr:street": "Cheluvamba street", "name": "Kaveri", "name:en": "Hotel Kaveri Mysuru", "name:kn": "\u0c95\u0cbe\u0cb5\u0cc7\u0cb0\u0cbf", "tourism": "hotel"}}, {"type": "node", "id": 6289226685, "lat": 12.3120033, "lon": 76.6526219, "tags": {"name": "Bhagyalakshmi Deluxe Hotel", "tourism": "hotel"}}, {"type": "node", "id": 7096720185, "lat": 12.3175271, "lon": 76.6591652, "tags": {"name": "Hotel Preethi International", "tourism": "hotel"}}, {"type": "node", "id": 8196822513, "lat": 12.3047814, "lon": 76.6437474, "tags": {"addr:full": "No 365, Jhansi Rani Lakshmi Bai Rd, Subbarayanakere, Chamrajpura, Mysuru, Karnataka", "addr:state": "Karnataka", "name": "Hotel Maharaja", "name:kn": "\u0cae\u0cb9\u0cbe\u0cb0\u0cbe\u0c9c", "tourism": "hotel"}}, {"type": "node", "id": 8196824673, "lat": 12.296628, "lon": 76.65178, "tags": {"addr:full": "Thyagaraja Rd, Agrahara, Rahmania Mohalla, Mysuru, Karnataka", "addr:state": "Karnataka", "name": "Royal Lodge", "tourism": "hotel"}}, {"type": "node", "id": 8196826722, "lat": 12.3078766, "lon": 76.6454161, "tags": {"addr:full": "Ideal Jawa school, D-9, Krishna Vilas Rd, Near Rotary, Chamrajpura, Mysuru, Karnataka", "addr:state": "Karnataka", "name": "Hotel Adeline Mysore", "tourism": "hotel"}}, {"type": "node", "id": 10267012210, "lat": 12.3140591, "lon": 76.6589244, "tags": {"fixme": "lodge tag", "name": "Ayodhya Lodge", "tourism": "hotel"}}, {"type": "node", "id": 12012848807, "lat": 12.3112926, "lon": 76.6495943, "tags": {"name": "Advaitha residency", "tourism": "hotel"}}, {"type": "node", "id": 12876957232, "lat": 12.3117993, "lon": 76.6432866, "tags": {"check_date": "2025-05-31", "internet_access": "wlan", "internet_access:fee": "customers", "name": "Southern Star", "name:kn": "\u0cb8\u0ca6\u0cb0\u0ccd\u0ca8\u0ccd\u200c \u0cb8\u0ccd\u0c9f\u0cbe\u0cb0\u0ccd", "payment:cash": "yes", "payment:credit_cards": "yes", "payment:debit_cards": "yes", "tourism": "hotel", "wheelchair": "limited"}}, {"type": "way", "id": 193439985, "nodes": [2039590845, 2039590882, 2039590877, 2039590916, 2039590890, 2039590845], "tags": {"addr:city": "Mysore", "addr:housenumber": "3", "addr:postcode": "570010", "addr:street": "Nazarabad Main Road", "tourism": "hotel"}}, {"type": "way", "id": 316324081, "nodes": [3224354484, 3224354485, 3224354486, 3224354487, 3224354488, 3224354489, 3224354490, 3224354491, 3224354492, 3224354493, 3224354484], "tags": {"addr:city": "Mysuru", "addr:street": "Jhansi Lakshmibai Road", "building": "yes", "name": "King's Kourt", "name:kn": "\u0c95\u0cbf\u0c82\u0c97\u0ccd\u0cb8\u0ccd \u0c95\u0ccb\u0cb0\u0ccd\u0c9f\u0ccd", "tourism": "hotel"}}, {"type": "way", "id": 331985450, "nodes": [3390879641, 3390879642, 3390879643, 3390879644, 3390879641], "tags": {"building": "yes", "name": "Hotel Maharaja", "name:kn": "\u0cae\u0cb9\u0cbe\u0cb0\u0cbe\u0c9c", "tourism": "hotel"}}, {"type": "way", "id": 333762380, "nodes": [3408363308, 3408363309, 3408363311, 3408363310, 3408363308], "tags": {"addr:city": "Mysuru", "addr:country": "IN", "addr:postcode": "570001", "addr:street": "Sri Harsha Road", "building": "yes", "email": "viceroymys@dataone.in", "fax": "0821-2433391", "name": "Hotel Viceroy", "name:kn": "\u0cb5\u0cc8\u0cb8\u0ccd\u0cb0\u0cbe\u0caf\u0ccd", "operator": "PSS Hotels Pvt Ltd", "phone": "0821-2424001", "phone2": "0821-2428001", "tourism": "hotel", "website": "https://www.rpsshotels.com/"}}, {"type": "way", "id": 362341935, "nodes": [3666690950, 3666690951, 3666690952, 3666690953, 3666690950], "tags": {"addr:city": "Mysuru", "addr:street": "Jhansi Lakshmibai Road", "building": "yes", "name": "Mayura Yatri Nivas", "name:kn": "\u0cae\u0caf\u0cc2\u0cb0 \u0caf\u0cbe\u0ca4\u0ccd\u0cb0\u0cbf \u0ca8\u0cbf\u0cb5\u0cbe\u0cb8", "operator": "KSTDC", "tourism": "hotel"}}, {"type": "way", "id": 362341936, "nodes": [3666690954, 3666690955, 3666690956, 3666690957, 3666690958, 3666690959, 3666690960, 3666690961, 3666690962, 3666690963, 3666690964, 3666690965, 3666690954], "tags": {"addr:city": "Mysuru", "addr:street": "Jhansi Lakshmibai Road", "building": "yes", "name": "Hotel Mayura Hoysala", "name:kn": "\u0cae\u0caf\u0cc2\u0cb0 \u0cb9\u0cca\u0caf\u0ccd\u0cb8\u0cb3", "operator": "KSTDC", "tourism": "hotel"}}]}