{"version": 0.6, "generator": "Overpass API 0.7.62.8 e802775f", "osm3s": {"timestamp_osm_base": "2025-11-29T05:52:52Z", "copyright": "The data included in this document is from www.openstreetmap.org. The data is made available under ODbL."}, "elements": [{"type": "node", "id": 1636846799, "lat": 12.2955923, "lon": 76.6419261, "tags": {"addr:postcode": "570001", "addr:street": "Ambedkar Road", "alt_name": "Mystore", "int_name": "Mystore", "name": "Mystore", "old_name": "Mystore", "shop": "supermarket"}}, {"type": "node", "id": 2233907044, "lat": 12.3121963, "lon": 76.6585251, "tags": {"addr:city": "Mysore", "addr:country": "IN", "addr:state": "KA", "name": "Reliance Mart", "shop": "supermarket"}}, {"type": "node", "id": 3224353375, "lat": 12.3111375, "lon": 76.6476812}, {"type": "node", "id": 3224353376, "lat": 12.3110893, "lon": 76.6480604}, {"type": "node", "id": 3224353377, "lat": 12.3108344, "lon": 76.6480265}, {"type": "node", "id": 3224353378, "lat": 12.3108827, "lon": 76.6476473}, {"type": "node", "id": 3564755093, "lat": 12.3009367, "lon": 76.6422262}, {"type": "node", "id": 3564755095, "lat": 12.3008422, "lon": 76.6427943}, {"type": "node", "id": 3564755096, "lat": 12.3004738, "lon": 76.6427314}, {"type": "node", "id": 3564755097, "lat": 12.3005517, "lon": 76.6421754}, {"type": "way", "id": 316323962, "nodes": [3224353375, 3224353376, 3224353377, 3224353378, 3224353375], "tags": {"addr:city": "Mysuru", "addr:street": "Narayana Shastri Road", "branch": "Mega Store", "brand": "More", "brand:wikidata": "Q6910891", "building": "yes", "name": "More", "name:kn": "\u0cae\u0ccb\u0cb0\u0ccd", "shop": "supermarket"}}, {"type": "way", "id": 350708457, "nodes": [3564755093, 3564755095, 3564755096, 3564755097, 3564755093], "tags": {"addr:city": "Mysuru", "addr:street": "Jhansi Lakshmibai Road", "building": "yes", "name": "Big Bazaar", "name:kn": "\u0cac\u0cbf\u0c97\u0ccd \u0cac\u0c9c\u0cbe\u0cb0\u0ccd", "shop": "supermarket"}}]}