{"version": 0.6, "generator": "Overpass API 0.7.62.8 e802775f", "osm3s": {"timestamp_osm_base": "2025-11-29T19:22:36Z", "copyright": "The data included in this document is from www.openstreetmap.org. The data is made available under ODbL."}, "elements": [{"type": "node", "id": 347036704, "lat": 19.0573435, "lon": 72.8276847, "tags": {"addr:city": "Mumbai", "addr:postcode": "400050", "addr:street": "St. Dominic Street", "amenity": "cafe", "cuisine": "sandwich;burger", "name": "Cafe Andora", "opening_hours": "Mo-Su 09:00-21:00"}}, {"type": "node", "id": 347145587, "lat": 19.0546237, "lon": 72.8264717, "tags": {"amenity": "cafe", "created_by": "Potlatch 0.10f", "name": "A1 Bakery"}}, {"type": "node", "id": 2131895195, "lat": 19.029206, "lon": 72.8382235, "tags": {"amenity": "cafe", "brand": "Cafe Coffee Day", "brand:wikidata": "Q5017235", "brand:wikipedia": "en:Caf\u00e9 Coffee Day", "cuisine": "coffee_shop", "name": "Cafe Coffee Day", "takeaway": "yes"}}, {"type": "node", "id": 2610565997, "lat": 19.0592055, "lon": 72.8294744, "tags": {"addr:city": "Mumbai", "addr:postcode": "400050", "addr:street": "Manuel Gonsalves Road", "amenity": "cafe", "name": "I Think Fitness Cafe"}}, {"type": "node", "id": 2680338196, "lat": 19.0713519, "lon": 72.8241542, "tags": {"amenity": "cafe", "name": "Guilt Trip"}}, {"type": "node", "id": 2719044956, "lat": 19.0752035, "lon": 72.8259183, "tags": {"amenity": "cafe", "name": "Modern Tea House"}}, {"type": "node", "id": 2930683935, "lat": 19.0597612, "lon": 72.9103571, "tags": {"addr:city": "Mumbai", "addr:postcode": "400074", "addr:street": "N G Acharya Marg (Chembur Govandi Road)", "amenity": "cafe", "name": "Cold Cafee"}}, {"type": "node", "id": 3048179689, "lat": 19.0383759, "lon": 72.8534092, "tags": {"addr:city": "Mumbai", "addr:street": "60 Feet Road", "amenity": "cafe", "cuisine": "indian", "internet_access": "no", "name": "Juice Center", "smoking": "no"}}, {"type": "node", "id": 3202768659, "lat": 19.0644019, "lon": 72.9018073, "tags": {"addr:city": "Mumbai", "addr:postcode": "400089", "addr:street": "P.L. Lokhande Marg", "amenity": "cafe", "cuisine": "regional", "internet_access": "wlan", "name": "mahatma nagar", "smoking": "no"}}, {"type": "node", "id": 3204516266, "lat": 19.0420352, "lon": 72.9164383, "tags": {"amenity": "cafe", "name": "karan cafe"}}, {"type": "node", "id": 3204881746, "lat": 19.0603312, "lon": 72.9105858, "tags": {"amenity": "cafe", "name": "Ganesh Tea Center"}}, {"type": "node", "id": 3205968767, "lat": 19.0633635, "lon": 72.9040535, "tags": {"amenity": "cafe", "name": "ccd"}}, {"type": "node", "id": 3213755719, "lat": 19.0666508, "lon": 72.9104239, "tags": {"amenity": "cafe", "name": "Ram cafe"}}, {"type": "node", "id": 3214503592, "lat": 19.0518758, "lon": 72.9007969, "tags": {"addr:city": "Chembur, Mumbai", "addr:postcode": "400071", "addr:street": "V N Purav Marg", "amenity": "cafe", "brand": "Barista", "brand:wikidata": "Q644735", "cuisine": "coffee_shop", "internet_access": "no", "name": "Barista", "smoking": "outside", "takeaway": "yes", "website": "https://www.barista.co.in/"}}, {"type": "node", "id": 3216971091, "lat": 19.0993371, "lon": 72.8737906, "tags": {"amenity": "cafe", "brand": "Cafe Coffee Day", "brand:wikidata": "Q5017235", "cuisine": "coffee_shop", "name": "Cafe Coffee Day", "takeaway": "yes"}}, {"type": "node", "id": 3417207117, "lat": 19.0657265, "lon": 72.8247137, "tags": {"amenity": "cafe", "cuisine": "regional organic", "name": "the yoga house"}}, {"type": "node", "id": 3483943994, "lat": 19.0559886, "lon": 72.9007064, "tags": {"amenity": "cafe", "name": "Tea Ville Cafe"}}, {"type": "node", "id": 3524664707, "lat": 19.0678286, "lon": 72.8689535, "tags": {"addr:city": "Mumbai", "addr:housenumber": "C 57", "addr:postcode": "400051", "addr:street": "Bandra Kurla Complex Road", "amenity": "cafe", "cuisine": "regional", "internet_access": "yes", "name": "Pondichery Cafe, Sofitel Hotel"}}, {"type": "node", "id": 3597725856, "lat": 19.0504445, "lon": 72.8913069}, {"type": "node", "id": 3597725862, "lat": 19.0504837, "lon": 72.8913721}, {"type": "node", "id": 3597725871, "lat": 19.0505144, "lon": 72.8912598}, {"type": "node", "id": 3597725879, "lat": 19.0505537, "lon": 72.891325}, {"type": "node", "id": 3645808418, "lat": 19.0505393, "lon": 72.8272596, "tags": {"addr:city": "Mumbai", "addr:postcode": "400050", "addr:street": "Chapel Road", "amenity": "cafe", "brand": "Starbucks", "brand:pa": "\u0a38\u0a1f\u0a3e\u0a30\u0a2c\u0a15\u0a38", "brand:ur": "\u0627\u0633\u0679\u0627\u0631\u0628\u06a9\u0633", "brand:wikidata": "Q37158", "brand:wikipedia": "en:Starbucks", "cuisine": "coffee_shop", "name": "Starbucks", "name:pa": "\u0a38\u0a1f\u0a3e\u0a30\u0a2c\u0a15\u0a38", "name:ur": "\u0627\u0633\u0679\u0627\u0631\u0628\u06a9\u0633", "official_name": "Starbucks Coffee", "official_name:pa": "\u0a38\u0a1f\u0a3e\u0a30\u0a2c\u0a15\u0a38 \u0a15\u0a4c\u0a2b\u0a40", "official_name:ur": "\u0627\u0633\u0679\u0627\u0631\u0628\u06a9\u0633 \u06a9\u0627\u0641\u06cc", "opening_hours": "Mo-Su 07:00-01:00", "takeaway": "yes"}}, {"type": "node", "id": 3803560476, "lat": 19.0453775, "lon": 72.9139348, "tags": {"amenity": "cafe", "cuisine": "regional", "internet_access": "no", "name": "Anna Tapari", "smoking": "separated"}}, {"type": "node", "id": 3816244892, "lat": 19.0984956, "lon": 72.8743807, "tags": {"amenity": "cafe"}}, {"type": "node", "id": 3816244893, "lat": 19.0985209, "lon": 72.8747294, "tags": {"amenity": "cafe"}}, {"type": "node", "id": 3838398804, "lat": 19.0631425, "lon": 72.8248491, "tags": {"addr:city": "Mumbai", "addr:housenumber": "30", "addr:postcode": "400050", "addr:street": "Pali Mala Road", "addr:suburb": "Bandra West", "amenity": "cafe", "internet_access": "wlan", "name": "The Bagel Shop", "opening_hours": "Mo-Su 09:00-22:30", "phone": "+91 22 2605 0178", "smoking": "outside", "website": "http://thebagelshop.in"}}, {"type": "node", "id": 4345562396, "lat": 19.0551796, "lon": 72.8359562, "tags": {"addr:city": "Bandra, Mumbai", "addr:postcode": "400050", "addr:street": "Ramdas Naik Road", "amenity": "cafe", "name": "Goodluck Wines", "shop": "alcohol"}}, {"type": "node", "id": 4674815089, "lat": 19.0282957, "lon": 72.8411776, "tags": {"amenity": "cafe", "cuisine": "pizza", "internet_access": "no", "name": "cafe trofima", "name:en": "Cafe TroFima", "opening_hours": "Mo-Su 10:00-22:00"}}, {"type": "node", "id": 4736442881, "lat": 19.0486305, "lon": 72.825887, "tags": {"amenity": "cafe", "name": "Morii Cafe", "name:en": "Morii Cafe", "name:mr": "\u092e\u094b\u0930\u0940 \u0915\u0945\u092b\u0947"}}, {"type": "node", "id": 4736444239, "lat": 19.0485691, "lon": 72.8258748, "tags": {"amenity": "cafe", "name": "Taj Mahal Tea House"}}, {"type": "node", "id": 4753990521, "lat": 19.0293039, "lon": 72.8379984, "tags": {"amenity": "cafe", "brand": "Barista", "brand:wikidata": "Q644735", "brand:wikipedia": "en:Barista (company)", "cuisine": "coffee_shop", "name": "Barista", "name:en": "Barista", "takeaway": "yes"}}, {"type": "node", "id": 4821879686, "lat": 19.0390227, "lon": 72.8428163, "tags": {"amenity": "cafe", "name": "Irani Cafe"}}, {"type": "node", "id": 4848782875, "lat": 19.0408811, "lon": 72.8461003, "tags": {"amenity": "cafe", "brand": "Third Wave Coffee Roasters", "brand:wikidata": "Q7785004", "cuisine": "coffee_shop", "delivery": "yes", "indoor_seating": "yes", "name": "Third Wave Coffee Roasters", "outdoor_seating": "no", "power_supply": "yes", "takeaway": "yes"}}, {"type": "node", "id": 5238414919, "lat": 19.0504596, "lon": 72.82669, "tags": {"addr:city": "Mumbai", "addr:postcode": "400050", "addr:street": "Chapel Road", "amenity": "cafe", "name": "Basque by Breve", "name:en": "Basque by Breve", "phone": "02226487806", "website": "https://www.presstoindia.com/"}}, {"type": "node", "id": 5246971908, "lat": 19.0495544, "lon": 72.8298692, "tags": {"amenity": "cafe", "name": "Candies", "phone": "02226423512", "website": "http://www.candiescafe.com"}}, {"type": "node", "id": 5276935422, "lat": 19.0964751, "lon": 72.8744612, "tags": {"amenity": "cafe", "name": "Irani Cafe"}}, {"type": "node", "id": 5277435362, "lat": 19.0631056, "lon": 72.8249753, "tags": {"addr:city": "Mumbai", "addr:housenumber": "27/A", "addr:postcode": "400050", "addr:street": "Pali Mala Road", "addr:suburb": "Bandra West", "amenity": "cafe", "diet:vegan": "yes", "diet:vegetarian": "only", "name": "Seeds of Life", "old_name": "The Bhookha Beirdo\u2122", "opening_hours": "Mo-Su 11:00-23:00", "outdoor_seating": "no", "phone": "+91 98924 29167"}}, {"type": "node", "id": 5281312529, "lat": 19.0604691, "lon": 72.8243537, "tags": {"addr:city": "Mumbai", "addr:postcode": "400050", "addr:street": "New Kantwadi Road", "addr:suburb": "Bandra West", "amenity": "cafe", "brand": "Blue Tokai Coffee Roasters", "brand:wikidata": "Q124374362", "cuisine": "coffee_shop", "delivery": "yes", "description": "Shop No. 1 Mayflower Building \n33 New Kant Wadi Lane, Perry Road,\nBandra West, Mumbai, Maharashtra 400050 \n+91 22 3014 9700", "internet_access": "wlan", "name": "Blue Tokai Coffee Roasters", "opening_hours": "Mo-Su 09:00-22:00", "outdoor_seating": "no", "phone": "+91 90825 66400", "smoking": "no", "takeaway": "yes", "website": "https://bluetokaicoffee.com", "wheelchair": "no"}}, {"type": "node", "id": 5464620222, "lat": 19.0241428, "lon": 72.8395928, "tags": {"amenity": "cafe"}}, {"type": "node", "id": 5506320531, "lat": 19.0646784, "lon": 72.8608743, "tags": {"amenity": "cafe", "brand": "Cafe Coffee Day", "brand:wikidata": "Q5017235", "brand:wikipedia": "en:Caf\u00e9 Coffee Day", "cuisine": "coffee_shop", "name": "Cafe Coffee Day", "takeaway": "yes"}}, {"type": "node", "id": 5696882729, "lat": 19.0276804, "lon": 72.852878, "tags": {"addr:street": "Telang Road", "amenity": "cafe", "cuisine": "coffee_shop", "name:en": "Anna Coffee", "opening_hours": "Mo-Su 20:00-12:00"}}, {"type": "node", "id": 6322320328, "lat": 19.0744165, "lon": 72.9052818, "tags": {"amenity": "cafe", "brand": "Cafe Coffee Day", "brand:wikidata": "Q5017235", "brand:wikipedia": "en:Caf\u00e9 Coffee Day", "name": "Cafe Coffee Day"}}, {"type": "node", "id": 6383339473, "lat": 19.0214663, "lon": 72.8568552, "tags": {"amenity": "cafe", "brand": "Cafe Coffee Day", "brand:wikidata": "Q5017235", "cuisine": "coffee_shop", "name": "Cafe Coffee Day", "takeaway": "yes"}}, {"type": "node", "id": 6534519657, "lat": 19.0419393, "lon": 72.8611885, "tags": {"addr:city": "Mumbai", "addr:housenumber": "New CHS ltd, 12A/1", "addr:postcode": "400022", "addr:street": "rl kelkar rd", "amenity": "cafe", "name": "Cafe Instaa", "outdoor_seating": "yes", "wheelchair": "yes"}}, {"type": "node", "id": 6960777256, "lat": 19.0609825, "lon": 72.8268992, "tags": {"addr:city": "Mumbai", "addr:postcode": "400050", "amenity": "cafe", "name": "Candies", "name:en": "Candies", "outdoor_seating": "no"}}, {"type": "node", "id": 6984478185, "lat": 19.0316071, "lon": 72.8386046, "tags": {"amenity": "cafe", "name:en": "The chocolate heaven"}}, {"type": "node", "id": 7047840108, "lat": 19.0731837, "lon": 72.8263765, "tags": {"addr:city": "Mumbai", "addr:housenumber": "66", "addr:street": "Chuim Village Road", "amenity": "cafe", "name": "KCROASTERS - By Koinonia", "opening_hours": "Mo-Su 08:00-21:30", "phone": "+91-9136650277", "website": "https://kcroasters.com/"}}, {"type": "node", "id": 7202827018, "lat": 19.0790665, "lon": 72.9057221, "tags": {"addr:city": "vidyavihar", "addr:district": "mumbai", "addr:postcode": "400077", "addr:street": "Tilak Road", "amenity": "cafe", "brand": "Cafe Coffee Day", "brand:wikidata": "Q5017235", "brand:wikipedia": "en:Caf\u00e9 Coffee Day", "cuisine": "coffee_shop", "name": "Cafe Coffee Day", "opening_hours": "Mo-Su 09:00-21:00", "takeaway": "yes"}}, {"type": "node", "id": 7320270187, "lat": 19.0598107, "lon": 72.8323078, "tags": {"amenity": "cafe", "brand": "Starbucks", "brand:pa": "\u0a38\u0a1f\u0a3e\u0a30\u0a2c\u0a15\u0a38", "brand:ur": "\u0627\u0633\u0679\u0627\u0631\u0628\u06a9\u0633", "brand:wikidata": "Q37158", "brand:wikipedia": "en:Starbucks", "cuisine": "coffee_shop", "name": "Starbucks", "name:pa": "\u0a38\u0a1f\u0a3e\u0a30\u0a2c\u0a15\u0a38", "name:ur": "\u0627\u0633\u0679\u0627\u0631\u0628\u06a9\u0633", "official_name": "Starbucks Coffee", "official_name:pa": "\u0a38\u0a1f\u0a3e\u0a30\u0a2c\u0a15\u0a38 \u0a15\u0a4c\u0a2b\u0a40", "official_name:ur": "\u0627\u0633\u0679\u0627\u0631\u0628\u06a9\u0633 \u06a9\u0627\u0641\u06cc", "takeaway": "yes"}}, {"type": "node", "id": 7320270199, "lat": 19.0655751, "lon": 72.8332064, "tags": {"amenity": "cafe", "brand": "Starbucks", "brand:pa": "\u0a38\u0a1f\u0a3e\u0a30\u0a2c\u0a15\u0a38", "brand:ur": "\u0627\u0633\u0679\u0627\u0631\u0628\u06a9\u0633", "brand:wikidata": "Q37158", "brand:wikipedia": "en:Starbucks", "cuisine": "coffee_shop", "name": "Starbucks", "name:pa": "\u0a38\u0a1f\u0a3e\u0a30\u0a2c\u0a15\u0a38", "name:ur": "\u0627\u0633\u0679\u0627\u0631\u0628\u06a9\u0633", "official_name": "Starbucks Coffee", "official_name:pa": "\u0a38\u0a1f\u0a3e\u0a30\u0a2c\u0a15\u0a38 \u0a15\u0a4c\u0a2b\u0a40", "official_name:ur": "\u0627\u0633\u0679\u0627\u0631\u0628\u06a9\u0633 \u06a9\u0627\u0641\u06cc", "takeaway": "yes"}}, {"type": "node", "id": 7701817248, "lat": 19.0452439, "lon": 72.8474814}, {"type": "node", "id": 7701817249, "lat": 19.0452509, "lon": 72.8475451}, {"type": "node", "id": 7701817250, "lat": 19.0451462, "lon": 72.8475606}, {"type": "node", "id": 7701817251, "lat": 19.0451519, "lon": 72.8476189}, {"type": "node", "id": 7701817252, "lat": 19.0450872, "lon": 72.8476216}, {"type": "node", "id": 7701817253, "lat": 19.0450815, "lon": 72.8475089}, {"type": "node", "id": 7701984716, "lat": 19.0454467, "lon": 72.84705}, {"type": "node", "id": 7701984717, "lat": 19.0453616, "lon": 72.8470595}, {"type": "node", "id": 7701984718, "lat": 19.0453741, "lon": 72.8471743}, {"type": "node", "id": 7701984719, "lat": 19.0454664, "lon": 72.8471629}, {"type": "node", "id": 8451839399, "lat": 19.0593648, "lon": 72.8294628, "tags": {"addr:city": "Bandra, Mumbai", "addr:housenumber": "Unit 4, Carlton Court, Turner Road", "addr:postcode": "400050", "addr:street": "Manuel Gonsalves Road", "air_conditioning": "yes", "amenity": "cafe", "brand": "Chaayos", "brand:wikidata": "Q117235235", "cuisine": "tea", "internet_access": "yes", "name": "Chaayos", "opening_hours": "07:00-23:00", "opening_hours:covid19": "Hours may differ", "outdoor_seating": "yes", "phone": "073049 91343", "takeaway": "yes"}}, {"type": "node", "id": 9024163317, "lat": 19.0318344, "lon": 72.8390596, "tags": {"amenity": "cafe", "name:en": "Coffee by Di Bella"}}, {"type": "node", "id": 9055082817, "lat": 19.0265107, "lon": 72.8454052}, {"type": "node", "id": 9055082818, "lat": 19.0264745, "lon": 72.8455222}, {"type": "node", "id": 9055082819, "lat": 19.026737, "lon": 72.8455927}, {"type": "node", "id": 9055082820, "lat": 19.0267655, "lon": 72.8454629}, {"type": "node", "id": 9333636644, "lat": 19.0144176, "lon": 72.8257335, "tags": {"amenity": "cafe", "name": "Cafe Waah Maratha", "opening_hours": "Th-Wed 00:00-12:00", "outdoor_seating": "no"}}, {"type": "node", "id": 9333655068, "lat": 19.0126947, "lon": 72.8236034, "tags": {"amenity": "cafe", "brand": "Starbucks", "brand:pa": "\u0a38\u0a1f\u0a3e\u0a30\u0a2c\u0a15\u0a38", "brand:ur": "\u0627\u0633\u0679\u0627\u0631\u0628\u06a9\u0633", "brand:wikidata": "Q37158", "brand:wikipedia": "en:Starbucks", "cuisine": "coffee_shop", "name": "Starbucks", "name:pa": "\u0a38\u0a1f\u0a3e\u0a30\u0a2c\u0a15\u0a38", "name:ur": "\u0627\u0633\u0679\u0627\u0631\u0628\u06a9\u0633", "official_name": "Starbucks Coffee", "official_name:pa": "\u0a38\u0a1f\u0a3e\u0a30\u0a2c\u0a15\u0a38 \u0a15\u0a4c\u0a2b\u0a40", "official_name:ur": "\u0627\u0633\u0679\u0627\u0631\u0628\u06a9\u0633 \u06a9\u0627\u0641\u06cc", "takeaway": "yes"}}, {"type": "node", "id": 9545568397, "lat": 19.045515, "lon": 72.8947806, "tags": {"amenity": "cafe", "currency:BCH": "yes", "name": "VIG Refreshment"}}, {"type": "node", "id": 9655548117, "lat": 19.0614113, "lon": 72.8996735, "tags": {"amenity": "cafe", "internet_access": "wlan", "name:en": "Le Cafe"}}, {"type": "node", "id": 9935357958, "lat": 19.0685728, "lon": 72.8353475, "tags": {"addr:city": "Mumbai", "addr:housenumber": "Vasu Bhavan Building", "addr:neighbourhood": "Khar West", "addr:postcode": "400052", "addr:state": "Maharashtra", "addr:street": "11th Road", "amenity": "cafe", "cuisine": "indian", "name": "Greenbox Caffe"}}, {"type": "node", "id": 10259441805, "lat": 19.0609693, "lon": 72.8266539, "tags": {"addr:city": "Bandra, Mumbai", "addr:postcode": "400050", "addr:street": "D'Monte Park Road Extension", "air_conditioning": "yes", "amenity": "cafe", "cuisine": "italian;coffee_shop;mexican", "delivery": "yes", "internet_access": "wlan", "internet_access:fee": "customers", "name": "vidhi'", "opening_hours": "Mo-Su 11:00-23:00", "outdoor_seating": "yes", "payment:cards": "yes", "payment:cash": "yes", "payment:credit_cards": "yes", "payment:debit_cards": "yes", "payment:google_pay": "yes", "payment:mastercard": "yes", "smoking": "no", "takeaway": "yes", "website": "https:\\\\vidhi'.com"}}, {"type": "node", "id": 10277894236, "lat": 19.0673777, "lon": 72.8240785}, {"type": "node", "id": 10277894237, "lat": 19.0674056, "lon": 72.8241107}, {"type": "node", "id": 10277894238, "lat": 19.0674791, "lon": 72.8240543}, {"type": "node", "id": 10277894239, "lat": 19.0673574, "lon": 72.8239202}, {"type": "node", "id": 10277894240, "lat": 19.067289, "lon": 72.8241616}, {"type": "node", "id": 10277894241, "lat": 19.0673802, "lon": 72.824167}, {"type": "node", "id": 10277894242, "lat": 19.0674614, "lon": 72.8241509}, {"type": "node", "id": 10277894243, "lat": 19.0673346, "lon": 72.824108}, {"type": "node", "id": 10694358136, "lat": 19.0636814, "lon": 72.8293629, "tags": {"amenity": "cafe", "check_date": "2023-02-26", "diet:vegan": "yes", "diet:vegetarian": "yes", "name": "Greenr Cafe", "website": "https://thrivenow.in/greenr-cafe-all-locations"}}, {"type": "node", "id": 10779234897, "lat": 19.060721, "lon": 72.8646836, "tags": {"amenity": "cafe", "brand": "Chaayos", "brand:wikidata": "Q117235235", "cuisine": "tea", "name": "Chaayos", "takeaway": "yes"}}, {"type": "node", "id": 10779234898, "lat": 19.0609137, "lon": 72.8646702, "tags": {"amenity": "cafe", "brand": "Starbucks", "brand:wikidata": "Q37158", "cuisine": "coffee_shop", "name": "Starbucks", "official_name": "Starbucks Coffee", "takeaway": "yes"}}, {"type": "node", "id": 11069678659, "lat": 19.0917053, "lon": 72.8567979, "tags": {"amenity": "cafe", "name": "Cafeccino"}}, {"type": "node", "id": 11069702460, "lat": 19.057476, "lon": 72.8481424, "tags": {"access": "private", "air_conditioning": "yes", "amenity": "cafe", "cuisine": "sandwich;pizza;coffee_shop;burger", "level": "1", "name": "Cafe Terrace at Night", "name:en": "Cafe Terrace at Night", "outdoor_seating": "no", "private": "members"}}, {"type": "node", "id": 11207580746, "lat": 19.0952705, "lon": 72.8764398, "tags": {"amenity": "cafe", "brand": "Costa", "brand:wikidata": "Q608845", "cuisine": "coffee_shop", "name": "Costa", "takeaway": "yes"}}, {"type": "node", "id": 11257204477, "lat": 19.0821532, "lon": 72.9099141, "tags": {"addr:city": "Mumbai", "addr:district": "Mumbai", "addr:postcode": "400075", "addr:street": "Hingwala Lane", "amenity": "cafe", "cuisine": "indian", "name": "POPULAR CAFE", "opening_hours": "Tu-Sa 10:00-19:00"}}, {"type": "node", "id": 11276749958, "lat": 19.0531651, "lon": 72.8300804, "tags": {"amenity": "cafe", "name": "Subko Speciality Coffee Roasters and Bakehouse", "name:en": "Subko Speciality Coffee Roasters and Bakehouse", "payment:credit_cards": "yes", "payment:debit_cards": "yes", "payment:upi": "yes"}}, {"type": "node", "id": 11277065879, "lat": 19.0825059, "lon": 72.8574319, "tags": {"addr:city": "Mumbai", "addr:district": "Mumbai", "addr:housenumber": "123", "addr:postcode": "400055", "addr:street": "Shivaji Nagar", "amenity": "cafe", "name": "My Little Tea Pot", "opening_hours": "Mo-Su 09:00-21:00"}}, {"type": "node", "id": 11295364150, "lat": 19.0563701, "lon": 72.8896149, "tags": {"amenity": "cafe", "name": "Cafe Coffee Day Express"}}, {"type": "node", "id": 11296371115, "lat": 19.0616434, "lon": 72.8288715, "tags": {"amenity": "cafe", "cuisine": "coffee_shop", "name": "Javaphile", "name:en": "Javaphile"}}, {"type": "node", "id": 11296371136, "lat": 19.0624117, "lon": 72.831025, "tags": {"amenity": "cafe", "name": "Cafe Bandra", "name:en": "Cafe Bandra"}}, {"type": "node", "id": 11298556869, "lat": 19.0605663, "lon": 72.824459, "tags": {"amenity": "cafe", "name": "Boojee Caf\u00e9", "name:en": "Boojee Caf\u00e9"}}, {"type": "node", "id": 11298556969, "lat": 19.0606201, "lon": 72.8244865, "tags": {"amenity": "cafe", "name": "Boojee Caf\u00e9", "name:en": "Boojee Caf\u00e9"}}, {"type": "node", "id": 11298617868, "lat": 19.0650907, "lon": 72.8296379, "tags": {"addr:city": "Mumbai", "addr:postcode": "400050", "addr:street": "Dr. BR Ambedkar Road", "amenity": "cafe", "name": "Ritual Daily Coffee", "name:en": "Ritual Daily Coffee"}}, {"type": "node", "id": 11298645329, "lat": 19.0653558, "lon": 72.832398, "tags": {"amenity": "cafe", "brand": "Tim Hortons", "brand:wikidata": "Q175106", "cuisine": "coffee_shop", "name": "Tim Hortons", "takeaway": "yes"}}, {"type": "node", "id": 11301585072, "lat": 19.0540462, "lon": 72.8268024, "tags": {"addr:city": "Mumbai", "addr:postcode": "400050", "addr:street": "Veronica Street", "air_conditioning": "yes", "amenity": "cafe", "email": "hello@veronicasbombay.com", "name": "Veronica\u2018s", "name:en": "Veronica\u2018s", "opening_hours": "Mo-Su 08:00-23:00", "outdoor_seating": "no", "phone": "+91 93729 81697", "website": "https://veronicasbombay.com/"}}, {"type": "node", "id": 11364283716, "lat": 19.063364, "lon": 72.8346934, "tags": {"amenity": "cafe", "cuisine": "coffee_shop", "name": "Bombay Coffee House", "name:en": "Bombay Coffee House"}}, {"type": "node", "id": 11365091490, "lat": 19.0508548, "lon": 72.8272673, "tags": {"amenity": "cafe", "brand": "Chaayos", "brand:wikidata": "Q117235235", "cuisine": "tea", "name": "Chaayos", "takeaway": "yes"}}, {"type": "node", "id": 11365091494, "lat": 19.050519, "lon": 72.8267783, "tags": {"amenity": "cafe", "name": "Method Contemporary Art & Treats", "name:en": "Method Contemporary Art & Treats"}}, {"type": "node", "id": 11372185924, "lat": 19.0988699, "lon": 72.827813, "tags": {"amenity": "cafe", "brand": "Chaayos", "brand:wikidata": "Q117235235", "cuisine": "tea", "name": "Chaayos", "takeaway": "yes"}}, {"type": "node", "id": 11372185930, "lat": 19.0991938, "lon": 72.8277678, "tags": {"amenity": "cafe", "name": "The Belgian Waffle Co.", "name:en": "The Belgian Waffle Co."}}, {"type": "node", "id": 11407490737, "lat": 19.0560511, "lon": 72.900704, "tags": {"amenity": "cafe"}}, {"type": "node", "id": 11430506423, "lat": 19.0766017, "lon": 72.9024205, "tags": {"addr:city": "Mumbai", "addr:district": "Mumbai", "addr:housenumber": "123", "addr:postcode": "400077", "addr:street": "Road Number 7", "amenity": "cafe", "cuisine": "german", "internet_access": "yes", "internet_access:fee": "yes", "name": "silverbeach", "opening_hours": "24/7"}}, {"type": "node", "id": 11432696946, "lat": 19.0794928, "lon": 72.8668387, "tags": {"amenity": "cafe", "name": "My Little Tea Pot"}}, {"type": "node", "id": 11449378650, "lat": 19.042883, "lon": 72.8644159, "tags": {"amenity": "cafe", "name": "Sugar Rushh Cafe"}}, {"type": "node", "id": 11451942459, "lat": 19.0252105, "lon": 72.8359486, "tags": {"amenity": "cafe", "brand": "Starbucks", "brand:wikidata": "Q37158", "cuisine": "coffee_shop", "name": "Starbucks", "official_name": "Starbucks Coffee", "takeaway": "yes"}}, {"type": "node", "id": 11452009154, "lat": 19.0853217, "lon": 72.8876582, "tags": {"amenity": "cafe", "brand": "Costa", "brand:wikidata": "Q608845", "cuisine": "coffee_shop", "name": "Costa", "shop": "coffee", "takeaway": "yes"}}, {"type": "node", "id": 11452014932, "lat": 19.0256439, "lon": 72.835739, "tags": {"amenity": "cafe", "brand": "Costa", "brand:wikidata": "Q608845", "cuisine": "coffee_shop", "name": "Costa", "takeaway": "yes"}}, {"type": "node", "id": 11482202270, "lat": 19.0705444, "lon": 72.8226323, "tags": {"amenity": "cafe", "name": "Coffee by Di Bella", "name:en": "Coffee by Di Bella"}}, {"type": "node", "id": 11482202276, "lat": 19.070678, "lon": 72.8227903, "tags": {"amenity": "cafe", "cuisine": "bubble_tea", "name": "Mongoose The Bubble Bar", "name:en": "Mongoose The Bubble Bar", "name:hi": "\u092e\u094b\u0902\u0917\u0941\u0938", "name:mr": "\u092e\u094b\u0902\u0917\u0941\u0938"}}, {"type": "node", "id": 11483543860, "lat": 19.0505565, "lon": 72.8265298, "tags": {"amenity": "cafe", "name": "Breve Cycling Cafe", "name:en": "Breve Cycling Cafe"}}, {"type": "node", "id": 11587668954, "lat": 19.0781157, "lon": 72.8671645, "tags": {"amenity": "cafe", "cuisine": "coffee_shop", "internet_access": "yes", "internet_access:fee": "customers", "name": "My Little Tea Pot", "opening_hours": "Mo-Su 09:00-21:00"}}, {"type": "node", "id": 11671956965, "lat": 19.0707397, "lon": 72.8224281, "tags": {"air_conditioning": "yes", "amenity": "cafe", "bar": "no", "drive_through": "no", "name": "The Library Cafe", "outdoor_seating": "yes"}}, {"type": "node", "id": 11846246267, "lat": 19.0611919, "lon": 72.826748, "tags": {"addr:city": "Mumbai", "addr:district": "MAHARASHTRA", "addr:housenumber": "5AA", "addr:postcode": "400050", "addr:street": "St. Andrews Road Extension", "amenity": "cafe", "internet_access": "wlan", "internet_access:fee": "no", "name": "DORANGOS (Instagram:-dorangos_comedy_events) Best Entertainment Mumbai", "opening_hours": "Mo-Su 09:00-21:00", "outdoor_seating": "yes", "phone": "+919920275894"}}, {"type": "node", "id": 11901183801, "lat": 19.0756716, "lon": 72.8317315, "tags": {"amenity": "cafe", "brand": "Starbucks", "brand:wikidata": "Q37158", "cuisine": "coffee_shop", "name": "Starbucks", "official_name": "Starbucks Coffee", "takeaway": "yes"}}, {"type": "node", "id": 12075203455, "lat": 19.095253, "lon": 72.8731217, "tags": {"air_conditioning": "yes", "amenity": "cafe", "brand": "Starbucks", "brand:wikidata": "Q37158", "cuisine": "coffee_shop", "level": "2", "name": "Starbucks", "official_name": "Starbucks Coffee", "outdoor_seating": "no", "takeaway": "yes", "wheelchair": "no"}}, {"type": "node", "id": 12185901900, "lat": 19.0262674, "lon": 72.8434222, "tags": {"amenity": "cafe", "cuisine": "south_indian_cuisine", "description": "South Indian food, tea ,coffee,cold drinks, etc are available", "loc_name": "Ramdas hotel", "name": "hotel Udipi Ramdas", "opening_hours": "Mo-Su 06:30-21:00", "source": "local knowledge"}}, {"type": "node", "id": 12192784798, "lat": 19.0629065, "lon": 72.8246987, "tags": {"amenity": "cafe", "cuisine": "japanese", "name": "Abokado", "name:en": "Abokado", "name:hi": "\u0905\u092c\u094b\u0915\u093e\u0921\u094b", "name:mr": "\u0905\u092c\u094b\u0915\u093e\u0921\u094b"}}, {"type": "node", "id": 12276974766, "lat": 19.0834589, "lon": 72.8441026}, {"type": "node", "id": 12276974767, "lat": 19.0835736, "lon": 72.8441111}, {"type": "node", "id": 12276974768, "lat": 19.0835817, "lon": 72.8439892}, {"type": "node", "id": 12276974769, "lat": 19.083467, "lon": 72.8439807}, {"type": "node", "id": 12307927827, "lat": 19.0515022, "lon": 72.8283281, "tags": {"amenity": "cafe", "name": "Retroz The Cafe", "name:en": "Retroz The Cafe", "name:mr": "\u0930\u0947\u091f\u094d\u0930\u094b\u091c \u0926 \u0915\u0945\u092b\u0947", "outdoor_seating": "no"}}, {"type": "node", "id": 12307927829, "lat": 19.052411, "lon": 72.8284969, "tags": {"amenity": "cafe", "cuisine": "japanese", "name": "Mokai", "name:en": "Mokai", "name:hi": "\u092e\u094b\u0915\u093e\u0908", "name:mr": "\u092e\u094b\u0915\u093e\u0908", "payment:cash": "yes", "payment:credit_cards": "yes", "payment:debit_cards": "yes", "payment:upi": "yes"}}, {"type": "node", "id": 12307927830, "lat": 19.05012, "lon": 72.8264557, "tags": {"amenity": "cafe", "name": "The Nutcracker", "name:en": "The Nutcracker"}}, {"type": "node", "id": 12337394175, "lat": 19.0627784, "lon": 72.8328315, "tags": {"amenity": "cafe", "indoor_seating": "yes", "name": "Poetry by Love and Cheesecake", "name:en": "Poetry by Love and Cheesecake", "outdoor_seating": "yes", "website": "https://loveandcheesecake.com/"}}, {"type": "node", "id": 12346531476, "lat": 19.056272, "lon": 72.8342539, "tags": {"amenity": "cafe", "cuisine": "bubble_tea", "name": "Easy Boba", "name:en": "Easy Boba"}}, {"type": "node", "id": 12353989426, "lat": 19.0590914, "lon": 72.8339725, "tags": {"amenity": "cafe", "name": "Earth Cafe", "name:en": "Earth Cafe", "outdoor_seating": "no"}}, {"type": "node", "id": 12408773235, "lat": 19.0801058, "lon": 72.8538114, "tags": {"addr:city": "Mumbai", "addr:district": "Mumbai", "addr:housenumber": "A34", "addr:postcode": "400055", "addr:street": "Datta Mandir Road", "amenity": "cafe", "cuisine": "burger;american", "internet_access": "no", "name": "Fries.com", "opening_hours": "Mo-Su 09:00-21:00", "outdoor_seating": "yes"}}, {"type": "node", "id": 12415386368, "lat": 19.0750493, "lon": 72.8421734, "tags": {"addr:city": "Mumbai", "addr:postcode": "400055", "addr:street": "golibar road", "amenity": "cafe", "cuisine": "coffee_shop;irani", "name": "Cafe Gulshan", "name:en": "Cafe Gulshan", "name:mr": "\u0915\u0945\u092b\u0947 \u0917\u0941\u0932\u0936\u0928", "opening_hours": "Mo-Su 09:00-20:00"}}, {"type": "node", "id": 12536371673, "lat": 19.0807897, "lon": 72.8426176, "tags": {"addr:city": "Mumbai", "addr:district": "Mumbai", "addr:housenumber": "3", "addr:postcode": "400055", "addr:street": "Santacruz Skywalk", "amenity": "cafe", "cuisine": "coffee_shop;indian", "internet_access": "no", "name": "radha krushma", "opening_hours": "Mo-Su 08:00-21:00"}}, {"type": "node", "id": 12536403663, "lat": 19.0739809, "lon": 72.8431413, "tags": {"amenity": "cafe", "cuisine": "coffee_shop", "name": "gulshan cafe", "opening_hours": "Mo-Su 10:00-22:00"}}, {"type": "node", "id": 12538079008, "lat": 19.0257013, "lon": 72.8393226, "tags": {"addr:city": "mumbai", "addr:postcode": "400028", "addr:street": "Ranade Road", "amenity": "cafe", "cuisine": "south_indian", "name": "manis cafe", "opening_hours": "Mo-Su 10:00-20:00"}}, {"type": "node", "id": 12543928197, "lat": 19.0254701, "lon": 72.8677601}, {"type": "node", "id": 12543928198, "lat": 19.025465, "lon": 72.867887}, {"type": "node", "id": 12543928199, "lat": 19.0253611, "lon": 72.8678826}, {"type": "node", "id": 12543928200, "lat": 19.0254033, "lon": 72.8677691}, {"type": "node", "id": 12731973446, "lat": 19.049462, "lon": 72.8296425, "tags": {"amenity": "cafe", "name": "The C Spot Cafe", "name:en": "The C Spot Cafe"}}, {"type": "node", "id": 12770185420, "lat": 19.0274647, "lon": 72.8564074, "tags": {"amenity": "cafe", "baby_feeding": "no", "changing_table": "no", "indoor_seating": "yes", "internet_access": "no", "name": "Chay Shay", "takeaway": "yes", "toilets:access": "private", "toilets:wheelchair": "no", "wheelchair": "no"}}, {"type": "node", "id": 12770264193, "lat": 19.0258534, "lon": 72.8551118, "tags": {"amenity": "cafe", "indoor_seating": "yes", "level": "0", "name": "Mani Cafe", "opening_hours": "Mo-Fr 07:00-21:00,13:30-18:30; Sa 09:00-17:00; PH closed", "operator": "Mani", "outdoor_seating": "yes", "takeaway": "yes", "wheelchair": "no"}}, {"type": "node", "id": 12770360101, "lat": 19.0275767, "lon": 72.8557533, "tags": {"air_conditioning": "yes", "amenity": "cafe", "indoor_seating": "yes", "name": "Spoon Of Love Express", "operator": "New Noble stores", "takeaway": "yes", "toilets:wheelchair": "no", "wheelchair": "no"}}, {"type": "node", "id": 12806107189, "lat": 19.0613092, "lon": 72.8307578, "tags": {"amenity": "cafe", "check_date": "2025-05-03", "name": "Uncommon", "name:en": "Uncommon", "name:hi": "\u0905\u0928\u0915\u0949\u092e\u0928", "name:mr": "\u0905\u0928\u0915\u0949\u092e\u0928"}}, {"type": "node", "id": 12892604956, "lat": 19.0669962, "lon": 72.8328138, "tags": {"amenity": "cafe", "name": "Farmers Cafe"}}, {"type": "node", "id": 12920034718, "lat": 19.071019, "lon": 72.8331048, "tags": {"amenity": "cafe", "name": "August Cafe", "name:en": "August Cafe", "website": "https://augustcafe.in/home/"}}, {"type": "node", "id": 12923020642, "lat": 19.0650522, "lon": 72.831054, "tags": {"amenity": "cafe", "name": "Bombay Brioche", "name:en": "Bombay Brioche", "outdoor_seating": "yes", "website": "https://bandra.bombaybrioche.com/"}}, {"type": "node", "id": 12923020646, "lat": 19.0656002, "lon": 72.8302778, "tags": {"amenity": "cafe", "cuisine": "bubble_tea", "name": "Bobakat", "name:en": "Bobakat", "name:mr": "\u092c\u094b\u092c\u093e\u0915\u0945\u091f"}}, {"type": "node", "id": 12996344277, "lat": 19.0527561, "lon": 72.8287399, "tags": {"amenity": "cafe", "cuisine": "bubble_tea", "name": "Tokyo Matcha Bar", "name:en": "Tokyo Matcha Bar", "payment:upi": "yes"}}, {"type": "node", "id": 13033811632, "lat": 19.0837372, "lon": 72.9091122, "tags": {"amenity": "cafe", "cuisine": "pizza;coffee_shop;burger;indian", "name": "majama cafe"}}, {"type": "node", "id": 13041479722, "lat": 19.0744275, "lon": 72.905279, "tags": {"amenity": "cafe", "name": "barista cafe"}}, {"type": "node", "id": 13041479723, "lat": 19.0745774, "lon": 72.9053095, "tags": {"addr:city": "ghatkopar", "addr:district": "mumbai", "addr:housenumber": "shop 1", "addr:postcode": "400077", "addr:street": "tilak road", "amenity": "cafe", "cuisine": "coffee_shop;pizza", "internet_access": "yes", "name": "barista", "opening_hours": "Mo-Su 09:00-21:00"}}, {"type": "node", "id": 13041514626, "lat": 19.0798703, "lon": 72.9057679, "tags": {"addr:city": "ghatkopar east", "addr:district": "Mumbai", "addr:housenumber": "123", "addr:postcode": "400075", "addr:street": "Vallabh Baug Lane", "amenity": "cafe", "cuisine": "pancake", "name": "99 pancakes"}}, {"type": "node", "id": 13041521228, "lat": 19.0799221, "lon": 72.9063661, "tags": {"addr:city": "ghatkopar east", "addr:district": "Mumbai", "addr:housenumber": "123", "addr:postcode": "400075", "addr:street": "Vallabh Baug Lane", "amenity": "cafe", "cuisine": "waffle", "name": "the belgian waffle", "opening_hours": "Mo-Su 09:00-21:00"}}, {"type": "node", "id": 13058306152, "lat": 19.0615878, "lon": 72.8335006, "tags": {"amenity": "cafe", "name": "Bru Baabaa", "name:en": "Bru Baabaa", "name:hi": "\u092c\u094d\u0930\u0942 \u092c\u093e\u092c\u093e", "name:mr": "\u092c\u094d\u0930\u0942 \u092c\u093e\u092c\u093e"}}, {"type": "node", "id": 13086966002, "lat": 19.0631232, "lon": 72.8249195, "tags": {"amenity": "cafe", "name": "Pause", "name:en": "Pause", "name:mr": "\u092a\u0949\u0938\u094d"}}, {"type": "node", "id": 13096583490, "lat": 19.0777792, "lon": 72.9073038, "tags": {"addr:city": "Mumbai", "addr:district": "mumbai", "addr:housenumber": "123", "addr:postcode": "400077", "addr:street": "rasilal mehta marg", "amenity": "cafe", "cuisine": "coffee_shop", "internet_access": "yes", "internet_access:fee": "no", "name": "starbucks", "opening_hours": "Mo-Su 07:00-22:00"}}, {"type": "node", "id": 13231494994, "lat": 19.0847062, "lon": 72.834941, "tags": {"amenity": "cafe", "brand": "Third Wave Coffee Roasters", "cuisine": "coffee_shop", "delivery": "yes", "name": "Third Wave Coffee Roasters", "note": "Located inside Crossword bookstore", "takeaway": "yes"}}, {"type": "node", "id": 13231494998, "lat": 19.0845357, "lon": 72.8351765, "tags": {"addr:city": "Mumbai", "addr:district": "Mumbai Suburban", "addr:postcode": "400054", "addr:street": "Juhu Tara Road", "air_conditioning": "yes", "amenity": "cafe", "contact:phone": "+91 8693843243", "level": "0", "name": "Mazi", "opening_hours": "Mo-Su 08:00-23:00", "outdoor_seating": "no", "reservation": "yes", "toilets": "yes"}}, {"type": "node", "id": 13238145683, "lat": 19.0726333, "lon": 72.8343212, "tags": {"amenity": "cafe", "name": "The Bluebop Cafe", "outdoor_seating": "no"}}, {"type": "node", "id": 13266741751, "lat": 19.0539473, "lon": 72.8288822, "tags": {"addr:floor": "G", "amenity": "cafe", "check_date": "2025-10-29", "level": "0", "name": "Mr MISU", "payment:cash": "yes", "payment:credit_cards": "yes", "payment:debit_cards": "yes", "payment:upi": "yes"}}, {"type": "node", "id": 13335658515, "lat": 19.0656452, "lon": 72.8308365, "tags": {"amenity": "cafe", "cuisine": "coffee_shop", "name": "Bokka Coffee"}}, {"type": "way", "id": 353987037, "nodes": [3597725871, 3597725879, 3597725862, 3597725856, 3597725871], "tags": {"amenity": "cafe", "building": "yes", "name": "pinky store"}}, {"type": "way", "id": 824809118, "nodes": [7701817248, 7701817249, 7701817250, 7701817251, 7701817252, 7701817253, 7701817248], "tags": {"amenity": "cafe", "building": "yes", "name": "The cake house"}}, {"type": "way", "id": 824826799, "nodes": [7701984716, 7701984717, 7701984718, 7701984719, 7701984716], "tags": {"amenity": "cafe", "building": "yes", "name": "Bakery"}}, {"type": "way", "id": 978614998, "nodes": [9055082820, 9055082819, 9055082818, 9055082817, 9055082820], "tags": {"amenity": "cafe", "building": "yes"}}, {"type": "way", "id": 1123870256, "nodes": [10277894236, 10277894237, 10277894238, 10277894239, 10277894240, 10277894241, 10277894242, 10277894243, 10277894236], "tags": {"addr:city": "Mumbai", "addr:postcode": "400050", "addr:street": "Munjra Street", "amenity": "cafe", "brand": "foodstuffs", "building": "house", "cuisine": "asain", "internet_access": "yes", "internet_access:fee": "customers", "name": "foodstuffs", "not:brand:wikidata": "Q65084369", "opening_hours": "Mo-Su 10:00-21:00", "outdoor_seating": "yes", "takeaway": "yes"}}, {"type": "way", "id": 1327051201, "nodes": [12276974769, 12276974768, 12276974767, 12276974766, 12276974769], "tags": {"addr:city": "Santacruz East, Mumbai", "addr:district": "Mumbai", "addr:postcode": "400055", "addr:street": "Guru Narayan Marg", "amenity": "cafe", "building": "residential", "cuisine": "coffee_shop;burger;pizza;sandwich;mexican;italian;indian;breakfast", "internet_access": "yes", "internet_access:fee": "customers", "name": "Cafe Montana", "opening_hours": "Mo-Su 09:00-22:00"}}, {"type": "way", "id": 1355395198, "nodes": [12543928197, 12543928198, 12543928199, 12543928200, 12543928197], "tags": {"amenity": "cafe", "building": "yes", "cuisine": "chicken;ice_cream;pancake;coffee_shop", "internet_access": "yes", "internet_access:fee": "customers", "name": "TVlolz", "opening_hours": "sunrise-sunset"}}]}