{"version": 0.6, "generator": "Overpass API 0.7.62.8 e802775f", "osm3s": {"timestamp_osm_base": "2025-11-29T05:52:52Z", "copyright": "The data included in this document is from www.openstreetmap.org. The data is made available under ODbL."}, "elements": [{"type": "node", "id": 541326797, "lat": 12.3088663, "lon": 76.6537754, "tags": {"name": "Geetha Book House", "shop": "books"}}, {"type": "node", "id": 1153369396, "lat": 12.3034445, "lon": 76.6551749, "tags": {"name": "Vahara ticket counter", "shop": "ticket"}}, {"type": "node", "id": 1153369482, "lat": 12.308793, "lon": 76.6539732, "tags": {"name": "Nirmala Bakery", "shop": "bakery"}}, {"type": "node", "id": 1636780522, "lat": 12.2951363, "lon": 76.6414996, "tags": {"addr:postcode": "570001", "addr:street": "Kanthraj urs road", "designation": "Tata car Sales", "name": "URS Kars", "shop": "car"}}, {"type": "node", "id": 1636795510, "lat": 12.2969603, "lon": 76.6422587, "tags": {"addr:postcode": "570001", "addr:street": "Ambedkar Road", "name": "Saraswathi Bakery", "shop": "bakery"}}, {"type": "node", "id": 1636805210, "lat": 12.2960955, "lon": 76.6386163, "tags": {"name": "Nirmala Bakery", "name:kn": "\u0ca8\u0cbf\u0cb0\u0ccd\u0cae\u0cb2 \u0cac\u0ccb\u0c95\u0cb0\u0cbf", "shop": "bakery"}}, {"type": "node", "id": 1636833763, "lat": 12.2940173, "lon": 76.6447398, "tags": {"addr:city": "Mysuru", "addr:street": "Jhansi Lakshmibai Road", "brand": "Hyundai", "brand:wikidata": "Q55931", "name": "Advaith Hyundai", "name:kn": "\u0c85\u0ca6\u0ccd\u0cb5\u0cc8\u0ca4 \u0cb9\u0ccd\u0caf\u0cc1\u0c82\u0ca1\u0cc8", "shop": "car"}}, {"type": "node", "id": 1636846799, "lat": 12.2955923, "lon": 76.6419261, "tags": {"addr:postcode": "570001", "addr:street": "Ambedkar Road", "alt_name": "Mystore", "int_name": "Mystore", "name": "Mystore", "old_name": "Mystore", "shop": "supermarket"}}, {"type": "node", "id": 1636849498, "lat": 12.3003541, "lon": 76.6426905, "tags": {"branch": "World", "brand": "Sony", "brand:wikidata": "Q41187", "name": "Sony World", "shop": "electronics"}}, {"type": "node", "id": 1636856805, "lat": 12.2949345, "lon": 76.6464671, "tags": {"brand": "Yamaha", "brand:wikidata": "Q158888", "name": "Arjun Yamaha!", "shop": "motorcycle"}}, {"type": "node", "id": 1636858282, "lat": 12.295566, "lon": 76.6421945, "tags": {"shop": "florist"}}, {"type": "node", "id": 1636860011, "lat": 12.3027467, "lon": 76.6435971, "tags": {"name": "American Hairdresser", "shop": "hairdresser"}}, {"type": "node", "id": 1637357780, "lat": 12.2926993, "lon": 76.6456838, "tags": {"addr:postcode": "570004", "addr:street": "JLB Road", "name": "Sona TVS", "shop": "motorcycle"}}, {"type": "node", "id": 1637361838, "lat": 12.3118115, "lon": 76.6426288, "tags": {"name": "Reliance Trends", "name:kn": "\u0cb0\u0cbf\u0cb2\u0caf\u0ca8\u0ccd\u0cb8\u0ccd \u0c9f\u0ccd\u0cb0\u0cc6\u0c82\u0ca1\u0ccd\u0cb8\u0ccd", "shop": "clothes"}}, {"type": "node", "id": 1638081256, "lat": 12.3085404, "lon": 76.6596102, "tags": {"name": "Josalukas", "shop": "jewelry"}}, {"type": "node", "id": 1638081438, "lat": 12.3139885, "lon": 76.658886, "tags": {"name": "Malabar Gold", "shop": "jewelry"}}, {"type": "node", "id": 1645766196, "lat": 12.3121317, "lon": 76.648122, "tags": {"addr:city": "Mysuru", "addr:street": "Narayana Shastri Road", "name": "Sapna Book Shop", "shop": "books"}}, {"type": "node", "id": 1649133296, "lat": 12.2978367, "lon": 76.6643044, "tags": {"name": "Mall of Mysore", "name:kn": "\u0cae\u0cbe\u0cb2\u0ccd \u0c86\u0cab\u0ccd \u0cae\u0cc8\u0cb8\u0cc2\u0cb0\u0cc1", "shop": "clothes"}}, {"type": "node", "id": 2039568205, "lat": 12.3092568, "lon": 76.6469656, "tags": {"name": "Chopra's", "shop": "clothes"}}, {"type": "node", "id": 2039570936, "lat": 12.3092542, "lon": 76.647207, "tags": {"name": "Bhima & Brothers", "shop": "jewelry"}}, {"type": "node", "id": 2039570941, "lat": 12.3098683, "lon": 76.6498889, "tags": {"name": "Big Bus", "shop": "clothes"}}, {"type": "node", "id": 2039596007, "lat": 12.3087982, "lon": 76.6537383}, {"type": "node", "id": 2039596008, "lat": 12.3087379, "lon": 76.6541058}, {"type": "node", "id": 2039596009, "lat": 12.3092437, "lon": 76.6534728}, {"type": "node", "id": 2039596010, "lat": 12.3094036, "lon": 76.6539931}, {"type": "node", "id": 2039596011, "lat": 12.3093014, "lon": 76.653977}, {"type": "node", "id": 2039596012, "lat": 12.309387, "lon": 76.6541712}, {"type": "node", "id": 2233907044, "lat": 12.3121963, "lon": 76.6585251, "tags": {"addr:city": "Mysore", "addr:country": "IN", "addr:state": "KA", "name": "Reliance Mart", "shop": "supermarket"}}, {"type": "node", "id": 2982373930, "lat": 12.3130915, "lon": 76.6533825, "tags": {"addr:city": "Mysore", "addr:housenumber": "476", "addr:postcode": "570001", "addr:street": "Krishna Rajendra Hospital Road", "name": "Shivanna Provision Store", "operator": "Anand", "phone": "+0821 2520689", "shop": "convenience"}}, {"type": "node", "id": 3211957403, "lat": 12.2944365, "lon": 76.6452674}, {"type": "node", "id": 3211957404, "lat": 12.2944189, "lon": 76.6454499}, {"type": "node", "id": 3211957405, "lat": 12.2946605, "lon": 76.6454739}, {"type": "node", "id": 3211957406, "lat": 12.294671, "lon": 76.6453646}, {"type": "node", "id": 3211957407, "lat": 12.2946628, "lon": 76.645331}, {"type": "node", "id": 3211957408, "lat": 12.2946511, "lon": 76.6453058}, {"type": "node", "id": 3211957409, "lat": 12.2946347, "lon": 76.645289}, {"type": "node", "id": 3217513961, "lat": 12.3110347, "lon": 76.658933, "tags": {"addr:city": "Mysuru", "addr:street": "Bangalore Nilgiri Road", "name": "Giria's", "shop": "electronics"}}, {"type": "node", "id": 3224353375, "lat": 12.3111375, "lon": 76.6476812}, {"type": "node", "id": 3224353376, "lat": 12.3110893, "lon": 76.6480604}, {"type": "node", "id": 3224353377, "lat": 12.3108344, "lon": 76.6480265}, {"type": "node", "id": 3224353378, "lat": 12.3108827, "lon": 76.6476473}, {"type": "node", "id": 3301988839, "lat": 12.3030624, "lon": 76.655554, "tags": {"name": "H.P.M.C.", "shop": "farm"}}, {"type": "node", "id": 3303963557, "lat": 12.2986198, "lon": 76.6684621, "tags": {"name": "Zoo Shop", "shop": "gift"}}, {"type": "node", "id": 3390691740, "lat": 12.2956241, "lon": 76.6395737, "tags": {"name": "Brand Factory", "shop": "clothes"}}, {"type": "node", "id": 3390693503, "lat": 12.2956136, "lon": 76.640711, "tags": {"name": "R.N.M Associated", "shop": "furniture"}}, {"type": "node", "id": 3390732740, "lat": 12.3091135, "lon": 76.6528121, "tags": {"name": "Shankar Shetty & Sons", "shop": "jewelry"}}, {"type": "node", "id": 3390735337, "lat": 12.3098171, "lon": 76.6525944, "tags": {"name": "Guru Sweets", "shop": "confectionery"}}, {"type": "node", "id": 3390736626, "lat": 12.3120454, "lon": 76.6519146, "tags": {"brand": "Bata", "brand:wikidata": "Q688082", "name": "Bata", "name:kn": "\u0cac\u0cbe\u0c9f\u0cbe", "shop": "shoes"}}, {"type": "node", "id": 3390737355, "lat": 12.3120315, "lon": 76.651789, "tags": {"name": "Raja Bangles", "shop": "fashion_accessories"}}, {"type": "node", "id": 3390825757, "lat": 12.3101269, "lon": 76.6562927, "tags": {"brand": "Bata", "brand:wikidata": "Q688082", "name": "Bata", "name:kn": "\u0cac\u0cbe\u0c9f\u0cbe", "shop": "shoes"}}, {"type": "node", "id": 3390825967, "lat": 12.3106358, "lon": 76.6561118, "tags": {"name": "Jain Hardware", "shop": "hardware"}}, {"type": "node", "id": 3390886231, "lat": 12.3095006, "lon": 76.6479159}, {"type": "node", "id": 3390886232, "lat": 12.3094182, "lon": 76.6479037}, {"type": "node", "id": 3390886233, "lat": 12.3094123, "lon": 76.6479626}, {"type": "node", "id": 3390886234, "lat": 12.3094957, "lon": 76.6479728}, {"type": "node", "id": 3564755093, "lat": 12.3009367, "lon": 76.6422262}, {"type": "node", "id": 3564755095, "lat": 12.3008422, "lon": 76.6427943}, {"type": "node", "id": 3564755096, "lat": 12.3004738, "lon": 76.6427314}, {"type": "node", "id": 3564755097, "lat": 12.3005517, "lon": 76.6421754}, {"type": "node", "id": 3564755099, "lat": 12.2996174, "lon": 76.6424642, "tags": {"operator": "Maya", "shop": "clothes"}}, {"type": "node", "id": 3630715125, "lat": 12.2977162, "lon": 76.6642695, "tags": {"name": "Shoppers stop", "shop": "clothes"}}, {"type": "node", "id": 3669879714, "lat": 12.3092213, "lon": 76.6626789, "tags": {"name": "Kauvery Silk Emporium", "shop": "craft"}}, {"type": "node", "id": 4009040222, "lat": 12.2982145, "lon": 76.6519029, "tags": {"addr:city": "Mysuru", "addr:postcode": "570004", "addr:street": "Tyagaraja Road", "name": "Nandini Milk Parlour", "name:kn": "\u0ca8\u0c82\u0ca6\u0cbf\u0ca8\u0cbf \u0cb9\u0cbe\u0cb2\u0cbf\u0ca8 \u0c85\u0c82\u0c97\u0ca1\u0cbf", "shop": "dairy"}}, {"type": "node", "id": 4114513705, "lat": 12.3151382, "lon": 76.6449229, "tags": {"addr:street": "Jhansi Lakshmibai Road", "amenity": "restaurant", "brand": "Adyar Ananda Bhavan", "brand:wikidata": "Q15178238", "cuisine": "indian", "diet:vegetarian": "only", "indoor_seating": "yes", "name": "Adyar Ananda Bhavan", "name:kn": "\u0c85\u0ca8\u0c82\u0ca6 \u0cad\u0cb5\u0ca8", "opening_hours": "Mo-Su 07:00-23:00", "outdoor_seating": "no", "payment:credit_cards": "yes", "payment:debit_cards": "yes", "shop": "confectionery", "smoking": "no", "website": "http://sabsweets.in", "wheelchair": "no"}}, {"type": "node", "id": 4198257392, "lat": 12.305177, "lon": 76.6473483, "tags": {"addr:city": "Mysuru", "name": "Photo Album Centre", "shop": "photo"}}, {"type": "node", "id": 4201469783, "lat": 12.3004276, "lon": 76.6529328}, {"type": "node", "id": 4201469784, "lat": 12.3002076, "lon": 76.6528893}, {"type": "node", "id": 4201469785, "lat": 12.3001881, "lon": 76.6530494}, {"type": "node", "id": 4201469786, "lat": 12.3003926, "lon": 76.6530812}, {"type": "node", "id": 4487931594, "lat": 12.3119757, "lon": 76.6487711, "tags": {"addr:city": "Mysuru", "addr:housenumber": "Opp Care hospital stone building, Devaraja Mohalla, Shivarampet", "addr:postcode": "570001", "addr:street": "Dhanavantri Road", "name": "Raghuveer Sports Annexe", "opening_hours": "9:00-22:00", "phone": "098455 27889", "shop": "sports", "website": "https://cityon.net/"}}, {"type": "node", "id": 4487956910, "lat": 12.2978147, "lon": 76.6648143, "tags": {"addr:city": "Mysore,", "addr:housenumber": "Unit No 17, Gr Flr, Mall of Mysore", "addr:postcode": "570022", "addr:street": "Indiranagar Ext, Nazarabad Mohalla, Indiranagar Extension, JC Nagar,", "name": "Nike", "name:kn": "\u0ca8\u0cc8\u0c95\u0ccd", "opening_hours": "9:00-22:00", "phone": "0821 452 1262", "shop": "sports", "website": "https://nike.ssiplgroup.com/"}}, {"type": "node", "id": 4487964514, "lat": 12.311975, "lon": 76.6514526, "tags": {"addr:city": "Mysuru", "addr:housenumber": "406, Devaraja Market Building, Dhanvanthri Road,", "addr:postcode": "570001", "addr:street": "Near K R Hospital, Dhanvanthri Road, Devaraja Mohalla, Shivarampet,", "name": "Sharma Sports", "opening_hours": "9:00-22:00", "phone": "0821 242 0385", "shop": "sports"}}, {"type": "node", "id": 4487969465, "lat": 12.3094149, "lon": 76.6448729, "tags": {"addr:city": "Mysore", "addr:housenumber": "Shop No. 131, 4th Block", "addr:postcode": "570001", "addr:street": "A Ramana St, Subbarayanakere, Devraj Mohalla, Chamrajpura,", "brand": "Adidas", "brand:wikidata": "Q3895", "name": "Adidas", "name:kn": "\u0c85\u0ca1\u0cbf\u0ca1\u0cbe\u0cb8\u0ccd", "opening_hours": "9:00-22:00", "phone": "0821 424 6540", "shop": "sports", "website": "https://www.adidas.co.in/"}}, {"type": "node", "id": 4487976827, "lat": 12.3095876, "lon": 76.6515144, "tags": {"addr:city": "Mysuru", "addr:housenumber": "1915/ 11, Mannars Market", "addr:postcode": "570001", "addr:street": "Shivarampet, Devaraja Mohalla, Shivarampet,", "name": "Rajendra Sports", "phone": "0821 243 0706", "shop": "sports"}}, {"type": "node", "id": 4487982259, "lat": 12.3103174, "lon": 76.6557482, "tags": {"addr:city": "Mysuru", "addr:housenumber": "No 667, Ashoka Road", "addr:postcode": "570001", "addr:street": "Opp Clock Tower Square, Clock Tower Rd, Lashkar Mohalla, Mandi Mohalla", "name": "Sharada Cycle & Watch Stores", "opening_hours": "9:00-22:00", "phone": "0821 425 2132", "shop": "sports", "website": "https://cityon.net/"}}, {"type": "node", "id": 4487992144, "lat": 12.3094138, "lon": 76.6481972, "tags": {"addr:city": "Mysuru", "addr:housenumber": "Devaraja Urs Rd", "addr:postcode": "570004", "addr:street": "Subbarayanakere, Shivarampet,", "name": "Global Fitness", "opening_hours": "9:00-22:00", "phone": "098867 28704", "shop": "sports"}}, {"type": "node", "id": 4488024634, "lat": 12.3087483, "lon": 76.6576553, "tags": {"addr:city": "Mysuru", "addr:housenumber": "Shri harsha road,", "addr:postcode": "570001", "addr:street": "Hotel Govardhan building", "name": "Track and Trail Sports - Shah Cycles", "opening_hours": "9:00-22:00", "phone": "097422 97444", "shop": "sports"}}, {"type": "node", "id": 4489770264, "lat": 12.3026263, "lon": 76.6434932, "tags": {"addr:city": "Mysuru", "addr:housenumber": "35/C3,", "addr:postcode": "570024", "addr:street": "Parimala Complex,Near Ramaswamy Circle, Chamaraja Double Road,", "name": "Ran Sports", "opening_hours": "9:00-22:00", "phone": "0821 242 3444", "shop": "sports"}}, {"type": "node", "id": 4489779657, "lat": 12.3110941, "lon": 76.640428, "tags": {"addr:city": "Mysuru", "addr:housenumber": "Adjacent to Reliance Trends, No. 2254", "addr:postcode": "570001", "addr:street": "Next to Regalix Hotel, Vinoba Road,", "name": "Reliance Footprint", "opening_hours": "9:00-22:00", "phone": "0821 424 2724", "shop": "sports", "website": "https://www.ril.com/"}}, {"type": "node", "id": 4489788189, "lat": 12.3093464, "lon": 76.6457144, "tags": {"addr:city": "Mysore", "addr:housenumber": "No. 123/D1,", "addr:postcode": "570005", "addr:street": "A Ramana St,", "brand": "Puma", "brand:wikidata": "Q157064", "name": "Puma", "name:kn": "\u0caa\u0cc2\u0cae", "opening_hours": "9:00-22:00", "phone": "0821 424 4462", "shop": "clothes", "website": "https://in.puma.com/?mktID=PL:Brand%20Marketing:Puma.com-CatchAllPage:India-en&plinkID=Brand"}}, {"type": "node", "id": 4771160126, "lat": 12.3094207, "lon": 76.647211, "tags": {"name": "Airtel shop", "name:en": "Airtel shop", "name:kn": "\u0c8f\u0cb0\u0ccd\u0c9f\u0cc6\u0cb2\u0ccd", "shop": "mobile_phone"}}, {"type": "node", "id": 4778063008, "lat": 12.3133444, "lon": 76.6448367, "tags": {"name": "Ice cream stall", "name:en": "Ice cream stall", "shop": "confectionery"}}, {"type": "node", "id": 5144360609, "lat": 12.2955027, "lon": 76.6385226}, {"type": "node", "id": 5144360610, "lat": 12.29526, "lon": 76.6385063}, {"type": "node", "id": 5144360611, "lat": 12.2952411, "lon": 76.6388021}, {"type": "node", "id": 5144360612, "lat": 12.2954838, "lon": 76.6388184}, {"type": "node", "id": 5250657822, "lat": 12.3114938, "lon": 76.6493479, "tags": {"name": "Music Shop", "name:hi": "Music Shop", "shop": "gift"}}, {"type": "node", "id": 5387298427, "lat": 12.3148329, "lon": 76.6590107, "tags": {"name": "Kauvery", "name:kn": "\u0c95\u0cbe\u0cb5\u0cc7\u0cb0\u0cbf", "shop": "clothes", "wheelchair": "limited"}}, {"type": "node", "id": 5387298428, "lat": 12.3150889, "lon": 76.659046, "tags": {"name": "Juyalukkas", "shop": "jewelry", "wheelchair": "limited"}}, {"type": "node", "id": 5511552860, "lat": 12.307414, "lon": 76.673692}, {"type": "node", "id": 5511552861, "lat": 12.307414, "lon": 76.6740326}, {"type": "node", "id": 5511552862, "lat": 12.3069318, "lon": 76.6740058}, {"type": "node", "id": 5511552863, "lat": 12.3069344, "lon": 76.6736785}, {"type": "node", "id": 6117495924, "lat": 12.3180818, "lon": 76.6525794, "tags": {"name": "Venus Egg Center", "shop": "farm"}}, {"type": "node", "id": 6117496114, "lat": 12.3119137, "lon": 76.6449914, "tags": {"name": "Silk Sarees", "shop": "gift"}}, {"type": "node", "id": 6139830141, "lat": 12.318098, "lon": 76.6654785, "tags": {"name": "Forum Centre City Mall", "name:ru": "\u0422\u043e\u0440\u0433\u043e\u0432\u044b\u0439 \u0446\u0435\u043d\u0442\u0440 \u00abForum\u201d", "shop": "department_store"}}, {"type": "node", "id": 6282329487, "lat": 12.3131979, "lon": 76.6538207, "tags": {"name:he": "\u05d3\u05d5\u05e1\u05e0 \u05d5\u05d0\u05d9\u05d3\u05dc\u05d9 \u05d16 \u05d8\u05e2\u05d9\u05dd \u05e8\u05e6\u05e6\u05e6\u05d7", "shop": "bakery"}}, {"type": "node", "id": 6282342485, "lat": 12.2999184, "lon": 76.648421, "tags": {"name:he": "\u05e8\u05d7\u05d5\u05d1???", "shop": "bakery"}}, {"type": "node", "id": 6372190185, "lat": 12.3178994, "lon": 76.6527885, "tags": {"name": "Fruit & Veg Market", "shop": "greengrocer"}}, {"type": "node", "id": 8077048615, "lat": 12.3090419, "lon": 76.6536364}, {"type": "node", "id": 9824543117, "lat": 12.2987638, "lon": 76.6684084, "tags": {"name": "Zoo Souvenir Shop", "shop": "gift"}}, {"type": "node", "id": 9824543317, "lat": 12.2988143, "lon": 76.6684132, "tags": {"name": "Mysore Sandal Retail Outlet", "shop": "gift"}}, {"type": "node", "id": 10008345140, "lat": 12.3010021, "lon": 76.6507972}, {"type": "node", "id": 10008345141, "lat": 12.300998, "lon": 76.6508784}, {"type": "node", "id": 10008345142, "lat": 12.3008392, "lon": 76.6508727}, {"type": "node", "id": 10008345143, "lat": 12.3008448, "lon": 76.6507886}, {"type": "node", "id": 10296444516, "lat": 12.3046894, "lon": 76.6471837, "tags": {"shop": "plants"}}, {"type": "node", "id": 10742851894, "lat": 12.3190476, "lon": 76.6532306, "tags": {"addr:city": "Mysore", "addr:housenumber": "2910/1, Moomthabooth Street, Kailasapuram, Mandi Mohalla, Mysuru, Karnataka 570001", "addr:postcode": "570001", "addr:street": "MOOMTHABOOTH STREET, MANDI MOHALLA, MYSORE", "description": "welcome to Sultan Fine Arts, you can find beautiful and authentic rosewood handicraft items such as, sofa set, dining table, beds etc.", "name": "Sultan Fine Arts", "opening_hours": "Mo-Su 09:00-21:00", "operator": "Admin", "payment:cash": "yes", "payment:contactless": "yes", "payment:google_pay": "yes", "payment:paypal": "yes", "phone": "78921 63787", "shop": "furniture", "website": "https://www.sultanfinearts.com/"}}, {"type": "node", "id": 11313993327, "lat": 12.313361, "lon": 76.6582179, "tags": {"name": "KSRTC - advance ticket reservation center", "shop": "ticket"}}, {"type": "node", "id": 11454500730, "lat": 12.3094156, "lon": 76.647796, "tags": {"brand": "Van Heusen", "brand:wikidata": "Q67551865", "check_date": "2023-12-26", "clothes": "men", "name": "Van Heusen", "shop": "clothes"}}, {"type": "node", "id": 11727176904, "lat": 12.2894523, "lon": 76.6503214, "tags": {"addr:city": "Mysuru", "addr:housenumber": "2846-A", "addr:postcode": "570004", "addr:street": "1st Main Road, 3rd Cross, Chamundipuram,", "name": "Graphic Culture", "opening_hours": "Mo-Sa 10:00-20:00", "operator": "Harish", "payment:cash": "yes", "payment:contactless": "yes", "payment:mastercard": "yes", "payment:visa": "yes", "phone": "9342182135", "shop": "convenience"}}, {"type": "node", "id": 12754786257, "lat": 12.3115522, "lon": 76.6586378, "tags": {"name": "General Stores", "shop": "convenience"}}, {"type": "node", "id": 12754786269, "lat": 12.3115549, "lon": 76.6585722, "tags": {"name": "Nandini Milk Parlour", "name:kn": "\u0ca8\u0c82\u0ca6\u0cbf\u0ca8\u0cbf \u0cb9\u0cbe\u0cb2\u0cbf\u0ca8 \u0c85\u0c82\u0c97\u0ca1\u0cbf", "shop": "dairy"}}, {"type": "node", "id": 12861864015, "lat": 12.2948147, "lon": 76.649561, "tags": {"name": "Y. N. M. Surgicals", "shop": "medical_supply"}}, {"type": "way", "id": 193440388, "nodes": [2039596009, 8077048615, 2039596007, 2039596008, 2039596012, 2039596010, 2039596011, 2039596009], "tags": {"name": "Garuda Mall", "shop": "mall"}}, {"type": "way", "id": 315103278, "nodes": [3211957403, 3211957404, 3211957405, 3211957406, 3211957407, 3211957408, 3211957409, 3211957403], "tags": {"addr:city": "Mysuru", "addr:street": "New Kantharaje Urs Road", "building": "yes", "name": "Friendly Motors", "shop": "car"}}, {"type": "way", "id": 316323962, "nodes": [3224353375, 3224353376, 3224353377, 3224353378, 3224353375], "tags": {"addr:city": "Mysuru", "addr:street": "Narayana Shastri Road", "branch": "Mega Store", "brand": "More", "brand:wikidata": "Q6910891", "building": "yes", "name": "More", "name:kn": "\u0cae\u0ccb\u0cb0\u0ccd", "shop": "supermarket"}}, {"type": "way", "id": 331984539, "nodes": [3390886231, 3390886232, 3390886233, 3390886234, 3390886231], "tags": {"brand": "Blackberrys", "brand:wikidata": "Q4922570", "building": "yes", "name": "Blackberrys", "shop": "clothes"}}, {"type": "way", "id": 350708457, "nodes": [3564755093, 3564755095, 3564755096, 3564755097, 3564755093], "tags": {"addr:city": "Mysuru", "addr:street": "Jhansi Lakshmibai Road", "building": "yes", "name": "Big Bazaar", "name:kn": "\u0cac\u0cbf\u0c97\u0ccd \u0cac\u0c9c\u0cbe\u0cb0\u0ccd", "shop": "supermarket"}}, {"type": "way", "id": 420174125, "nodes": [4201469783, 4201469784, 4201469785, 4201469786, 4201469783], "tags": {"building": "yes", "name": "Senthil's", "shop": "yes"}}, {"type": "way", "id": 529597896, "nodes": [5144360609, 5144360610, 5144360611, 5144360612, 5144360609], "tags": {"building": "yes", "name": "Brand Factory", "shop": "clothes"}}, {"type": "way", "id": 574084101, "nodes": [5511552860, 5511552861, 5511552862, 5511552863, 5511552860], "tags": {"addr:city": "Mysuru", "building": "yes", "name": "Decathlon", "shop": "sports"}}, {"type": "way", "id": 1092820301, "nodes": [10008345140, 10008345141, 10008345142, 10008345143, 10008345140], "tags": {"building": "yes", "name": "Chethana Book House", "shop": "books"}}]}