{"version": 0.6, "generator": "Overpass API 0.7.62.8 e802775f", "osm3s": {"timestamp_osm_base": "2025-11-29T19:15:26Z", "copyright": "The data included in this document is from www.openstreetmap.org. The data is made available under ODbL."}, "elements": [{"type": "node", "id": 428457212, "lat": 12.9697383, "lon": 77.6003775, "tags": {"addr:city": "Bangalore", "addr:country": "IN", "addr:hamlet": "Shanthala Nagar", "addr:housename": "Sophia's Choice", "addr:postcode": "560001", "addr:street": "Saint Mark's Road", "amenity": "cafe", "delivery": "yes", "name": "Old Madras Baking Company", "opening_hours": "08:00-23:00", "operator": "Old Madras Baking Company", "shop": "bakery", "takeaway": "yes"}}, {"type": "node", "id": 469614286, "lat": 12.9870759, "lon": 77.5947417, "tags": {"addr:city": "Bengaluru", "addr:country": "IN", "addr:housename": "Shah Sultan Complex", "addr:housenumber": "17/1", "addr:street": "Cunningham Road", "alt_name": "Dialogues, Infinitea Cunningham Road", "amenity": "cafe", "name": "Infinitea", "operator": "Infinitea"}}, {"type": "node", "id": 571124363, "lat": 13.0045673, "lon": 77.5710992, "tags": {"addr:street": "Sampige Road", "amenity": "cafe", "brand": "Cafe Coffee Day", "brand:wikidata": "Q5017235", "brand:wikipedia": "en:Caf\u00e9 Coffee Day", "cuisine": "coffee_shop", "name": "Cafe Coffee Day", "name:kn": "\u0c95\u0cab\u0cc6 \u0c95\u0cbe\u0cab\u0cbf \u0ca1\u0cc7", "takeaway": "yes"}}, {"type": "node", "id": 595411387, "lat": 12.9751034, "lon": 77.6028435, "tags": {"addr:housename": "The Museum", "addr:street": "Museum Road", "addr:suburb": "Shanthala Nagar", "amenity": "cafe", "name": "Temple of The Senses"}}, {"type": "node", "id": 661983020, "lat": 12.9720317, "lon": 77.6009309, "tags": {"addr:street": "Saint Mark's Road", "amenity": "cafe", "name": "Juice Junction", "shop": "beverages"}}, {"type": "node", "id": 661983038, "lat": 12.9751155, "lon": 77.6014152, "tags": {"addr:street": "Saint Mark's Road", "amenity": "cafe", "name": "Bowring Stall"}}, {"type": "node", "id": 663568572, "lat": 12.9717817, "lon": 77.5942306, "tags": {"addr:city": "Bangalore", "addr:street": "Lavelle Road", "amenity": "cafe", "branch": "Square", "brand": "Cafe Coffee Day", "brand:wikidata": "Q5017235", "check_date": "2024-08-19", "cuisine": "coffee_shop", "indoor_seating": "yes", "internet_access": "wlan", "name": "Cafe Coffee Day", "name:kn": "\u0c95\u0cab\u0cc6 \u0c95\u0cbe\u0cab\u0cbf \u0ca1\u0cc7", "outdoor_seating": "yes", "takeaway": "yes", "wheelchair": "limited"}}, {"type": "node", "id": 664332018, "lat": 13.0076197, "lon": 77.5793977, "tags": {"amenity": "cafe", "brand": "Cafe Coffee Day", "brand:wikidata": "Q5017235", "cuisine": "coffee_shop", "name": "Cafe Coffee Day", "name:kn": "\u0c95\u0cab\u0cc6 \u0c95\u0cbe\u0cab\u0cbf \u0ca1\u0cc7", "takeaway": "yes"}}, {"type": "node", "id": 665871269, "lat": 12.9697027, "lon": 77.5796625, "tags": {"amenity": "cafe", "name": "Cane Crush"}}, {"type": "node", "id": 665871272, "lat": 12.9742892, "lon": 77.5778952, "tags": {"addr:street": "Kempe Gowda Road", "amenity": "cafe", "name": "Sri Vinayaka Juice & Chats Center"}}, {"type": "node", "id": 665871289, "lat": 12.9857313, "lon": 77.595832, "tags": {"addr:street": "Cunningham Road", "amenity": "cafe", "brand": "Sweet Chariot", "delivery": "yes", "name": "Sweet Chariot", "shop": "pastry", "takeaway": "yes"}}, {"type": "node", "id": 668990999, "lat": 12.9356995, "lon": 77.6145787, "tags": {"addr:street": "80 Feet Road", "amenity": "cafe", "brand": "Cafe Coffee Day", "brand:wikidata": "Q5017235", "cuisine": "coffee_shop", "name": "Cafe Coffee Day", "name:kn": "\u0c95\u0cab\u0cc6 \u0c95\u0cbe\u0cab\u0cbf \u0ca1\u0cc7", "takeaway": "yes"}}, {"type": "node", "id": 673377221, "lat": 13.0075715, "lon": 77.5793658, "tags": {"addr:street": "13th Cross Sadashivanagar", "amenity": "cafe", "name": "Pure & Natural"}}, {"type": "node", "id": 677286826, "lat": 12.9736525, "lon": 77.5801953, "tags": {"addr:street": "Kempe Gowda Road", "amenity": "cafe", "name": "Coffee Day", "name:kn": "\u0c95\u0cab\u0cc6 \u0c95\u0cbe\u0cab\u0cbf \u0ca1\u0cc7"}}, {"type": "node", "id": 683352694, "lat": 12.9734503, "lon": 77.5751186, "tags": {"addr:street": "Balepet Road", "amenity": "cafe", "name": "Fresh Cane"}}, {"type": "node", "id": 1274328868, "lat": 12.9349444, "lon": 77.6293498, "tags": {"amenity": "cafe", "brand": "Barista", "brand:wikidata": "Q644735", "cuisine": "coffee_shop", "name": "Barista", "name:kn": "\u0cac\u0cb0\u0cbf\u0cb8\u0ccd\u0c9f", "takeaway": "yes"}}, {"type": "node", "id": 1307443105, "lat": 12.9344118, "lon": 77.6109865, "tags": {"addr:city": "Bangalore", "addr:housename": "Forum Mall", "addr:street": "Hosur Road", "amenity": "cafe", "brand": "Cafe Coffee Day", "brand:wikidata": "Q5017235", "cuisine": "coffee_shop", "internet_access": "wlan", "name": "Cafe Coffee Day", "name:kn": "\u0c95\u0cab\u0cc6 \u0c95\u0cbe\u0cab\u0cbf \u0ca1\u0cc7", "takeaway": "yes"}}, {"type": "node", "id": 1307598721, "lat": 12.9823242, "lon": 77.594716, "tags": {"addr:street": "Dr B R Ambedkar Veedhi", "amenity": "cafe", "name": "India Coffee House", "name:kn": "\u0c87\u0c82\u0ca1\u0cbf\u0caf\u0cbe \u0c95\u0cbe\u0cab\u0cbf \u0cb9\u0ccc\u0cb8\u0ccd"}}, {"type": "node", "id": 1363295015, "lat": 12.9897809, "lon": 77.5880062, "tags": {"amenity": "cafe", "name": "NGMA Cafe"}}, {"type": "node", "id": 1375978217, "lat": 12.9359939, "lon": 77.6151031, "tags": {"amenity": "cafe", "brand": "Sweet Chariot", "delivery": "yes", "name": "Sweet Chariot", "shop": "pastry", "takeaway": "yes"}}, {"type": "node", "id": 1375978240, "lat": 12.9334642, "lon": 77.6151016, "tags": {"amenity": "cafe", "name": "Latte Tude"}}, {"type": "node", "id": 1375978263, "lat": 12.9345246, "lon": 77.6162996, "tags": {"amenity": "cafe", "brand": "Costa", "brand:wikidata": "Q608845", "cuisine": "coffee_shop", "name": "Costa", "takeaway": "yes"}}, {"type": "node", "id": 1375978279, "lat": 12.9354363, "lon": 77.6147873, "tags": {"amenity": "cafe", "name": "Friends"}}, {"type": "node", "id": 1375978281, "lat": 12.9333951, "lon": 77.6155122, "tags": {"amenity": "cafe", "check_date": "2024-01-20", "name": "Cuppa"}}, {"type": "node", "id": 1385984054, "lat": 12.967438, "lon": 77.6365796, "tags": {"addr:housenumber": "#23, 3rd B cross,", "addr:street": "1st Main Road,", "amenity": "cafe", "name": "StrEat Cafe"}}, {"type": "node", "id": 1440343675, "lat": 12.9433387, "lon": 77.5850711, "tags": {"amenity": "cafe", "brand": "Cafe Coffee Day", "brand:wikidata": "Q5017235", "check_date": "2025-07-12", "cuisine": "coffee_shop", "name": "Cafe Coffee Day", "name:kn": "\u0c95\u0cab\u0cc6 \u0c95\u0cbe\u0cab\u0cbf \u0ca1\u0cc7", "takeaway": "yes"}}, {"type": "node", "id": 1466690713, "lat": 12.9284331, "lon": 77.5900599, "tags": {"amenity": "cafe", "name": "Brews & Bites"}}, {"type": "node", "id": 1466730374, "lat": 12.944502, "lon": 77.5728401, "tags": {"amenity": "cafe", "brand": "Cafe Coffee Day", "brand:wikidata": "Q5017235", "cuisine": "coffee_shop", "name": "Cafe Coffee Day", "name:kn": "\u0c95\u0cab\u0cc6 \u0c95\u0cbe\u0cab\u0cbf \u0ca1\u0cc7", "takeaway": "yes"}}, {"type": "node", "id": 1467536094, "lat": 12.9330961, "lon": 77.5823147, "tags": {"addr:street": "elephant cave road", "amenity": "cafe", "cuisine": "ice_cream", "designation": "lassi park", "name": "Lassi Park", "wifi": "no"}}, {"type": "node", "id": 1469190371, "lat": 12.9961239, "lon": 77.6132737, "tags": {"amenity": "cafe", "brand": "Third Wave Coffee Roasters", "brand:wikidata": "Q7785004", "cuisine": "coffee_shop", "delivery": "yes", "internet_access": "yes", "internet_access:fee": "no", "name": "Third Wave Coffee Roasters", "payment:credit_cards": "yes", "payment:debit_cards": "yes", "takeaway": "yes", "website": "https://www.thirdwavecoffeeroasters.com/"}}, {"type": "node", "id": 1471128660, "lat": 12.93893, "lon": 77.6189888, "tags": {"amenity": "cafe", "cuisine": "indian", "name": "Booster Juice"}}, {"type": "node", "id": 1471781252, "lat": 13.0034363, "lon": 77.5499517, "tags": {"addr:city": "Bengaluru", "addr:country": "IN", "addr:housenumber": "363", "addr:postcode": "560010", "addr:street": "19th Main Road", "addr:suburb": "Rajajinagar", "amenity": "cafe", "name": "Cafe 363", "website": "https://www.cafe363.in/"}}, {"type": "node", "id": 1472178648, "lat": 12.9880757, "lon": 77.5496789, "tags": {"amenity": "cafe", "wheelchair": "no"}}, {"type": "node", "id": 1474324439, "lat": 12.9367494, "lon": 77.6200067, "tags": {"amenity": "cafe", "cuisine": "coffee_shop", "name": "Coffee Lounge"}}, {"type": "node", "id": 1614366545, "lat": 12.9885341, "lon": 77.5770137, "tags": {"amenity": "cafe", "brand": "Cafe Coffee Day", "brand:wikidata": "Q5017235", "cuisine": "coffee_shop", "name": "Cafe Coffee Day", "name:kn": "\u0c95\u0cab\u0cc6 \u0c95\u0cbe\u0cab\u0cbf \u0ca1\u0cc7", "takeaway": "yes", "website": "https://www.cafecoffeeday.com/", "wheelchair": "no"}}, {"type": "node", "id": 1821582118, "lat": 12.9828042, "lon": 77.6105271, "tags": {"amenity": "cafe", "name": "Sreeraj lassi bar", "name:kn": "\u0cb6\u0ccd\u0cb0\u0cc0\u0cb0\u0cbe\u0c9c\u0ccd \u0cb2\u0cb8\u0ccd\u0cb8\u0cbf \u0cac\u0cbe\u0cb0\u0ccd", "smoking": "no"}}, {"type": "node", "id": 1851689644, "lat": 12.9733898, "lon": 77.6072915, "tags": {"addr:city": "Bengaluru", "addr:street": "Brigade Road", "addr:suburb": "Ashok Nagar", "amenity": "cafe", "check_date": "2025-03-09", "cuisine": "coffee_shop", "name": "Coffee All Day"}}, {"type": "node", "id": 1852670707, "lat": 12.9758023, "lon": 77.6165936, "tags": {"amenity": "cafe", "cuisine": "french", "name": "French Loaf"}}, {"type": "node", "id": 2074188247, "lat": 12.9313858, "lon": 77.6053326}, {"type": "node", "id": 2074188248, "lat": 12.9313864, "lon": 77.6054048}, {"type": "node", "id": 2074188249, "lat": 12.9314236, "lon": 77.6052249}, {"type": "node", "id": 2074188250, "lat": 12.9314245, "lon": 77.6053322}, {"type": "node", "id": 2074188251, "lat": 12.9314482, "lon": 77.6054042}, {"type": "node", "id": 2074188252, "lat": 12.9314484, "lon": 77.6054286}, {"type": "node", "id": 2074188254, "lat": 12.9314724, "lon": 77.6053938}, {"type": "node", "id": 2074188255, "lat": 12.9314727, "lon": 77.6054284}, {"type": "node", "id": 2074188256, "lat": 12.931677, "lon": 77.6052228}, {"type": "node", "id": 2074188257, "lat": 12.9316784, "lon": 77.605392}, {"type": "node", "id": 2181449422, "lat": 12.9743507, "lon": 77.6070733, "tags": {"amenity": "cafe", "check_date": "2025-03-09", "cuisine": "coffee_shop", "level": "0", "name": "Matteo's Coffee"}}, {"type": "node", "id": 2189718239, "lat": 12.9713749, "lon": 77.5978083}, {"type": "node", "id": 2189718240, "lat": 12.9714209, "lon": 77.5977773}, {"type": "node", "id": 2189718241, "lat": 12.9714853, "lon": 77.5979594}, {"type": "node", "id": 2201181399, "lat": 12.9792079, "lon": 77.6404952}, {"type": "node", "id": 2322736999, "lat": 12.9684869, "lon": 77.6008019, "tags": {"amenity": "cafe", "brand": "Sweet Chariot", "delivery": "yes", "level": "0", "name": "Sweet Chariot", "shop": "pastry", "takeaway": "yes"}}, {"type": "node", "id": 2496920257, "lat": 12.9818276, "lon": 77.6092079, "tags": {"addr:city": "Bangalore", "addr:housename": "Shivajinagar", "addr:street": "Commercial Street", "amenity": "cafe", "cuisine": "coffee_shop", "internet_access": "yes", "name": "Cafe Coffe Day", "name:kn": "\u0c95\u0cab\u0cc6 \u0c95\u0cbe\u0cab\u0cbf \u0ca1\u0cc7"}}, {"type": "node", "id": 2531029517, "lat": 12.9303605, "lon": 77.6228604, "tags": {"amenity": "cafe", "brand": "Cafe Coffee Day", "brand:wikidata": "Q5017235", "cuisine": "coffee_shop", "name": "Cafe Coffee Day", "name:kn": "\u0c95\u0cab\u0cc6 \u0c95\u0cbe\u0cab\u0cbf \u0ca1\u0cc7", "takeaway": "yes"}}, {"type": "node", "id": 2554302439, "lat": 12.9855811, "lon": 77.5556847, "tags": {"amenity": "cafe", "cuisine": "regional", "name": "Crane Crush"}}, {"type": "node", "id": 2647774013, "lat": 12.9351849, "lon": 77.6135299, "tags": {"amenity": "cafe", "brand": "Starbucks", "brand:pa": "\u0a38\u0a1f\u0a3e\u0a30\u0a2c\u0a15\u0a38", "brand:ur": "\u0627\u0633\u0679\u0627\u0631\u0628\u06a9\u0633", "brand:wikidata": "Q37158", "brand:wikipedia": "en:Starbucks", "cuisine": "coffee_shop", "internet_access": "wlan", "internet_access:fee": "no", "name": "Starbucks", "name:pa": "\u0a38\u0a1f\u0a3e\u0a30\u0a2c\u0a15\u0a38", "name:ur": "\u0627\u0633\u0679\u0627\u0631\u0628\u06a9\u0633", "official_name": "Starbucks Coffee", "official_name:pa": "\u0a38\u0a1f\u0a3e\u0a30\u0a2c\u0a15\u0a38 \u0a15\u0a4c\u0a2b\u0a40", "official_name:ur": "\u0627\u0633\u0679\u0627\u0631\u0628\u06a9\u0633 \u06a9\u0627\u0641\u06cc", "opening_hours": "10:00-23:00", "takeaway": "yes", "website": "https://www.starbucks.com/"}}, {"type": "node", "id": 2727229635, "lat": 12.9378458, "lon": 77.5852753, "tags": {"amenity": "cafe", "check_date": "2025-09-28", "name": "Ground Up Coffee", "takeaway": "yes"}}, {"type": "node", "id": 2727229637, "lat": 12.9409838, "lon": 77.5850433, "tags": {"amenity": "cafe", "name": "Cuppa"}}, {"type": "node", "id": 3004782370, "lat": 12.9287251, "lon": 77.5912567, "tags": {"amenity": "cafe", "brand": "Cafe Coffee Day", "brand:wikidata": "Q5017235", "cuisine": "coffee_shop", "name": "Cafe Coffee Day", "name:kn": "\u0c95\u0cab\u0cc6 \u0c95\u0cbe\u0cab\u0cbf \u0ca1\u0cc7", "takeaway": "yes"}}, {"type": "node", "id": 3019535004, "lat": 12.9659456, "lon": 77.5924964, "tags": {"addr:city": "Bangalore", "addr:postcode": "560027", "addr:street": "Chidananda Maharashi Ashram Road", "amenity": "cafe", "cuisine": "coffee_shop", "internet_access": "no", "name": "Chamundeshwari Coffee", "name:kn": "\u0c9a\u0cbe\u0cae\u0cc1\u0c82\u0ca1\u0cc7\u0cb6\u0ccd\u0cb5\u0cb0\u0cbf \u0c95\u0cbe\u0cab\u0cbf", "opening_hours": "05:00-19:30", "smoking": "no"}}, {"type": "node", "id": 3193511367, "lat": 13.0053577, "lon": 77.5810409, "tags": {"amenity": "cafe", "brand": "Cafe Coffee Day", "brand:wikidata": "Q5017235", "brand:wikipedia": "en:Caf\u00e9 Coffee Day", "cuisine": "coffee_shop", "name": "Cafe Coffee Day", "name:kn": "\u0c95\u0cab\u0cc6 \u0c95\u0cbe\u0cab\u0cbf \u0ca1\u0cc7", "takeaway": "yes"}}, {"type": "node", "id": 3202572738, "lat": 12.9811459, "lon": 77.6383277}, {"type": "node", "id": 3202572739, "lat": 12.9811479, "lon": 77.6384887}, {"type": "node", "id": 3202572740, "lat": 12.9809309, "lon": 77.6384919}, {"type": "node", "id": 3202572741, "lat": 12.9809288, "lon": 77.6383367}, {"type": "node", "id": 3226589031, "lat": 12.9844175, "lon": 77.6033409, "tags": {"amenity": "cafe", "name": "Sreeraj Lassi Bar", "name:kn": "\u0cb6\u0ccd\u0cb0\u0cc0\u0cb0\u0cbe\u0c9c\u0ccd \u0cb2\u0cb8\u0ccd\u0cb8\u0cbf \u0cac\u0cbe\u0cb0\u0ccd"}}, {"type": "node", "id": 3257966389, "lat": 12.9757451, "lon": 77.6046148, "tags": {"amenity": "cafe", "brand": "Cafe Coffee Day", "brand:wikidata": "Q5017235", "cuisine": "coffee_shop", "name": "Cafe Coffee Day", "name:kn": "\u0c95\u0cab\u0cc6 \u0c95\u0cbe\u0cab\u0cbf \u0ca1\u0cc7", "takeaway": "yes"}}, {"type": "node", "id": 3355609489, "lat": 12.9745629, "lon": 77.6073138, "tags": {"air_conditioning": "yes", "amenity": "cafe", "bar": "no", "brand": "Starbucks", "brand:pa": "\u0a38\u0a1f\u0a3e\u0a30\u0a2c\u0a15\u0a38", "brand:ur": "\u0627\u0633\u0679\u0627\u0631\u0628\u06a9\u0633", "brand:wikidata": "Q37158", "brand:wikipedia": "en:Starbucks", "check_date": "2024-08-19", "cuisine": "coffee_shop", "delivery": "yes", "drive_through": "no", "internet_access": "wlan", "internet_access:fee": "no", "level": "0", "name": "Starbucks", "name:kn": "\u0cb8\u0ccd\u0c9f\u0cbe\u0cb0\u0ccd\u0cac\u0c95\u0ccd\u0cb8\u0ccd", "name:pa": "\u0a38\u0a1f\u0a3e\u0a30\u0a2c\u0a15\u0a38", "name:ur": "\u0627\u0633\u0679\u0627\u0631\u0628\u06a9\u0633", "official_name": "Starbucks Coffee", "official_name:pa": "\u0a38\u0a1f\u0a3e\u0a30\u0a2c\u0a15\u0a38 \u0a15\u0a4c\u0a2b\u0a40", "official_name:ur": "\u0627\u0633\u0679\u0627\u0631\u0628\u06a9\u0633 \u06a9\u0627\u0641\u06cc", "opening_hours": "PH,Mo-Su 08:00-23:30", "outdoor_seating": "no", "payment:cash": "yes", "payment:mastercard": "yes", "payment:visa": "yes", "takeaway": "yes", "wheelchair": "no"}}, {"type": "node", "id": 3369890731, "lat": 12.9781425, "lon": 77.6387579, "tags": {"addr:street": "Chinmaya Mission Hospital Road", "amenity": "cafe", "brand": "Cafe Coffee Day", "brand:wikidata": "Q5017235", "brand:wikipedia": "en:Caf\u00e9 Coffee Day", "cuisine": "coffee_shop", "diet:vegetarian": "yes", "internet_access": "wlan", "name": "Cafe Coffee Day", "name:kn": "\u0c95\u0cab\u0cc6 \u0c95\u0cbe\u0cab\u0cbf \u0ca1\u0cc7", "takeaway": "yes"}}, {"type": "node", "id": 3383925324, "lat": 12.9791018, "lon": 77.6404958}, {"type": "node", "id": 3383925325, "lat": 12.9791025, "lon": 77.6406257}, {"type": "node", "id": 3383925327, "lat": 12.9792086, "lon": 77.6406251}, {"type": "node", "id": 3412397362, "lat": 12.9898332, "lon": 77.5561709, "tags": {"amenity": "cafe", "brand": "Cafe Coffee Day", "brand:wikidata": "Q5017235", "brand:wikipedia": "en:Caf\u00e9 Coffee Day", "cuisine": "coffee_shop", "name": "Cafe Coffee Day", "name:kn": "\u0c95\u0cab\u0cc6 \u0c95\u0cbe\u0cab\u0cbf \u0ca1\u0cc7", "takeaway": "yes", "wheelchair": "no"}}, {"type": "node", "id": 3458333997, "lat": 12.9715607, "lon": 77.5977977}, {"type": "node", "id": 3510015824, "lat": 12.9417768, "lon": 77.6215095, "tags": {"addr:city": "Koramangala", "addr:housenumber": "Ganapathi Temple Rd", "addr:postcode": "560095", "addr:street": "Koramangala 8th Block, Nanjappa Reddy Layout,", "amenity": "cafe", "cuisine": "coffee_shop", "internet_access": "yes", "name": "Juice Maker", "opening_hours": "08:00-23:00", "smoking": "outside"}}, {"type": "node", "id": 3510047245, "lat": 12.9371896, "lon": 77.6176798, "tags": {"addr:city": "Koramangala", "addr:housenumber": "Shop No. 1, No. 23 MIG", "addr:postcode": "560030", "addr:street": "KHB Colony, Next To Mangala Kalyana Mantapa 5th Block Adugodi Road, Koramangala 8th Block", "amenity": "cafe", "cuisine": "coffee_shop", "name": "Dyu Art Cafe", "opening_hours": "10:00-22:30"}}, {"type": "node", "id": 3510053759, "lat": 12.9360891, "lon": 77.6159498, "tags": {"addr:city": "Koramangala", "addr:housenumber": "Next to Airtel Office", "addr:postcode": "560095", "addr:street": "80 Feet Road, 5th Block", "amenity": "cafe", "cuisine": "Juice_shop", "internet_access": "no", "name": "Juicy", "smoking": "outside"}}, {"type": "node", "id": 3510063810, "lat": 12.9346905, "lon": 77.6159203, "tags": {"addr:city": "Koramangala", "addr:housenumber": "Near Hotel Empire International", "addr:postcode": "560095", "addr:street": "Koramangala 5th Block", "amenity": "cafe", "brand": "Chai Point", "brand:wikidata": "Q28173415", "cuisine": "coffee_shop", "name": "Chai Point", "takeaway": "yes"}}, {"type": "node", "id": 3526180140, "lat": 13.0036378, "lon": 77.6166655, "tags": {"amenity": "cafe", "cuisine": "indian", "name": "Indiradarshini", "name:en": "Indira Darshini", "name:hi": "\u0907\u0902\u0926\u093f\u0930\u093e \u0926\u0930\u094d\u0936\u093f\u0928\u0940", "name:kn": "\u0c87\u0c82\u0ca6\u0cbf\u0cb0\u0cbe \u0ca6\u0cb0\u0ccd\u0cb6\u0cbf\u0ca8\u0cbf", "opening_hours": "Mo-Su 07:00-21:00", "wheelchair": "no"}}, {"type": "node", "id": 3535942128, "lat": 12.9346819, "lon": 77.6255011}, {"type": "node", "id": 3535942149, "lat": 12.9347351, "lon": 77.6254105}, {"type": "node", "id": 3535942175, "lat": 12.9347878, "lon": 77.6255665}, {"type": "node", "id": 3535942396, "lat": 12.9348409, "lon": 77.6254759}, {"type": "node", "id": 3537796511, "lat": 12.9294846, "lon": 77.6031683}, {"type": "node", "id": 3537796514, "lat": 12.9295081, "lon": 77.603094}, {"type": "node", "id": 3537796530, "lat": 12.9296167, "lon": 77.6032123}, {"type": "node", "id": 3537796533, "lat": 12.9296402, "lon": 77.6031381}, {"type": "node", "id": 3537798035, "lat": 12.9309611, "lon": 77.600991}, {"type": "node", "id": 3537798040, "lat": 12.9309618, "lon": 77.6008299}, {"type": "node", "id": 3537798060, "lat": 12.9311409, "lon": 77.6010081}, {"type": "node", "id": 3537798061, "lat": 12.9311498, "lon": 77.6008512}, {"type": "node", "id": 3546180333, "lat": 12.9629426, "lon": 77.5875693, "tags": {"addr:street": "3rd Cross Road", "amenity": "cafe"}}, {"type": "node", "id": 3556046875, "lat": 12.9824022, "lon": 77.6376847, "tags": {"amenity": "cafe", "name": "Sree Manjunatha Coffee Bar"}}, {"type": "node", "id": 3556124476, "lat": 12.9822235, "lon": 77.6390347, "tags": {"amenity": "cafe", "name": "Juicea- Fresh juice and ice creams"}}, {"type": "node", "id": 3556379076, "lat": 12.9800955, "lon": 77.6398191, "tags": {"amenity": "cafe", "check_date": "2023-10-07", "name": "Le Cremosa", "shop": "bakery"}}, {"type": "node", "id": 3665564554, "lat": 12.9811573, "lon": 77.6366177, "tags": {"addr:city": "Bangalore", "addr:housenumber": "483", "addr:postcode": "560038", "addr:street": "13th Cross Road", "amenity": "cafe", "coffee": "no", "cuisine": "juice;salad", "drink:coffee": "no", "drink:juice": "yes", "name": "Fruit Face", "opening_hours": "Mo-Su 10:00-23:00", "smoking": "outside", "takeaway": "yes", "website": "http://fruitface.in/"}}, {"type": "node", "id": 3726120743, "lat": 12.981682, "lon": 77.6394877, "tags": {"amenity": "cafe", "cuisine": "tea", "name": "Chai Gali"}}, {"type": "node", "id": 3726145522, "lat": 12.9801908, "lon": 77.6372443, "tags": {"amenity": "cafe", "name": "Brahmin's Tatte Idli"}}, {"type": "node", "id": 3730961535, "lat": 12.9739292, "lon": 77.6232945, "tags": {"amenity": "cafe", "name": "Kumbakonam Traditional Coffee", "name:kn": "\u0c95\u0cc1\u0c82\u0cac\u0c95\u0cca\u0ca3\u0c82 \u0cb8\u0c82\u0caa\u0ccd\u0cb0\u0ca6\u0cbe\u0caf\u0c95 \u0c95\u0cbe\u0cab\u0cc0"}}, {"type": "node", "id": 3760236416, "lat": 12.9754589, "lon": 77.6067378, "tags": {"amenity": "cafe", "brand": "Cafe Coffee Day", "brand:wikidata": "Q5017235", "cuisine": "coffee_shop", "name": "Cafe Coffee Day", "name:kn": "\u0c95\u0cab\u0cc6 \u0c95\u0cbe\u0cab\u0cbf \u0ca1\u0cc7", "takeaway": "yes"}}, {"type": "node", "id": 3785884026, "lat": 12.9731918, "lon": 77.6167348, "tags": {"amenity": "cafe", "brand": "Chai Point", "brand:wikidata": "Q28173415", "check_date": "2024-12-29", "cuisine": "coffee_shop", "level": "0", "name": "Chai Point", "outdoor_seating": "no", "takeaway": "yes"}}, {"type": "node", "id": 3806281887, "lat": 12.9876025, "lon": 77.5736105, "tags": {"amenity": "cafe", "name": "Sri Manjunatha Condiments"}}, {"type": "node", "id": 3846368541, "lat": 12.9748429, "lon": 77.6153686, "tags": {"amenity": "cafe", "name": "Pinxx"}}, {"type": "node", "id": 3862580459, "lat": 12.9736889, "lon": 77.6112977, "tags": {"amenity": "cafe", "brand": "Cafe Coffee Day", "brand:wikidata": "Q5017235", "cuisine": "coffee_shop", "level": "0", "name": "Cafe Coffee Day", "name:kn": "\u0c95\u0cab\u0cc6 \u0c95\u0cbe\u0cab\u0cbf \u0ca1\u0cc7", "takeaway": "yes"}}, {"type": "node", "id": 3924977249, "lat": 12.9302063, "lon": 77.6140996, "tags": {"addr:street": "Hosur road", "amenity": "cafe", "name": "Seekers Cafe", "wheelchair": "yes"}}, {"type": "node", "id": 4130934098, "lat": 12.9608368, "lon": 77.5485824, "tags": {"amenity": "cafe", "name": "Bismillah Tea Hotel"}}, {"type": "node", "id": 4130960395, "lat": 12.962222, "lon": 77.5505208, "tags": {"amenity": "cafe"}}, {"type": "node", "id": 4130960396, "lat": 12.9615054, "lon": 77.5504015, "tags": {"amenity": "cafe", "name": "Bismillah Tea Hotel"}}, {"type": "node", "id": 4130960491, "lat": 12.9641082, "lon": 77.5504793, "tags": {"addr:street": "Hosahalli Main Road", "amenity": "cafe", "name": "Khalil Tea Hotel"}}, {"type": "node", "id": 4130960492, "lat": 12.9632318, "lon": 77.5500256, "tags": {"amenity": "cafe", "name": "Bombay tea hotel"}}, {"type": "node", "id": 4130961391, "lat": 12.9661241, "lon": 77.5521383, "tags": {"amenity": "cafe", "name": "Bismillah Tea Hotel"}}, {"type": "node", "id": 4130962591, "lat": 12.9638664, "lon": 77.5510308, "tags": {"amenity": "cafe", "name": "Bismillah Tea Hotel"}}, {"type": "node", "id": 4246843765, "lat": 12.9392188, "lon": 77.5600997, "tags": {"amenity": "cafe", "cuisine": "ice_cream", "name": "Prasad Icecream Parlour"}}, {"type": "node", "id": 4252092996, "lat": 12.9908261, "lon": 77.6193188, "tags": {"amenity": "cafe", "name": "Cafe Thulp", "toilets:wheelchair": "no", "wheelchair": "no"}}, {"type": "node", "id": 4258205108, "lat": 13.0053566, "lon": 77.5712414, "tags": {"amenity": "cafe", "name": "Oye Lassi"}}, {"type": "node", "id": 4302369009, "lat": 13.0085444, "lon": 77.5695202, "tags": {"amenity": "cafe", "brand": "Chai Point", "brand:wikidata": "Q28173415", "cuisine": "coffee_shop", "name": "Chai Point", "shop": "pastry", "takeaway": "yes", "website": "https://chaipoint.com/"}}, {"type": "node", "id": 4307156988, "lat": 12.9355231, "lon": 77.6189666, "tags": {"addr:city": "Bangalore", "addr:housenumber": "272", "addr:street": "17th D Main Rd, 5th Block, Koramangala", "amenity": "cafe", "cuisine": "regional;odia", "internet_access": "no", "name": "Pahala Rasagola shop", "note": "Odia sweets like Rasagola (Rosogola/Rasgulla), Chenapodo (Chenapoda) and other snacks like Dahibara-Aludomo (aludum), Singoda (singada/samosa), Alu-chopo (alu chop).", "opening_hours": "Mo-Su 07:30-21:00", "smoking": "no"}}, {"type": "node", "id": 4368864093, "lat": 12.9665145, "lon": 77.6065215, "tags": {"amenity": "cafe", "name": "Fruit xtracts"}}, {"type": "node", "id": 4413510290, "lat": 12.969833, "lon": 77.5775083, "tags": {"addr:city": "Bangalore", "addr:housenumber": "45/6", "addr:postcode": "500006", "addr:street": "6th Cross Road", "amenity": "cafe", "cuisine": "coffee_shop", "internet_access": "yes", "name": "CCD", "opening_hours": "09:00-06:00", "smoking": "no"}}, {"type": "node", "id": 4426126391, "lat": 13.0155316, "lon": 77.6394955, "tags": {"amenity": "cafe", "name": "Al Amanah Cafe", "name:en": "Al amanah cafe"}}, {"type": "node", "id": 4443274831, "lat": 13.0012948, "lon": 77.6324696, "tags": {"addr:full": "26/10, Banaswadi Main Road, Banaswadi Layout, Maruthi Sevanagar, Bangalore - 560033", "amenity": "cafe", "brand": "Cafe Coffee Day", "brand:wikidata": "Q5017235", "cuisine": "coffee_shop", "internet_access": "wlan", "level": "1", "name": "Cafe Coffee Day", "name:kn": "\u0c95\u0cab\u0cc6 \u0c95\u0cbe\u0cab\u0cbf \u0ca1\u0cc7", "opening_hours": "00:00-12:00", "phone": "8088862495", "smoking": "no", "takeaway": "yes"}}, {"type": "node", "id": 4445337724, "lat": 12.947133, "lon": 77.5694107, "tags": {"addr:city": "Bengaluru", "addr:housenumber": "95", "addr:postcode": "560004", "addr:street": "Gandhi Bazaar, Basavanagudi", "amenity": "cafe", "brand": "Cafe Coffee Day", "brand:wikidata": "Q5017235", "cuisine": "coffee_shop", "delivery": "yes", "name": "Cafe Coffee Day", "name:kn": "\u0c95\u0cab\u0cc6 \u0c95\u0cbe\u0cab\u0cbf \u0ca1\u0cc7", "opening_hours": "11:00-23:00", "phone": "080 3256 9590", "smoking": "no", "takeaway": "yes", "website": "https://www.cafecoffeeday.com/"}}, {"type": "node", "id": 4447594673, "lat": 12.9353486, "lon": 77.6249595, "tags": {"addr:housenumber": "41", "addr:street": "100 feet road, Koramangala 4th Block", "amenity": "cafe", "description": "Pay by the hour. INR 190 for the first hour. INR 3 per minute after that. Food and beverages on the house", "name": "Dialogues Cafe", "opening_hours": "Mo-Su 10:00-22:00", "phone": "098119 74842", "website": "www.dialoguescafe.com"}}, {"type": "node", "id": 4457721688, "lat": 12.9824862, "lon": 77.6393384, "tags": {"amenity": "cafe", "name": "Teal Door Cafe"}}, {"type": "node", "id": 4464435191, "lat": 12.9349175, "lon": 77.5829015, "tags": {"addr:street": "Jayanagar 3rd block", "amenity": "cafe", "cuisine": "coffee_shop;burger;american", "name": "Java City Jayanagar", "name:en": "Java City Jayanagar", "opening_hours": "Mo-Su 11:00-22:00"}}, {"type": "node", "id": 4506805592, "lat": 12.936323, "lon": 77.6148832, "tags": {"addr:postcode": "560084", "amenity": "cafe", "cuisine": "burger;sandwich;ice_cream;cake;coffee_shop;donut;pancake;pizza;italian_pizza;mexican;breakfast;tea;italian", "diet:vegetarian": "yes", "internet_access": "wlan", "name": "The Chocolate Room", "name:en": "The Chocolate Room", "name:hi": "The Chocolate Room", "opening_hours": "Mo-Su 11:00-23:00"}}, {"type": "node", "id": 4527833925, "lat": 12.9660378, "lon": 77.6023232, "tags": {"amenity": "cafe"}}, {"type": "node", "id": 4527833926, "lat": 12.9572546, "lon": 77.6074721, "tags": {"amenity": "cafe"}}, {"type": "node", "id": 4530356087, "lat": 12.9889585, "lon": 77.555959, "tags": {"amenity": "cafe", "name": "Priya Tiffin Room"}}, {"type": "node", "id": 4535329595, "lat": 12.9820341, "lon": 77.609063, "tags": {"amenity": "cafe", "brand": "Chai Point", "brand:wikidata": "Q28173415", "cuisine": "coffee_shop", "name": "Chai Point", "name:en": "Chai Point", "takeaway": "yes"}}, {"type": "node", "id": 4552303417, "lat": 13.009057, "lon": 77.5803021, "tags": {"addr:city": "Bangalore", "addr:postcode": "560080", "addr:street": "13th Cross Sadashivanagar", "air_conditioning": "yes", "amenity": "cafe", "brand": "Starbucks", "brand:pa": "\u0a38\u0a1f\u0a3e\u0a30\u0a2c\u0a15\u0a38", "brand:ur": "\u0627\u0633\u0679\u0627\u0631\u0628\u06a9\u0633", "brand:wikidata": "Q37158", "brand:wikipedia": "en:Starbucks", "check_date": "2024-11-26", "cuisine": "coffee_shop", "indoor_seating": "yes", "internet_access": "yes", "name": "Starbucks", "name:pa": "\u0a38\u0a1f\u0a3e\u0a30\u0a2c\u0a15\u0a38", "name:ur": "\u0627\u0633\u0679\u0627\u0631\u0628\u06a9\u0633", "official_name": "Starbucks Coffee", "official_name:pa": "\u0a38\u0a1f\u0a3e\u0a30\u0a2c\u0a15\u0a38 \u0a15\u0a4c\u0a2b\u0a40", "official_name:ur": "\u0627\u0633\u0679\u0627\u0631\u0628\u06a9\u0633 \u06a9\u0627\u0641\u06cc", "outdoor_seating": "no", "takeaway": "yes", "toilets": "yes"}}, {"type": "node", "id": 4586429691, "lat": 12.9874054, "lon": 77.5944696, "tags": {"amenity": "cafe", "brand": "Cafe Coffee Day", "brand:wikidata": "Q5017235", "cuisine": "coffee_shop", "name": "Cafe Coffee Day", "name:en": "Cafe Coffee Day", "name:kn": "\u0c95\u0cab\u0cc6 \u0c95\u0cbe\u0cab\u0cbf \u0ca1\u0cc7", "takeaway": "yes"}}, {"type": "node", "id": 4685605473, "lat": 12.9715392, "lon": 77.5979958}, {"type": "node", "id": 4713078054, "lat": 12.97895, "lon": 77.6405487, "tags": {"amenity": "cafe", "name": "The madteapot cafe"}}, {"type": "node", "id": 4733642622, "lat": 12.9356426, "lon": 77.6087092, "tags": {"addr:housenumber": "8", "addr:postcode": "560029", "addr:street": "Hosur Road", "amenity": "cafe", "cuisine": "italian_pizza", "email": "destreetcafe@mail.com", "name": "De Street Cafe", "name:en": "De Street Cafe", "opening_hours": "24/7"}}, {"type": "node", "id": 4841950721, "lat": 12.9453765, "lon": 77.59506, "tags": {"amenity": "cafe", "name": "AR Tea Sagar", "name:en": "AR Tea Sagar"}}, {"type": "node", "id": 4843123823, "lat": 12.9584582, "lon": 77.5934393, "tags": {"amenity": "cafe", "name": "Samsung smartcafe", "name:en": "Samsung smartcafe"}}, {"type": "node", "id": 4844865037, "lat": 12.985305, "lon": 77.6152381, "tags": {"amenity": "cafe", "name": "Pepper Cafe", "name:en": "Pepper Cafe"}}, {"type": "node", "id": 4846789723, "lat": 12.9729083, "lon": 77.6084987, "tags": {"amenity": "cafe", "name": "Driven Cafe", "name:en": "Driven Cafe"}}, {"type": "node", "id": 4846789825, "lat": 12.9756503, "lon": 77.6170739, "tags": {"amenity": "cafe", "name": "The French Loaf", "name:en": "The French Loaf"}}, {"type": "node", "id": 4846817422, "lat": 12.9746129, "lon": 77.6193934, "tags": {"addr:city": "Bengaluru", "addr:country": "IN", "addr:floor": "G", "addr:postcode": "560008", "addr:street": "Halasuru Road", "addr:suburb": "Ulsoor", "air_conditioning": "yes", "amenity": "cafe", "bar": "no", "check_date": "2025-01-11", "contact:instagram": "@marzipan.cafe", "cuisine": "greek", "delivery": "yes", "email": "marzipan.ulsoor@gmail.com", "level": "0", "name": "Marzipan Cafe", "name:en": "Marzipan Cafe", "outdoor_seating": "yes", "payment:cash": "yes", "payment:credit_cards": "yes", "payment:debit_cards": "yes", "phone": "9844422724", "shop": "bakery", "takeaway": "yes", "wheelchair": "no"}}, {"type": "node", "id": 4847850821, "lat": 12.9390995, "lon": 77.5946074, "tags": {"amenity": "cafe", "name": "Sri Ram coffee shop", "name:en": "Sri Ram coffee shop"}}, {"type": "node", "id": 4849094824, "lat": 12.9458364, "lon": 77.5959506, "tags": {"amenity": "cafe", "name": "Coffee works", "name:en": "Coffee works"}}, {"type": "node", "id": 4928125521, "lat": 13.0055374, "lon": 77.5711178, "tags": {"addr:street": "15th Cross Road", "amenity": "cafe", "name": "\u0cac\u0cbf\u0cb8\u0ccd\u0c95", "name:en": "Biska", "name:kn": "\u0cac\u0cbf\u0cb8\u0ccd\u0c95"}}, {"type": "node", "id": 5036138595, "lat": 12.9334968, "lon": 77.6212815, "tags": {"amenity": "cafe", "name": "Java City"}}, {"type": "node", "id": 5247276738, "lat": 12.9370109, "lon": 77.6275262, "tags": {"addr:housenumber": "8, near Sapphire toy store", "amenity": "cafe", "name": "Via Milano", "phone": "+918041309997"}}, {"type": "node", "id": 5304601923, "lat": 12.9386661, "lon": 77.549057, "tags": {"amenity": "cafe", "name": "coffee bite"}}, {"type": "node", "id": 5402224032, "lat": 12.9802917, "lon": 77.5779251, "tags": {"amenity": "cafe", "brand": "Cafe Coffee Day", "brand:wikidata": "Q5017235", "cuisine": "coffee_shop", "name": "Cafe Coffee Day", "name:kn": "\u0c95\u0cab\u0cc6 \u0c95\u0cbe\u0cab\u0cbf \u0ca1\u0cc7", "takeaway": "yes"}}, {"type": "node", "id": 5462868116, "lat": 12.9722318, "lon": 77.5787988, "tags": {"addr:housenumber": "34/35", "addr:street": "Kilari Road", "amenity": "cafe", "name": "South Canara Coffeehouse"}}, {"type": "node", "id": 5524163946, "lat": 12.9737445, "lon": 77.62041, "tags": {"amenity": "cafe", "level": "5", "name": "Cafe Felix"}}, {"type": "node", "id": 5915195084, "lat": 12.9347403, "lon": 77.6126656, "tags": {"amenity": "cafe", "name": "MDP Coffee shop"}}, {"type": "node", "id": 5915247700, "lat": 12.9329338, "lon": 77.6145578, "tags": {"amenity": "cafe", "name": "Tarbouche"}}, {"type": "node", "id": 5915409401, "lat": 12.9339899, "lon": 77.6170683, "tags": {"amenity": "cafe", "name": "Hatti Kaapi"}}, {"type": "node", "id": 6542893133, "lat": 13.0112702, "lon": 77.5556794, "tags": {"addr:city": "Bangalore", "addr:floor": "UG", "addr:housename": "Upper Ground Floor, Orion Mall", "addr:housenumber": "L1", "addr:street": "Dr. Rajkumar Road", "amenity": "cafe", "check_date": "2024-01-09", "contact:phone": "+91 8884457293", "level": "1", "name": "Hatti Kaapi", "name:kn": "\u0cb9\u0c9f\u0ccd\u0c9f\u0cbf \u0c95\u0cbe\u0cab\u0cbf", "outdoor_seating": "yes", "takeaway": "yes", "website": "www.hattikaapi.in"}}, {"type": "node", "id": 6542893134, "lat": 13.0116766, "lon": 77.5556861, "tags": {"addr:floor": "UG", "amenity": "cafe", "brand": "Chai Point", "brand:wikidata": "Q28173415", "check_date": "2024-01-09", "cuisine": "coffee_shop", "level": "1", "name": "Chai Point", "outdoor_seating": "yes", "takeaway": "yes"}}, {"type": "node", "id": 6542893146, "lat": 13.0110494, "lon": 77.5549485, "tags": {"addr:city": "Bangalore", "addr:housename": "Upper Ground Floow, Orion Mall", "addr:housenumber": "S1", "addr:street": "Dr. Rajkumar Road", "amenity": "cafe", "name": "Cookie Man", "website": "https://cookiemanindia.com/"}}, {"type": "node", "id": 6584009931, "lat": 12.974665, "lon": 77.6066507, "tags": {"amenity": "cafe", "brand": "Chai Point", "brand:wikidata": "Q28173415", "check_date": "2024-09-04", "cuisine": "coffee_shop", "internet_access": "wlan", "internet_access:fee": "customers", "level": "0", "name": "Chai Point", "outdoor_seating": "yes", "payment:cash": "yes", "payment:credit_cards": "yes", "payment:debit_cards": "yes", "takeaway": "yes", "wheelchair": "no"}}, {"type": "node", "id": 6584009960, "lat": 12.9729301, "lon": 77.6074769, "tags": {"amenity": "cafe", "name": "Tea Trails"}}, {"type": "node", "id": 6584009961, "lat": 12.9728288, "lon": 77.607387, "tags": {"amenity": "cafe", "name": "Frozen Bottle"}}, {"type": "node", "id": 6594341985, "lat": 12.9873463, "lon": 77.5959886, "tags": {"addr:city": "Bengaluru", "addr:country": "IN", "addr:housenumber": "7/1", "addr:postcode": "560052", "addr:street": "Edward Road", "amenity": "cafe", "contact:instagram": "champacabooks", "email": "hello@champaca.in", "level": "1", "name": "Champaca Bookstore, Library & Cafe", "opening_hours": "Tu-Su 11:00-19:00", "phone": "+91 93536 08989", "shop": "books", "website": "https://www.champaca.in/"}}, {"type": "node", "id": 6681215529, "lat": 12.9659363, "lon": 77.6035702, "tags": {"addr:floor": "G", "amenity": "cafe", "check_date": "2024-12-29", "level": "0", "name": "Cafe Mor'ish", "opening_hours": "08:30-22:00", "outdoor_seating": "no", "wheelchair": "limited"}}, {"type": "node", "id": 6681254112, "lat": 12.9869192, "lon": 77.5562131, "tags": {"amenity": "cafe", "name": "by 2 coffy"}}, {"type": "node", "id": 6702708923, "lat": 12.9822733, "lon": 77.6392502, "tags": {"amenity": "cafe", "name": "Kaapi Right"}}, {"type": "node", "id": 6832288685, "lat": 12.9669254, "lon": 77.6368937, "tags": {"addr:city": "Bengaluru", "addr:country": "IN", "addr:hamlet": "Domlur 2nd Stage", "addr:housenumber": "263", "addr:postcode": "560071", "addr:street": "3rd Cross Road", "amenity": "cafe", "email": "info@lavonne.in", "name": "Lavonne Caf\u00e9", "shop": "confectionery", "website": "https://lavonne.in/"}}, {"type": "node", "id": 6968692485, "lat": 12.9284055, "lon": 77.5816846, "tags": {"amenity": "cafe", "name": "Hatti Kaapi", "name:kn": "\u0cb9\u0c9f\u0ccd\u0c9f\u0cbf \u0c95\u0cbe\u0cab\u0cbf"}}, {"type": "node", "id": 7146770599, "lat": 12.9976465, "lon": 77.5523655, "tags": {"amenity": "cafe", "name": "Cafe 916 & Bake"}}, {"type": "node", "id": 7178597795, "lat": 12.973545, "lon": 77.6204172, "tags": {"addr:city": "Bengaluru", "addr:country": "IN", "addr:hamlet": "Ulsoor", "addr:housenumber": "1MG Mall", "addr:postcode": "560008", "addr:street": "Mahatma Gandhi Road", "amenity": "cafe", "name": "Food Hall", "website": "https://www.foodhallonline.com/"}}, {"type": "node", "id": 7192992580, "lat": 13.0063463, "lon": 77.5823289, "tags": {"amenity": "cafe", "cuisine": "coffee_shop;indian;burger", "name": "Nature's Cafe", "outdoor_seating": "yes"}}, {"type": "node", "id": 7255929445, "lat": 12.9995034, "lon": 77.6161296, "tags": {"amenity": "cafe", "name": "Cafe Arabica"}}, {"type": "node", "id": 7291611577, "lat": 13.0117027, "lon": 77.5520208, "tags": {"amenity": "cafe", "brand": "Cafe Coffee Day", "brand:wikidata": "Q5017235", "cuisine": "coffee_shop", "name": "Cafe Coffee Day", "name:kn": "\u0c95\u0cab\u0cc6 \u0c95\u0cbe\u0cab\u0cbf \u0ca1\u0cc7", "takeaway": "yes"}}, {"type": "node", "id": 7944450116, "lat": 13.0018413, "lon": 77.6235055, "tags": {"amenity": "cafe", "name": "Sunny Side Up", "outdoor_seating": "yes"}}, {"type": "node", "id": 8255015075, "lat": 13.0087525, "lon": 77.5693951, "tags": {"amenity": "cafe", "name": "Coffee Break"}}, {"type": "node", "id": 8645272055, "lat": 12.9333892, "lon": 77.6156339, "tags": {"amenity": "cafe", "currency:BCH": "yes", "name": "Candy Cloud", "website": "https://candycloudfactory.in"}}, {"type": "node", "id": 8758561575, "lat": 12.9701976, "lon": 77.6386624, "tags": {"amenity": "cafe", "brand": "Third Wave Coffee Roasters", "brand:wikidata": "Q7785004", "check_date": "2025-03-14", "cuisine": "coffee_shop", "delivery": "yes", "internet_access": "yes", "internet_access:fee": "no", "name": "Third Wave Coffee Roasters", "outdoor_seating": "yes", "payment:credit_cards": "yes", "payment:debit_cards": "yes", "takeaway": "yes", "toilets:wheelchair": "no", "website": "https://www.thirdwavecoffeeroasters.com/", "wheelchair": "yes"}}, {"type": "node", "id": 8873771371, "lat": 12.9285095, "lon": 77.5825416, "tags": {"amenity": "cafe", "name": "Lassi Park"}}, {"type": "node", "id": 8890701655, "lat": 12.9990894, "lon": 77.6242309}, {"type": "node", "id": 8890701656, "lat": 12.9990629, "lon": 77.6243002}, {"type": "node", "id": 8890701657, "lat": 12.9990061, "lon": 77.6242516}, {"type": "node", "id": 8890701658, "lat": 12.9990298, "lon": 77.6242031}, {"type": "node", "id": 9063471385, "lat": 12.98638, "lon": 77.5949228, "tags": {"amenity": "cafe", "check_date": "2024-08-31", "contact:instagram": "dolcicafeblr", "delivery": "yes", "name": "Dolci Cafe", "outdoor_seating": "yes", "takeaway": "yes"}}, {"type": "node", "id": 9140200231, "lat": 12.9639276, "lon": 77.6064804, "tags": {"amenity": "cafe", "name": "Makkah Cafe", "takeaway": "yes"}}, {"type": "node", "id": 9140200243, "lat": 12.9689448, "lon": 77.5842382, "tags": {"amenity": "cafe", "name": "Coffee"}}, {"type": "node", "id": 9179389770, "lat": 12.9583652, "lon": 77.604285, "tags": {"amenity": "cafe", "cuisine": "persian", "level": "3", "name": "The Cafe @ Saanchi", "outdoor_seating": "yes"}}, {"type": "node", "id": 9199641839, "lat": 12.9942201, "lon": 77.5843234, "tags": {"amenity": "cafe", "name": "Water Monkey Cafe", "opening_hours": "Mo-Su 11:00-18:30", "outdoor_seating": "yes", "takeaway": "yes"}}, {"type": "node", "id": 9214580909, "lat": 12.975783, "lon": 77.6057452, "tags": {"amenity": "cafe", "name": "Dasaprakash Cafe"}}, {"type": "node", "id": 9230655241, "lat": 12.97501, "lon": 77.6074728, "tags": {"amenity": "cafe", "name": "Cafe Azzure"}}, {"type": "node", "id": 9230655291, "lat": 12.9723937, "lon": 77.6184551, "tags": {"addr:floor": "G", "air_conditioning": "yes", "amenity": "cafe", "bar": "no", "brand": "Starbucks", "brand:pa": "\u0a38\u0a1f\u0a3e\u0a30\u0a2c\u0a15\u0a38", "brand:ur": "\u0627\u0633\u0679\u0627\u0631\u0628\u06a9\u0633", "brand:wikidata": "Q37158", "brand:wikipedia": "en:Starbucks", "capacity": "50", "check_date": "2024-06-23", "cuisine": "coffee_shop", "indoor_seating": "yes", "internet_access": "wlan", "internet_access:fee": "customers", "level": "0", "name": "Starbucks", "name:pa": "\u0a38\u0a1f\u0a3e\u0a30\u0a2c\u0a15\u0a38", "name:ur": "\u0627\u0633\u0679\u0627\u0631\u0628\u06a9\u0633", "official_name": "Starbucks Coffee", "official_name:pa": "\u0a38\u0a1f\u0a3e\u0a30\u0a2c\u0a15\u0a38 \u0a15\u0a4c\u0a2b\u0a40", "official_name:ur": "\u0627\u0633\u0679\u0627\u0631\u0628\u06a9\u0633 \u06a9\u0627\u0641\u06cc", "outdoor_seating": "no", "payment:cash": "yes", "payment:mastercard": "yes", "payment:visa": "yes", "takeaway": "yes", "toilets": "yes"}}, {"type": "node", "id": 9230690428, "lat": 12.9992268, "lon": 77.6160355, "tags": {"amenity": "cafe", "name": "Taj Tea House"}}, {"type": "node", "id": 9288431562, "lat": 12.9709404, "lon": 77.6402441, "tags": {"amenity": "cafe", "name": "Maison du", "payment:credit_cards": "yes", "payment:debit_cards": "yes"}}, {"type": "node", "id": 9381352866, "lat": 12.9737225, "lon": 77.6032468, "tags": {"air_conditioning": "yes", "amenity": "cafe", "check_date": "2025-04-12", "cuisine": "pastry;coffee_shop;tea;cake", "delivery": "yes", "level": "0;1", "name": "Amintri Cafe and Pastries", "outdoor_seating": "yes", "payment:cash": "yes", "payment:credit_cards": "yes", "payment:debit_cards": "yes", "wheelchair": "no"}}, {"type": "node", "id": 9507141939, "lat": 12.959883, "lon": 77.5978925, "tags": {"amenity": "cafe", "cuisine": "juice", "internet_access": "no", "name": "Sreeraj Lassi Bar", "outdoor_seating": "no"}}, {"type": "node", "id": 9507166593, "lat": 12.9611473, "lon": 77.5982936, "tags": {"amenity": "cafe", "cuisine": "tea_shop", "name": "Karak Chai", "outdoor_seating": "no"}}, {"type": "node", "id": 9532858987, "lat": 12.97119, "lon": 77.5982058, "tags": {"addr:city": "Bangalore", "addr:street": "Lavelle Road", "amenity": "cafe", "brand": "Starbucks", "brand:wikidata": "Q37158", "building": "yes", "check_date": "2025-01-31", "cuisine": "coffee_shop", "internet_access": "wlan", "name": "Starbucks", "official_name": "Starbucks Coffee", "smoking": "outside", "takeaway": "yes"}}, {"type": "node", "id": 9532858988, "lat": 12.9712972, "lon": 77.5975701, "tags": {"amenity": "cafe", "brand": "Theobroma", "check_date": "2025-01-31", "delivery": "yes", "name": "Theobroma", "shop": "pastry", "takeaway": "yes"}}, {"type": "node", "id": 9532858994, "lat": 12.9695074, "lon": 77.6003515, "tags": {"amenity": "cafe", "name": "Lavonne Cafe"}}, {"type": "node", "id": 9545465495, "lat": 12.9637891, "lon": 77.6403908, "tags": {"addr:floor": "G", "amenity": "cafe", "check_date": "2024-11-09", "contact:facebook": "plume.delicacies", "contact:instagram": "plume.delicacies", "delivery": "yes", "level": "0", "name": "Caf\u00e9 Plume", "outdoor_seating": "yes", "takeaway": "yes"}}, {"type": "node", "id": 9573432743, "lat": 12.9852765, "lon": 77.5958897, "tags": {"addr:city": "Bangalore", "addr:country": "IN", "addr:housename": "The Hatworks Boulevard", "addr:housenumber": "32", "addr:postcode": "560052", "addr:street": "Cunningham Road", "addr:suburb": "Vasanth Nagar", "amenity": "cafe", "name": "Trippy Goat Cafe", "outdoor_seating": "yes", "toilets": "yes"}}, {"type": "node", "id": 9573432745, "lat": 12.9875523, "lon": 77.5947766, "tags": {"addr:city": "Bengaluru", "addr:country": "IN", "addr:housenumber": "18", "addr:postcode": "560052", "addr:street": "Cunningham Road", "amenity": "cafe", "brand": "Third Wave Coffee Roasters", "brand:wikidata": "Q7785004", "cuisine": "coffee_shop", "delivery": "yes", "internet_access": "yes", "internet_access:fee": "no", "name": "Third Wave Coffee Roasters", "opening_hours": "08:00-00:00", "operator": "Third Wave Coffee", "smoking": "no", "takeaway": "yes", "website": "https://www.thirdwavecoffeeroasters.com/pages/bangalore-cunningham-rd"}}, {"type": "node", "id": 9573432747, "lat": 12.9891564, "lon": 77.5926858, "tags": {"amenity": "cafe", "name": "India Chai Lounge"}}, {"type": "node", "id": 9672296508, "lat": 12.9811568, "lon": 77.6141516, "tags": {"amenity": "cafe", "delivery": "yes", "name": "Maverick and Farmer Coffee", "outdoor_seating": "yes", "takeaway": "yes", "website": "https://www.maverickandfarmer.com/"}}, {"type": "node", "id": 9687954318, "lat": 12.9865306, "lon": 77.6194645, "tags": {"amenity": "cafe", "check_date": "2024-04-20", "dog": "leashed", "highchair": "yes", "name": "Kaara by Lake", "outdoor_seating": "yes", "pets": "yes", "takeaway": "yes", "toilets": "yes", "toilets:wheelchair": "limited", "wheelchair": "limited"}}, {"type": "node", "id": 9723056435, "lat": 12.9698942, "lon": 77.6386368, "tags": {"amenity": "cafe", "name": "Avoke: The Avocado Cafe", "payment:credit_cards": "yes", "payment:debit_cards": "yes"}}, {"type": "node", "id": 9723056489, "lat": 12.969035, "lon": 77.6361658, "tags": {"amenity": "cafe", "check_date": "2025-03-14", "name": "infinitea"}}, {"type": "node", "id": 9723056490, "lat": 12.966793, "lon": 77.6352431, "tags": {"amenity": "cafe", "level": "0", "name": "Coffee Mechanics"}}, {"type": "node", "id": 9738943447, "lat": 12.968292, "lon": 77.6027535, "tags": {"amenity": "cafe", "name": "Ground Up Coffee", "shop": "coffee"}}, {"type": "node", "id": 9775599250, "lat": 12.9732797, "lon": 77.6072583, "tags": {"amenity": "cafe", "name": "Just BLR"}}, {"type": "node", "id": 9779286686, "lat": 12.9927174, "lon": 77.5907506, "tags": {"amenity": "cafe", "name": "Pure and Natural"}}, {"type": "node", "id": 9779286691, "lat": 12.9927618, "lon": 77.5892942, "tags": {"amenity": "cafe", "name": "Desserted"}}, {"type": "node", "id": 9780918379, "lat": 13.0007264, "lon": 77.5494271, "tags": {"amenity": "cafe", "name": "Slice N Dice Cafe"}}, {"type": "node", "id": 9796145357, "lat": 12.98131, "lon": 77.612613, "tags": {"amenity": "cafe", "name": "Cafe Stone", "outdoor_seating": "yes"}}, {"type": "node", "id": 9796561552, "lat": 12.9811522, "lon": 77.6032115, "tags": {"addr:city": "Bengaluru", "addr:country": "IN", "addr:housename": "Prestige Central", "addr:housenumber": "36", "addr:postcode": "560001", "addr:street": "Infantry Road", "amenity": "cafe", "delivery": "yes", "name": "Blue Tokai", "operator": "Blue Tokai", "takeaway": "yes", "website": "https://bluetokaicoffee.com/"}}, {"type": "node", "id": 9797011350, "lat": 12.9856477, "lon": 77.6017275, "tags": {"amenity": "cafe", "name": "Chai Shop"}}, {"type": "node", "id": 9828605792, "lat": 12.9760006, "lon": 77.602614, "tags": {"amenity": "cafe", "name": "Zed The Baker", "shop": "bakery"}}, {"type": "node", "id": 9872645103, "lat": 12.9895171, "lon": 77.5561675, "tags": {"amenity": "cafe", "name": "Tandoor Chai Point"}}, {"type": "node", "id": 9890165409, "lat": 12.9703013, "lon": 77.6360987, "tags": {"amenity": "cafe", "diet:vegan": "yes", "name": "Charlie Chaplain La Vegano"}}, {"type": "node", "id": 9910000932, "lat": 12.9977366, "lon": 77.5493745, "tags": {"amenity": "cafe", "name": "Kaappi Ready"}}, {"type": "node", "id": 9935476931, "lat": 13.0070091, "lon": 77.5690261, "tags": {"amenity": "cafe", "name": "Third Wave Coffee", "operator": "Third Wave Coffee", "takeaway": "yes"}}, {"type": "node", "id": 9954120118, "lat": 12.9391694, "lon": 77.6283469, "tags": {"amenity": "cafe", "name": "Chubby Chai"}}, {"type": "node", "id": 9967388991, "lat": 12.9699094, "lon": 77.609892, "tags": {"amenity": "cafe", "brand": "Cafe Coffee Day", "brand:wikidata": "Q5017235", "cuisine": "coffee_shop", "name": "Cafe Coffee Day", "name:kn": "\u0c95\u0cab\u0cc6 \u0c95\u0cbe\u0cab\u0cbf \u0ca1\u0cc7", "takeaway": "yes"}}, {"type": "node", "id": 9981910307, "lat": 12.974683, "lon": 77.6067111, "tags": {"amenity": "cafe", "brand": "Third Wave Coffee Roasters", "brand:wikidata": "Q7785004", "check_date": "2024-09-05", "cuisine": "coffee_shop", "delivery": "yes", "internet_access": "wlan", "internet_access:fee": "customers", "level": "0", "name": "Third Wave Coffee Roasters", "payment:cash": "yes", "payment:credit_cards": "yes", "payment:debit_cards": "yes", "takeaway": "yes", "wheelchair": "no"}}, {"type": "node", "id": 10009475817, "lat": 12.9688078, "lon": 77.6013703, "tags": {"amenity": "cafe", "name": "Fuga"}}, {"type": "node", "id": 10036648122, "lat": 12.9409106, "lon": 77.6242697, "tags": {"amenity": "cafe", "name": "Tea Coffee House"}}, {"type": "node", "id": 10036648219, "lat": 12.9414494, "lon": 77.6236346, "tags": {"amenity": "cafe", "check_date": "2023-11-30", "name": "Cafe Five Guys"}}, {"type": "node", "id": 10051816953, "lat": 12.9699145, "lon": 77.639208, "tags": {"amenity": "cafe", "check_date": "2024-10-13", "name": "Araku Coffee", "name:en": "Araku Coffee", "payment:credit_cards": "yes", "payment:debit_cards": "yes", "wheelchair": "no"}}, {"type": "node", "id": 10051816956, "lat": 12.9688477, "lon": 77.6002752, "tags": {"amenity": "cafe", "name": "Delistic", "shop": "chocolate", "website": "https://www.delistic.in/"}}, {"type": "node", "id": 10068956760, "lat": 12.9338428, "lon": 77.6197996, "tags": {"amenity": "cafe", "name": "What's In a Name"}}, {"type": "node", "id": 10068956859, "lat": 12.9407577, "lon": 77.6202069, "tags": {"amenity": "cafe", "name": "Blue Tokai"}}, {"type": "node", "id": 10073419802, "lat": 12.9851903, "lon": 77.5806709, "tags": {"addr:floor": "G", "air_conditioning": "yes", "alt_name": "Nerlu Cafe", "amenity": "cafe", "check_date": "2025-08-24", "cuisine": "coffee_shop", "internet_access": "wlan", "internet_access:fee": "no", "internet_access:ssid": "Nerlu", "level": "0", "name": "ner.lu", "outdoor_seating": "yes", "start_date": "2022-07-01"}}, {"type": "node", "id": 10075729572, "lat": 12.9824601, "lon": 77.6384512, "tags": {"addr:country": "IN", "addr:hamlet": "ST Bed Layout", "addr:postcode": "560095", "addr:suburb": "Koramangala", "amenity": "cafe", "check_date": "2024-11-10", "contact:instagram": "brezelhaus.craftery", "cuisine": "german", "delivery": "yes", "email": "info@germanbrezelhaus.com", "full_name": "German BrezelHaus - Bakery & Bistro", "mobile": "+91 6363343907", "name": "German BrezelHaus", "opening_hours": "Tu-Su 10:00-20:00", "outdoor_seating": "yes", "phone": "+91 63637 85582", "shop": "bakery", "start_date": "2024-11", "takeaway": "yes", "website": "https://www.germanbrezelhaus.com/"}}, {"type": "node", "id": 10124399238, "lat": 13.0072927, "lon": 77.5485065, "tags": {"amenity": "cafe", "name": "Tealicious"}}, {"type": "node", "id": 10139996737, "lat": 12.9703055, "lon": 77.6399193, "tags": {"amenity": "cafe", "brand": "Starbucks", "brand:wikidata": "Q37158", "cuisine": "coffee_shop", "level": "0", "name": "Starbucks", "official_name": "Starbucks Coffee", "takeaway": "yes"}}, {"type": "node", "id": 10159788179, "lat": 13.0114451, "lon": 77.5548993, "tags": {"addr:floor": "UG", "amenity": "cafe", "check_date": "2023-09-10", "level": "1", "name": "Theobroma", "outdoor_seating": "no"}}, {"type": "node", "id": 10159788180, "lat": 13.0107148, "lon": 77.5553119, "tags": {"amenity": "cafe", "brand": "Starbucks", "brand:wikidata": "Q37158", "cuisine": "coffee_shop", "indoor_seating": "yes", "name": "Starbucks", "official_name": "Starbucks Coffee", "outdoor_seating": "no", "takeaway": "yes"}}, {"type": "node", "id": 10159788181, "lat": 13.011584, "lon": 77.5548391, "tags": {"addr:floor": "1", "amenity": "cafe", "check_date": "2023-09-10", "level": "2", "name": "SMOOR"}}, {"type": "node", "id": 10171897485, "lat": 12.979878, "lon": 77.6393583, "tags": {"amenity": "cafe", "check_date": "2023-02-09", "name": "Cafe Terra", "website": "https://www.cafe-terra.com"}}, {"type": "node", "id": 10178386010, "lat": 12.9778518, "lon": 77.6370931, "tags": {"addr:city": "Bengaluru", "addr:country": "IN", "addr:housenumber": "549A", "addr:postcode": "560038", "addr:street": "9th A Main Road", "addr:suburb": "Indiranagar", "amenity": "cafe", "contact:instagram": "copperandcloves.cafes", "delivery": "yes", "diet:vegan": "yes", "name": "Copper + Cloves", "opening_hours": "7:30-21:00", "takeaway": "yes", "website": "https://copperandcloves.com"}}, {"type": "node", "id": 10203735337, "lat": 12.969133, "lon": 77.6358587, "tags": {"addr:city": "Bangalore", "addr:country": "IN", "addr:hamlet": "HAL 2nd Stage", "addr:housenumber": "3165", "addr:postcode": "560038", "addr:street": "12th Cross Road", "addr:suburb": "Indiranagar", "amenity": "cafe", "check_date": "2025-03-14", "contact:instagram": "humblebeancoffee", "email": "info@humblebeancoffee.com", "name": "HumbleBean Coffee", "opening_hours": "10:00-20:00", "takeaway": "yes", "website": "https://humblebeancoffee.com"}}, {"type": "node", "id": 10220802211, "lat": 12.9342205, "lon": 77.617012, "tags": {"amenity": "cafe", "name": "Atta Galatta", "shop": "books"}}, {"type": "node", "id": 10236025482, "lat": 12.969789, "lon": 77.5974038, "tags": {"amenity": "cafe", "brand": "Glen's Bakehouse", "check_date": "2024-08-19", "delivery": "yes", "name": "Glen's Bakehouse", "shop": "pastry", "takeaway": "yes"}}, {"type": "node", "id": 10244979164, "lat": 12.9338482, "lon": 77.5837728, "tags": {"addr:city": "Bangalore", "addr:country": "IN", "addr:hamlet": "Jayanagar 3rd Block", "addr:housenumber": "68/150/4", "addr:postcode": "560011", "addr:street": "9th Main Road", "addr:suburb": "Jayanagar", "amenity": "cafe", "contact:instagram": "nowboardingcafe", "contact:twitter": "nowboardingcafe", "email": "nowboardingcafe@gmail.com", "level": "2", "mobile": "7259911150", "name": "Now Boarding Cafe", "opening_hours": "Tu-Su 12:00-23:00", "phone": "9663568855", "website": "https://linktr.ee/nowboardingcafe"}}, {"type": "node", "id": 10265825073, "lat": 12.9727906, "lon": 77.6066668, "tags": {"addr:city": "Bangalore", "addr:country": "IN", "addr:district": "Bangalore Urban", "addr:hamlet": "Shanthala Nagar", "addr:housename": "Forum Rex Walk", "addr:housenumber": "202", "addr:postcode": "560001", "addr:state": "Karnataka", "addr:street": "Brigade Road", "addr:suburb": "Ashok Nagar", "amenity": "cafe", "check_date": "2024-08-19", "contact:instagram": "tartalert", "email": "info@tart.co.in", "level": "0", "name": "T'ART Cafe", "official_name": "T'art Boulangerie & Patisserie", "phone": "9380357634", "shop": "bakery", "website": "https://tart.co.in/"}}, {"type": "node", "id": 10272932181, "lat": 12.9717441, "lon": 77.6008773, "tags": {"amenity": "cafe", "name": "Truffles"}}, {"type": "node", "id": 10276162821, "lat": 13.0028208, "lon": 77.5502777, "tags": {"amenity": "cafe", "name": "Connectivitea", "outdoor_seating": "yes", "takeaway": "yes"}}, {"type": "node", "id": 10286250883, "lat": 12.981177, "lon": 77.563085, "tags": {"amenity": "cafe", "brand": "Starbucks", "brand:wikidata": "Q37158", "cuisine": "coffee_shop", "name": "Starbucks", "official_name": "Starbucks Coffee", "operator": "Starbucks", "takeaway": "yes"}}, {"type": "node", "id": 10295397892, "lat": 12.971403, "lon": 77.6008156, "tags": {"amenity": "cafe", "name": "SLAY Coffee", "shop": "coffee"}}, {"type": "node", "id": 10295411750, "lat": 12.975061, "lon": 77.6040322, "tags": {"amenity": "cafe", "name": "Blini Bistro"}}, {"type": "node", "id": 10297771171, "lat": 12.981311, "lon": 77.6405264, "tags": {"amenity": "cafe", "name": "Playful Palette Bistro"}}, {"type": "node", "id": 10314122725, "lat": 12.9347397, "lon": 77.6296212, "tags": {"amenity": "cafe", "brand": "Third Wave Coffee Roasters", "brand:wikidata": "Q7785004", "cuisine": "coffee_shop", "delivery": "yes", "name": "Third Wave Coffee Roasters", "operator": "Third Wave Coffee Roasters", "takeaway": "yes"}}, {"type": "node", "id": 10524276373, "lat": 12.9732339, "lon": 77.608862, "tags": {"amenity": "cafe", "name": "Pride Cafe"}}, {"type": "node", "id": 10649347387, "lat": 12.935354, "lon": 77.6284155, "tags": {"amenity": "cafe", "delivery": "yes", "name": "Maverick and Farmer Coffee", "takeaway": "yes", "website": "https://www.maverickandfarmer.com/"}}, {"type": "node", "id": 10676117962, "lat": 13.0090515, "lon": 77.5807017, "tags": {"amenity": "cafe", "brand": "Barista", "brand:wikidata": "Q644735", "cuisine": "coffee_shop", "name": "Barista", "takeaway": "yes"}}, {"type": "node", "id": 10676117963, "lat": 13.0083014, "lon": 77.5798273, "tags": {"amenity": "cafe", "name": "Third Wave Coffee Roasters", "operator": "Third Wave Coffee Roasters"}}, {"type": "node", "id": 10680782993, "lat": 13.0085545, "lon": 77.5635455, "tags": {"addr:housenumber": "111", "addr:postcode": "560055", "addr:street": "8th Main Road", "amenity": "cafe", "bar": "no", "check_date": "2024-10-29", "contact:instagram": "https://www.instagram.com/harmakkicoffee", "cuisine": "coffee_shop", "delivery": "yes", "diet:vegan": "yes", "diet:vegetarian": "yes", "drive_through": "no", "internet_access": "wlan", "internet_access:fee": "customers", "name": "Harmakki Coffee Company", "opening_hours": "10:00-21:00", "outdoor_seating": "no", "payment:cash": "yes", "payment:mastercard": "yes", "payment:visa": "yes", "takeaway": "yes", "toilets": "yes"}}, {"type": "node", "id": 10694736146, "lat": 12.9688696, "lon": 77.6358915, "tags": {"amenity": "cafe", "name": "Cafe Muziris", "takeaway": "yes"}}, {"type": "node", "id": 10728008696, "lat": 12.9333868, "lon": 77.6223524, "tags": {"amenity": "cafe", "contact:facebook": "theteatoastco", "contact:instagram": "theteatoastco", "contact:twitter": "TheTeaToastCo", "delivery": "yes", "name": "The Tea Toast Co.", "takeaway": "yes", "website": "https://www.theteatoastco.in"}}, {"type": "node", "id": 10731156961, "lat": 12.974959, "lon": 77.599563, "tags": {"amenity": "cafe", "check_date": "2024-08-19", "name": "O'ver Coffee"}}, {"type": "node", "id": 10753340367, "lat": 12.9746415, "lon": 77.5967427, "tags": {"amenity": "cafe", "indoor_seating": "yes", "name": "MAP Cafe", "outdoor_seating": "no"}}, {"type": "node", "id": 10761493314, "lat": 12.9870949, "lon": 77.5957107, "tags": {"addr:city": "Bengaluru", "addr:country": "IN", "addr:floor": "G", "addr:housenumber": "7/2", "addr:postcode": "560052", "addr:street": "Edward Road", "air_conditioning": "no", "amenity": "cafe", "check_date": "2024-06-29", "contact:instagram": "labonita.blr", "delivery": "yes", "diet:vegan": "yes", "diet:vegetarian": "yes", "level": "0", "name": "La Bonita Confiteria", "opening_hours": "Tu-Sa 09:00-19:00; Su 08:00-20:00", "outdoor_seating": "yes", "takeaway": "yes", "toilets": "yes", "toilets:wheelchair": "no", "wheelchair": "yes"}}, {"type": "node", "id": 10908375116, "lat": 12.9727456, "lon": 77.6067858, "tags": {"addr:city": "Bangalore", "addr:country": "IN", "addr:district": "Bangalore Urban", "addr:hamlet": "Shanthala Nagar", "addr:housename": "Forum Rex Walk", "addr:housenumber": "202", "addr:postcode": "560001", "addr:state": "Karnataka", "addr:street": "Brigade Road", "addr:suburb": "Ashok Nagar", "amenity": "cafe", "check_date": "2024-11-24", "cuisine": "turkish", "level": "0", "name": "Klava"}}, {"type": "node", "id": 10979409747, "lat": 12.9850531, "lon": 77.6182955, "tags": {"addr:city": "Bengaluru", "addr:country": "IN", "addr:housenumber": "32", "addr:postcode": "560042", "addr:state": "Karnataka", "addr:street": "Annaswamy Mudaliar Road", "addr:suburb": "Ulsoor", "amenity": "cafe", "contact:instagram": "myurbansolace", "cuisine": "american", "name": "Urban Solace", "name:kn": "\u0c85\u0cb0\u0ccd\u0cac\u0ca8\u0ccd \u0cb8\u0cca\u0cb2\u0cc7\u0cb8\u0ccd"}}, {"type": "node", "id": 11005461570, "lat": 13.0050579, "lon": 77.623362, "tags": {"amenity": "cafe", "name": "Cafe Hug"}}, {"type": "node", "id": 11005547716, "lat": 13.0036865, "lon": 77.6225968, "tags": {"amenity": "cafe", "check_date": "2024-10-17", "name": "Olive Cafe", "name:kn": "\u0c86\u0cb2\u0cbf\u0cb5\u0ccd \u0c95\u0cab\u0cbc\u0cc6"}}, {"type": "node", "id": 11019815734, "lat": 12.9698139, "lon": 77.6379119, "tags": {"amenity": "cafe", "name": "Conc\u0327u"}}, {"type": "node", "id": 11035521590, "lat": 12.9757608, "lon": 77.6024073, "tags": {"addr:housenumber": "46", "addr:street": "Church Street", "amenity": "cafe", "check_date": "2025-02-15", "contact:instagram": "https://www.instagram.com/thecaffeinebaar", "cuisine": "coffee_shop", "delivery": "yes", "internet_access": "wlan", "internet_access:fee": "customers", "name": "The Caffeine Baar", "opening_hours": "08:00-23:00", "outdoor_seating": "yes", "takeaway": "yes", "toilets": "yes", "website": "https://thecaffeinebaar.com", "wheelchair": "yes"}}, {"type": "node", "id": 11046880966, "lat": 13.0048779, "lon": 77.6171409, "tags": {"amenity": "cafe", "delivery": "yes", "name": "Chez Kina", "shop": "bakery", "takeaway": "yes"}}, {"type": "node", "id": 11063128444, "lat": 12.9886447, "lon": 77.5940005, "tags": {"amenity": "cafe", "brand": "Starbucks", "brand:wikidata": "Q37158", "cuisine": "coffee_shop", "name": "Starbucks", "official_name": "Starbucks Coffee", "takeaway": "yes"}}, {"type": "node", "id": 11063128445, "lat": 12.9885799, "lon": 77.594038, "tags": {"amenity": "cafe", "brand": "Chaayos", "brand:wikidata": "Q117235235", "cuisine": "tea", "name": "Chaayos", "takeaway": "yes"}}, {"type": "node", "id": 11072723349, "lat": 13.0159517, "lon": 77.5622687, "tags": {"amenity": "cafe", "brand": "Cafe Coffee Day", "brand:wikidata": "Q5017235", "cuisine": "coffee_shop", "name": "Cafe Coffee Day", "name:kn": "\u0c95\u0cab\u0cc6 \u0c95\u0cbe\u0cab\u0cbf \u0ca1\u0cc7", "takeaway": "yes"}}, {"type": "node", "id": 11096390256, "lat": 12.9356285, "lon": 77.6210394, "tags": {"amenity": "cafe", "name": "Fresh Pressery"}}, {"type": "node", "id": 11096390285, "lat": 12.9341198, "lon": 77.6169953, "tags": {"amenity": "cafe", "name": "Jalandhar Sweets"}}, {"type": "node", "id": 11096903665, "lat": 13.0002181, "lon": 77.6257065, "tags": {"amenity": "cafe", "check_date": "2024-08-11", "name": "Cafe Lazy Lad"}}, {"type": "node", "id": 11117236924, "lat": 12.9275794, "lon": 77.5808948, "tags": {"amenity": "cafe", "name": "Tea Villa Cafe Jayanagar"}}, {"type": "node", "id": 11117270552, "lat": 12.937942, "lon": 77.6262087, "tags": {"amenity": "cafe", "brand": "Glen's Bakehouse", "delivery": "yes", "name": "Glen's Bakehouse", "shop": "pastry", "takeaway": "yes"}}, {"type": "node", "id": 11125193108, "lat": 13.0120438, "lon": 77.5564921, "tags": {"amenity": "cafe", "name": "The World Cafe"}}, {"type": "node", "id": 11178123521, "lat": 12.9581135, "lon": 77.5684411, "tags": {"amenity": "cafe", "check_date": "2023-09-09", "cuisine": "coffee_shop", "name": "2 Half Coffee"}}, {"type": "node", "id": 11180325241, "lat": 13.0079648, "lon": 77.5562786, "tags": {"amenity": "cafe", "brand": "Cafe Coffee Day", "brand:wikidata": "Q5017235", "check_date": "2023-09-10", "cuisine": "coffee_shop", "name": "Cafe Coffee Day", "name:kn": "\u0c95\u0cab\u0cc6 \u0c95\u0cbe\u0cab\u0cbf \u0ca1\u0cc7", "takeaway": "yes"}}, {"type": "node", "id": 11214889007, "lat": 12.972545, "lon": 77.6073523, "tags": {"amenity": "cafe", "brand": "Starbucks", "brand:wikidata": "Q37158", "check_date": "2024-08-19", "cuisine": "coffee_shop", "indoor_seating": "yes", "name": "Starbucks", "official_name": "Starbucks Coffee", "outdoor_seating": "no", "takeaway": "yes"}}, {"type": "node", "id": 11214889025, "lat": 12.9857351, "lon": 77.5877616, "tags": {"addr:city": "Bengaluru", "addr:country": "IN", "addr:hamlet": "High Grounds", "addr:housename": "Prestige Trade Tower", "addr:postcode": "560001", "addr:street": "Palace Road", "addr:suburb": "Sampangi Rama Nagar", "addr:unit": "The Courtyard by Sublime", "amenity": "cafe", "name": "Boba Tree"}}, {"type": "node", "id": 11215576556, "lat": 12.9748074, "lon": 77.6062759, "tags": {"amenity": "cafe", "check_date": "2025-02-24", "level": "0", "name": "Qube Cafe", "payment:cards": "no", "payment:cash": "no", "payment:credit_cards": "no", "payment:debit_cards": "no", "payment:upi": "yes", "takeaway": "only"}}, {"type": "node", "id": 11215840059, "lat": 12.9433205, "lon": 77.5677668, "tags": {"amenity": "cafe", "name": "Juice Junction"}}, {"type": "node", "id": 11277885670, "lat": 12.9395026, "lon": 77.5846124, "tags": {"amenity": "cafe", "contact:instagram": "isobel_cb", "name": "Isobel"}}, {"type": "node", "id": 11277885676, "lat": 12.935039, "lon": 77.6161015, "tags": {"amenity": "cafe", "contact:instagram": "avocadosandbrownies.in", "name": "Avocados and Brownies"}}, {"type": "node", "id": 11279297560, "lat": 13.011807, "lon": 77.5569139, "tags": {"amenity": "cafe", "check_date": "2023-10-21", "name": "Nebula"}}, {"type": "node", "id": 11285259372, "lat": 12.9806797, "lon": 77.5635843, "tags": {"air_conditioning": "yes", "amenity": "cafe", "brand": "Costa", "brand:wikidata": "Q608845", "check_date": "2023-10-23", "cuisine": "coffee_shop", "diet:vegan": "yes", "diet:vegetarian": "yes", "indoor_seating": "yes", "name": "Costa", "outdoor_seating": "no", "smoking": "no", "takeaway": "yes", "wheelchair": "limited"}}, {"type": "node", "id": 11285259381, "lat": 12.9812823, "lon": 77.5637362, "tags": {"air_conditioning": "yes", "amenity": "cafe", "brand": "Chai Point", "brand:wikidata": "Q28173415", "check_date": "2023-10-23", "cuisine": "coffee_shop", "diet:vegan": "yes", "diet:vegetarian": "yes", "indoor_seating": "yes", "name": "Chai Point", "outdoor_seating": "no", "smoking": "no", "takeaway": "yes", "wheelchair": "limited"}}, {"type": "node", "id": 11285259384, "lat": 12.9818723, "lon": 77.5637939, "tags": {"amenity": "cafe", "check_date": "2023-10-23", "name": "Qmin"}}, {"type": "node", "id": 11295714523, "lat": 12.9540945, "lon": 77.5913153, "tags": {"amenity": "cafe", "level": "0", "name": "Murugan Cafe", "opening_hours": "Mo-Su 05:00-23:00; PH open"}}, {"type": "node", "id": 11314428137, "lat": 12.9404688, "lon": 77.5713638, "tags": {"amenity": "cafe", "cafe": "board_game", "contact:instagram": "board4bored_official", "name": "Board 4 Bored"}}, {"type": "node", "id": 11356383315, "lat": 12.9760718, "lon": 77.60261, "tags": {"amenity": "cafe", "name": "Lime Light"}}, {"type": "node", "id": 11356383323, "lat": 12.972872, "lon": 77.6002751, "tags": {"amenity": "cafe", "name": "Smoor"}}, {"type": "node", "id": 11359579939, "lat": 12.9551241, "lon": 77.5660077}, {"type": "node", "id": 11359579940, "lat": 12.9550606, "lon": 77.566021}, {"type": "node", "id": 11359579941, "lat": 12.9550421, "lon": 77.5659281}, {"type": "node", "id": 11359579942, "lat": 12.9551057, "lon": 77.5659148}, {"type": "node", "id": 11385511625, "lat": 12.9271334, "lon": 77.6332033, "tags": {"amenity": "cafe", "check_date": "2023-11-30", "name": "Chai Fast"}}, {"type": "node", "id": 11385511630, "lat": 12.9310729, "lon": 77.6326552, "tags": {"amenity": "cafe", "brand": "Barista", "brand:wikidata": "Q644735", "check_date": "2023-11-30", "cuisine": "coffee_shop", "name": "Barista", "takeaway": "yes"}}, {"type": "node", "id": 11385511632, "lat": 12.9323886, "lon": 77.6314845, "tags": {"amenity": "cafe", "brand": "Starbucks", "brand:wikidata": "Q37158", "check_date": "2023-11-30", "cuisine": "coffee_shop", "name": "Starbucks", "official_name": "Starbucks Coffee", "takeaway": "yes"}}, {"type": "node", "id": 11398011945, "lat": 12.9390758, "lon": 77.6191481, "tags": {"amenity": "cafe", "branch": "Koramangala", "brand": "Chaayos", "brand:wikidata": "Q117235235", "cuisine": "tea", "name": "Chaayos", "takeaway": "yes"}}, {"type": "node", "id": 11398011946, "lat": 12.9394664, "lon": 77.6193423, "tags": {"amenity": "cafe", "brand": "Tim Hortons", "brand:wikidata": "Q175106", "cuisine": "coffee_shop", "name": "Tim Hortons", "takeaway": "yes"}}, {"type": "node", "id": 11458986892, "lat": 12.9755682, "lon": 77.60516, "tags": {"amenity": "cafe", "brand": "Cafe Coffee Day", "brand:wikidata": "Q5017235", "check_date": "2023-12-27", "cuisine": "coffee_shop", "name": "Cafe Coffee Day", "name:kn": "\u0c95\u0cab\u0cc6 \u0c95\u0cbe\u0cab\u0cbf \u0ca1\u0cc7", "takeaway": "yes"}}, {"type": "node", "id": 11472482870, "lat": 12.9927608, "lon": 77.5906166, "tags": {"amenity": "cafe", "name": "Boba Cafe - A true bubble tea"}}, {"type": "node", "id": 11472482871, "lat": 12.9923755, "lon": 77.5926567, "tags": {"amenity": "cafe", "name": "Shree Vinayaka Juice Center"}}, {"type": "node", "id": 11473057369, "lat": 12.9930468, "lon": 77.5900341, "tags": {"amenity": "cafe", "name": "hunkal coffee"}}, {"type": "node", "id": 11493951524, "lat": 12.9770467, "lon": 77.6406776, "tags": {"amenity": "cafe", "check_date": "2024-01-06", "name": "Anaia Cafe"}}, {"type": "node", "id": 11505695830, "lat": 12.9268066, "lon": 77.6332725, "tags": {"amenity": "cafe", "check_date": "2024-01-10", "name": "Tatvika Cafe"}}, {"type": "node", "id": 11505846466, "lat": 12.9751478, "lon": 77.6067188, "tags": {"amenity": "cafe", "check_date": "2024-01-10", "cuisine": "coffee_shop", "indoor_seating": "yes", "level": "0", "name": "Cafe Levista", "outdoor_seating": "no"}}, {"type": "node", "id": 11524809954, "lat": 12.9821284, "lon": 77.5962022, "tags": {"access": "permissive", "amenity": "cafe", "name": "Caffe Macs"}}, {"type": "node", "id": 11557032415, "lat": 12.9273559, "lon": 77.5861504, "tags": {"addr:housenumber": "62", "addr:street": "11th Main Road", "amenity": "cafe", "check_date": "2024-01-27", "contact:instagram": "https://www.instagram.com/kongsiteabar.in", "cuisine": "bubble_tea", "delivery": "yes", "name": "Kongsi Tea Bar", "opening_hours": "11:00-23:00"}}, {"type": "node", "id": 11557043272, "lat": 12.9948602, "lon": 77.6175033, "tags": {"addr:housenumber": "28", "addr:street": "Assayee Road", "alt_name": "Backer and Charlie", "amenity": "cafe", "check_date": "2024-01-27", "contact:instagram": "https://www.instagram.com/backerandcharlie", "delivery": "yes", "name": "B\u00e4cker & Charlie", "outdoor_seating": "yes", "start_date": "2024-01-31", "takeaway": "yes", "toilets": "yes", "wheelchair": "limited"}}, {"type": "node", "id": 11564661260, "lat": 12.9672955, "lon": 77.6367143, "tags": {"amenity": "cafe", "check_date": "2025-03-14", "cuisine": "coffee_shop", "delivery": "yes", "level": "0", "name": "Blue Tokai", "takeaway": "yes"}}, {"type": "node", "id": 11584464960, "lat": 13.0016951, "lon": 77.6236518, "tags": {"amenity": "cafe", "cuisine": "ice_cream;pizza;pasta", "name": "The Milton St. Cafe", "outdoor_seating": "yes"}}, {"type": "node", "id": 11659905693, "lat": 12.9307348, "lon": 77.633114, "tags": {"amenity": "cafe", "brand": "Chai Point", "brand:wikidata": "Q28173415", "check_date": "2025-05-25", "cuisine": "coffee_shop", "name": "Chai Point", "takeaway": "yes"}}, {"type": "node", "id": 11676514158, "lat": 12.9891525, "lon": 77.5937198, "tags": {"amenity": "cafe", "name": "Tea Time"}}, {"type": "node", "id": 11758608876, "lat": 12.9313963, "lon": 77.6234718, "tags": {"addr:housenumber": "82", "addr:street": "7th Cross Road", "amenity": "cafe", "check_date": "2024-03-24", "contact:instagram": "https://www.instagram.com/dailybakehouse", "name": "Daily Bakehouse", "opening_hours": "08:00-23:00", "shop": "bakery", "website": "https://dailybakehouse.in"}}, {"type": "node", "id": 11780212783, "lat": 12.9376205, "lon": 77.6243795, "tags": {"amenity": "cafe", "name": "Cafe Reset"}}, {"type": "node", "id": 11868811425, "lat": 13.0115415, "lon": 77.5553607, "tags": {"amenity": "cafe", "level": "1", "name": "Eleven Bakehouse"}}, {"type": "node", "id": 11897959731, "lat": 12.9966271, "lon": 77.5680009, "tags": {"amenity": "cafe", "check_date": "2024-05-12", "name": "Tea Time"}}, {"type": "node", "id": 11897969904, "lat": 13.007032, "lon": 77.5692771, "tags": {"amenity": "cafe", "check_date": "2024-05-12", "name": "Crazy Bites"}}, {"type": "node", "id": 11962616017, "lat": 12.9737711, "lon": 77.6092416, "tags": {"amenity": "cafe", "check_date": "2024-06-04", "name": "The Living Room"}}, {"type": "node", "id": 11968716837, "lat": 12.9667996, "lon": 77.6373194, "tags": {"addr:floor": "1", "addr:housenumber": "3754", "addr:street": "11th Cross Road", "amenity": "cafe", "check_date": "2024-06-10", "contact:instagram": "https://www.instagram.com/makipatisserie", "contact:twitter": "https://twitter.com/makipatisserie", "delivery": "yes", "level": "1", "name": "M\u00e4ki P\u00e2tisserie", "opening_hours:drive_through": "We-Su 10:00-17:00", "shop": "pastry", "takeaway": "yes", "website": "https://airmenus.in/makipatisserie/"}}, {"type": "node", "id": 11968859180, "lat": 12.9357945, "lon": 77.6280548, "tags": {"addr:city": "Bengaluru", "addr:country": "IN", "addr:housenumber": "612", "addr:postcode": "560034", "addr:street": "80 Feet Road", "addr:suburb": "Koramangala", "amenity": "cafe", "contact:instagram": "roastea.outlets", "delivery": "yes", "name": "Roastea", "takeaway": "yes", "website": "https://roastea.in/"}}, {"type": "node", "id": 11975333361, "lat": 12.9659664, "lon": 77.5987275, "tags": {"amenity": "cafe", "name": "Ithaca"}}, {"type": "node", "id": 12009009947, "lat": 12.9691458, "lon": 77.6361275, "tags": {"amenity": "cafe", "check_date": "2025-03-14", "name": "natuf", "start_date": "2024-08-15", "website": "https://natuf.in/"}}, {"type": "node", "id": 12022437803, "lat": 12.9857937, "lon": 77.5877686, "tags": {"addr:city": "Bengaluru", "addr:country": "IN", "addr:hamlet": "High Grounds", "addr:housename": "Prestige Trade Tower", "addr:postcode": "560001", "addr:street": "Palace Road", "addr:suburb": "Sampangi Rama Nagar", "addr:unit": "The Courtyard by Sublime", "amenity": "cafe", "name": "Sublime House of Tea"}}, {"type": "node", "id": 12022437804, "lat": 12.9857221, "lon": 77.5879276, "tags": {"addr:city": "Bengaluru", "addr:country": "IN", "addr:hamlet": "High Grounds", "addr:housename": "Prestige Trade Tower", "addr:postcode": "560001", "addr:street": "Palace Road", "addr:suburb": "Sampangi Rama Nagar", "addr:unit": "The Courtyard by Sublime", "amenity": "cafe", "name": "Zed The Baker"}}, {"type": "node", "id": 12022437805, "lat": 12.9859481, "lon": 77.5879172, "tags": {"addr:city": "Bengaluru", "addr:country": "IN", "addr:hamlet": "High Grounds", "addr:housename": "Prestige Trade Tower", "addr:postcode": "560001", "addr:street": "Palace Road", "addr:suburb": "Sampangi Rama Nagar", "addr:unit": "The Courtyard by Sublime", "amenity": "cafe", "brand": "Starbucks", "brand:wikidata": "Q37158", "cuisine": "coffee_shop", "name": "Starbucks", "official_name": "Starbucks Coffee", "takeaway": "yes"}}, {"type": "node", "id": 12041067182, "lat": 12.9328303, "lon": 77.6139704, "tags": {"amenity": "cafe", "name": "Kannu Ki Chai", "outdoor_seating": "yes"}}, {"type": "node", "id": 12051506508, "lat": 12.9674667, "lon": 77.5999201, "tags": {"addr:street": "Residency Road", "amenity": "cafe", "name": "Ramji Chaiwale"}}, {"type": "node", "id": 12059584769, "lat": 12.9698254, "lon": 77.6380772, "tags": {"addr:city": "Bengaluru", "addr:country": "IN", "addr:hamlet": "Domlur 2nd Stage", "addr:housenumber": "1088", "addr:postcode": "560008", "addr:street": "12th Main Road", "addr:suburb": "Indiranagar", "amenity": "cafe", "check_date": "2025-03-14", "contact:instagram": "kopitiamlah", "cuisine": "malaysian", "email": "hello@kopitiamlah.in", "name": "Kopitiam Lah", "opening_hours": "Tu-Su 08:30-11:30,12:30-16:30", "phone": "+91 72595 43888", "start_date": "2024-07-17", "website": "https://www.kopitiamlah.com/"}}, {"type": "node", "id": 12060775542, "lat": 12.9550804, "lon": 77.5655815, "tags": {"addr:housenumber": "62/1", "addr:street": "6th main road", "amenity": "cafe", "name": "Sri Shakthi Condiments"}}, {"type": "node", "id": 12078138003, "lat": 12.967035, "lon": 77.6089891, "tags": {"amenity": "cafe", "check_date": "2024-07-28", "name": "Tea Lounge Cafe"}}, {"type": "node", "id": 12083603348, "lat": 12.9325502, "lon": 77.6318589, "tags": {"amenity": "cafe", "level": "3", "name": "Dialogues Cafe", "outdoor_seating": "yes"}}, {"type": "node", "id": 12083603349, "lat": 12.931798, "lon": 77.632117, "tags": {"amenity": "cafe", "name": "Helloo Dilli"}}, {"type": "node", "id": 12101659685, "lat": 12.9615765, "lon": 77.5946056, "tags": {"addr:floor": "G", "amenity": "cafe", "check_date": "2024-08-10", "level": "0", "name": "The Bangalore Cafe"}}, {"type": "node", "id": 12103968912, "lat": 13.0011822, "lon": 77.629166, "tags": {"amenity": "cafe", "check_date": "2024-08-11", "name": "Cake Kafe"}}, {"type": "node", "id": 12103968916, "lat": 12.9951282, "lon": 77.6143536, "tags": {"amenity": "cafe", "check_date": "2024-08-11", "name": "Belgian Waffle Factory"}}, {"type": "node", "id": 12107634725, "lat": 12.9727674, "lon": 77.6397586, "tags": {"amenity": "cafe", "contact:instagram": "neonmarketindia", "name": "Neon Market", "website": "https://neon.market/"}}, {"type": "node", "id": 12115251881, "lat": 12.9295347, "lon": 77.6308153, "tags": {"addr:postcode": "560034", "addr:street": "7th Cross Road", "amenity": "cafe", "name": "Cafe OTW On The Way"}}, {"type": "node", "id": 12115251886, "lat": 12.9295262, "lon": 77.6319228, "tags": {"addr:postcode": "560034", "addr:street": "7th Cross Road", "amenity": "cafe", "name": "Kaffe 399"}}, {"type": "node", "id": 12115251889, "lat": 12.9305861, "lon": 77.6331696, "tags": {"addr:postcode": "560034", "addr:street": "80 Feet Road", "amenity": "cafe", "cuisine": "waffle", "name": "Belgian Waffle"}}, {"type": "node", "id": 12118862838, "lat": 12.9734731, "lon": 77.6073186, "tags": {"amenity": "cafe", "name": "India Chai"}}, {"type": "node", "id": 12119590183, "lat": 12.9717772, "lon": 77.5958246, "tags": {"amenity": "cafe", "check_date": "2024-08-19", "name": "Third Wave Coffee"}}, {"type": "node", "id": 12129019639, "lat": 12.9408358, "lon": 77.6202589, "tags": {"amenity": "cafe", "delivery": "no", "name": "The Peck", "takeaway": "yes"}}, {"type": "node", "id": 12129019648, "lat": 13.014757, "lon": 77.5559168, "tags": {"addr:city": "Bengaluru", "addr:country": "IN", "addr:housename": "WTC Annexe", "addr:housenumber": "26/1", "addr:postcode": "560055", "addr:street": "Dr. Rajkumar Road", "amenity": "cafe", "brand": "Blue Tokai Coffee Roasters", "brand:wikidata": "Q124374362", "check_date": "2025-10-25", "cuisine": "coffee_shop", "delivery": "yes", "internet_access": "yes", "internet_access:fee": "no", "name": "Blue Tokai Coffee Roasters", "takeaway": "yes", "toilets": "yes"}}, {"type": "node", "id": 12139261557, "lat": 12.9882064, "lon": 77.5937828, "tags": {"amenity": "cafe", "name": "Dunkin'"}}, {"type": "node", "id": 12145301107, "lat": 12.9730151, "lon": 77.6155463, "tags": {"amenity": "cafe", "name": "Bootstrapped Cafe"}}, {"type": "node", "id": 12149279048, "lat": 12.9584959, "lon": 77.5927545, "tags": {"addr:city": "Bengaluru", "addr:housenumber": "105", "addr:postcode": "560027", "addr:street": "Kengal Hanumanthaiah Road", "addr:suburb": "Shantinagar", "amenity": "cafe", "cuisine": "coffee_shop", "delivery": "yes", "name": "Ajji House by Subko", "operator": "Subko Coffee Roasters", "shop": "chocolate", "smoking": "separated", "takeaway": "yes", "toilets": "yes", "toilets:access": "customers", "website": "https://www.subko.coffee"}}, {"type": "node", "id": 12157006659, "lat": 12.9821836, "lon": 77.6378462, "tags": {"addr:city": "Bengaluru", "addr:hamlet": "Indiranagar 2nd Stage", "addr:housenumber": "33", "addr:postcode": "560038", "addr:street": "12th Cross Road", "addr:suburb": "Indiranagar", "amenity": "cafe", "contact:instagram": "murumuru.blr", "cuisine": "coffee_shop", "delivery": "no", "diet:vegetarian": "yes", "name": "Muru Muru", "takeaway": "no", "toilets": "yes", "toilets:access": "customers"}}, {"type": "node", "id": 12178338601, "lat": 12.9331657, "lon": 77.6139128, "tags": {"addr:housenumber": "28", "addr:postcode": "560034", "addr:street": "4th B Cross Road", "amenity": "cafe", "cuisine": "coffee_shop;international", "name": "Gully Coffee Roasters", "opening_hours": "Mo-Su 11:00-23:00", "outdoor_seating": "yes", "website:menu": "https://gullycoffeeroasters.dotpe.in"}}, {"type": "node", "id": 12208448673, "lat": 12.9333097, "lon": 77.6270074, "tags": {"amenity": "cafe", "contact:instagram": "brunchproject.blr", "name": "Brunch Project", "opening_hours": "Mo-Su 09:00-20:00"}}, {"type": "node", "id": 12208448686, "lat": 12.9370597, "lon": 77.5731459, "tags": {"amenity": "cafe", "contact:instagram": "brewinguntoldstories", "cuisine": "coffee_shop", "name": "Brewing Untold Stories"}}, {"type": "node", "id": 12222732600, "lat": 12.9840162, "lon": 77.6174052, "tags": {"addr:housenumber": "22", "addr:street": "Annaswamy Mudaliar Road", "amenity": "cafe", "check_date": "2024-10-04", "contact:instagram": "https://www.instagram.com/amagat.blr", "name": "Amagat Garden Cafe"}}, {"type": "node", "id": 12231384212, "lat": 12.9908221, "lon": 77.5958341, "tags": {"amenity": "cafe", "check_date": "2024-10-07", "name": "BMJH Cafe", "wheelchair": "yes"}}, {"type": "node", "id": 12260448999, "lat": 12.9664693, "lon": 77.6126813, "tags": {"addr:housenumber": "33/12", "addr:street": "Victoria Road", "amenity": "cafe", "check_date": "2024-10-18", "contact:instagram": "https://www.instagram.com/sakuramatchabar", "name": "Sakura Matcha Bar"}}, {"type": "node", "id": 12260555320, "lat": 12.971271, "lon": 77.608012, "tags": {"amenity": "cafe", "contact:instagram": "11grams.in", "name": "11grams Coffee Roasters", "website": "https://www.11grams.in/"}}, {"type": "node", "id": 12287399683, "lat": 12.9792277, "lon": 77.6366448, "tags": {"addr:housenumber": "205", "addr:street": "Double Road", "amenity": "cafe", "check_date": "2024-10-25", "contact:instagram": "panetteriablr", "diet:ovo_vegetarian": "yes", "diet:vegetarian": "yes", "name": "Panetteria Bengaluru", "opening_hours": "12:00-23:00"}}, {"type": "node", "id": 12291308526, "lat": 13.0077805, "lon": 77.5779394, "tags": {"addr:housenumber": "601", "addr:street": "3rd Main Road", "amenity": "cafe", "capacity": "5", "check_date": "2024-12-13", "contact:instagram": "https://www.instagram.com/kerbsidebistro", "name": "Kerbside Bistro", "outdoor_seating": "no"}}, {"type": "node", "id": 12364258201, "lat": 13.0145068, "lon": 77.5743315, "tags": {"addr:city": "Bengaluru", "addr:country": "IN", "addr:hamlet": "RMV Extension", "addr:housenumber": "238", "addr:postcode": "560080", "addr:street": "Dr. CV Raman Road", "addr:suburb": "Sadashivanagar", "amenity": "cafe", "contact:instagram": "thebrowntable_blr", "name": "The Brown Table", "opening_hours": "08:00-23:00", "takeaway": "yes", "toilets": "yes"}}, {"type": "node", "id": 12367522179, "lat": 12.9777988, "lon": 77.6395581, "tags": {"amenity": "cafe", "name": "Cafe Muziris"}}, {"type": "node", "id": 12369618199, "lat": 12.9873412, "lon": 77.5934346, "tags": {"addr:city": "Bengaluru", "addr:street": "Cunningham Road", "addr:suburb": "Vasanth Nagar", "amenity": "cafe", "check_date": "2024-12-25", "contact:instagram": "maverickandfarmer", "cuisine": "coffee_shop", "delivery": "yes", "internet_access": "yes", "name": "Maverick and Farmer Coffee", "outdoor_seating": "yes", "takeaway": "yes", "toilets": "yes", "website": "https://www.maverickandfarmer.com/"}}, {"type": "node", "id": 12378818543, "lat": 13.0077426, "lon": 77.5798357, "tags": {"amenity": "cafe", "name": "Smoor"}}, {"type": "node", "id": 12390031781, "lat": 13.0028172, "lon": 77.5967619}, {"type": "node", "id": 12390031782, "lat": 13.0027257, "lon": 77.5967219}, {"type": "node", "id": 12390031783, "lat": 13.0027551, "lon": 77.596651}, {"type": "node", "id": 12390031784, "lat": 13.0028466, "lon": 77.596691}, {"type": "node", "id": 12395928081, "lat": 12.9350501, "lon": 77.6250594, "tags": {"addr:city": "Bengaluru", "addr:hamlet": "Koramangala 4th Block", "addr:housenumber": "39", "addr:street": "8th Main Road", "addr:suburb": "Koramangala", "amenity": "cafe", "contact:instagram": "fastcoffee.in", "cuisine": "coffee_shop", "name": "Fast Coffee", "website": "https://fastcoffee.in/"}}, {"type": "node", "id": 12404912802, "lat": 12.9996817, "lon": 77.6000976, "tags": {"addr:floor": "G", "air_conditioning": "yes", "amenity": "cafe", "check_date": "2024-12-08", "level": "0", "name": "Velvet Bakes", "outdoor_seating": "no", "toilets": "no"}}, {"type": "node", "id": 12409252953, "lat": 12.9864387, "lon": 77.594938, "tags": {"amenity": "cafe", "check_date": "2024-12-10", "name": "Ovenly Bliss"}}, {"type": "node", "id": 12412376090, "lat": 13.007551, "lon": 77.5793716, "tags": {"addr:city": "Bengaluru", "addr:district": "Bengaluru Urban", "addr:housenumber": "390, Ground Floor", "addr:postcode": "560080", "addr:street": "Fortuna Urbanscape, 13th Cross Sadashivanagar", "air_conditioning": "yes", "amenity": "cafe", "bar": "no", "branch": "Quattro Bistro", "brand": "Quattro Bistro", "capacity": "100", "cuisine": "coffee_shop;italian;mexican", "delivery": "yes", "description": "Immerse yourself in a delightful gastronomic journey at Quattro Bistro, our newly opened pure vegetarian haven located in the heart of Sadhashivnagar, Bangalore.", "diet:gluten_free": "yes", "diet:jain": "yes", "diet:vegan": "yes", "diet:vegetarian": "yes", "drive_through": "no", "highchair": "yes", "internet_access": "wlan", "internet_access:fee": "customers", "level": "0", "mobile": "+91 948 042 2365", "name": "Quattro Bistro", "opening_hours": "Mo-Su 11:00-00:30", "payment:american_express": "yes", "payment:app": "yes", "payment:cash": "yes", "payment:contactless": "yes", "payment:credit_cards": "yes", "payment:debit_cards": "yes", "payment:discover_card": "yes", "payment:google_pay": "yes", "payment:maestro": "yes", "payment:mastercard": "yes", "payment:mastercard_contactless": "yes", "payment:visa": "yes", "phone": "+91 948 042 2365", "reservation": "yes", "smoking": "no", "start_date": "2024-11-11", "takeaway": "yes", "toilets": "yes", "website:menu": "https://www.zomato.com/bangalore/quattro-bistro-sadashiv-nagar-bangalore/menu", "wheelchair": "yes"}}, {"type": "node", "id": 12420181108, "lat": 13.0045713, "lon": 77.5787232, "tags": {"air_conditioning": "yes", "amenity": "cafe", "capacity": "25", "check_date": "2024-12-13", "name": "aubree", "outdoor_seating": "no"}}, {"type": "node", "id": 12422100663, "lat": 13.0069207, "lon": 77.5789754, "tags": {"amenity": "cafe", "brand": "Blue Tokai Coffee Roasters", "brand:wikidata": "Q124374362", "check_date": "2024-12-13", "cuisine": "coffee_shop", "delivery": "yes", "internet_access": "yes", "internet_access:fee": "no", "name": "Blue Tokai Coffee Roasters", "takeaway": "yes", "toilets": "yes"}}, {"type": "node", "id": 12452433472, "lat": 12.9751544, "lon": 77.6031683, "tags": {"amenity": "cafe", "name": "The White Room Coffee & Kitchen"}}, {"type": "node", "id": 12461000328, "lat": 12.971744, "lon": 77.5943973, "tags": {"addr:city": "Bangalore", "addr:floor": "G", "addr:street": "Vittal Mallya Road", "addr:suburb": "Shanthala Nagar", "air_conditioning": "yes", "amenity": "cafe", "check_date": "2025-01-23", "contact:facebook": "bluetokaicoffee", "contact:instagram": "bluetokaicoffee", "contact:twitter": "bluetokaicoffee", "cuisine": "coffee_shop", "delivery": "yes", "internet_access": "wlan", "level": "0", "name": "Blue Tokai Coffee Roasters", "takeaway": "yes", "toilets": "yes", "website": "https://bluetokaicoffee.com/"}}, {"type": "node", "id": 12475698450, "lat": 12.9734621, "lon": 77.6019267, "tags": {"amenity": "cafe", "check_date": "2025-01-23", "name": "Magnolia Bakery", "payment:cash": "yes", "payment:mastercard": "yes", "payment:visa": "yes", "shop": "bakery"}}, {"type": "node", "id": 12492736878, "lat": 12.9753903, "lon": 77.602846, "tags": {"amenity": "cafe", "check_date": "2025-02-15", "name": "Atty's Express Cafe"}}, {"type": "node", "id": 12492736879, "lat": 12.9746898, "lon": 77.6057539, "tags": {"amenity": "cafe", "brand": "Panda 18 Bubble Tea & Croffie", "cuisine": "bubble_tea", "takeaway": "yes"}}, {"type": "node", "id": 12492736881, "lat": 12.9747702, "lon": 77.6064154, "tags": {"amenity": "cafe", "name": "Levista Gourmet Studio", "outdoor_seating": "no"}}, {"type": "node", "id": 12529348118, "lat": 12.9712959, "lon": 77.6143835, "tags": {"addr:city": "Bangalore", "addr:country": "IN", "addr:housenumber": "19", "addr:postcode": "560025", "addr:street": "Brunton Road", "addr:suburb": "Ashok Nagar", "amenity": "cafe", "email": "falconcafe@prestigeconstructions.com", "level": "1", "mobile": "+91 63667 49612", "name": "The Falcon Cafe", "opening_hours": "Mo-Sa 09:00-17:30", "phone": "falconcafe@prestigeconstructions.com", "website": "https://thefalconsden.com/", "wheelchair": "yes"}}, {"type": "node", "id": 12541018910, "lat": 12.9313727, "lon": 77.6160967, "tags": {"amenity": "cafe", "check_date": "2025-01-29", "name": "Ola Farzi Cafe"}}, {"type": "node", "id": 12597548155, "lat": 13.0043996, "lon": 77.570632, "tags": {"amenity": "cafe", "name": "Clean Slate Cafe"}}, {"type": "node", "id": 12597548185, "lat": 13.0043931, "lon": 77.5709921, "tags": {"amenity": "cafe", "contact:instagram": "silaathegardencafe", "name": "Silaa - The Garden Cafe"}}, {"type": "node", "id": 12632042172, "lat": 12.972464, "lon": 77.6203034, "tags": {"amenity": "cafe", "cuisine": "bubble_tea", "delivery": "yes", "email": "info@yoyotea.in", "name": "YOYO! Fresh Tea Bar", "opening_hours": "11:00-23:00", "phone": "+91 97401 72610", "takeaway": "yes", "website": "https://yoyofreshtea.in/"}}, {"type": "node", "id": 12632297989, "lat": 12.9727491, "lon": 77.6075407, "tags": {"amenity": "cafe", "check_date": "2025-03-03", "contact:instagram": "https://www.instagram.com/beyondbeancoffee", "name": "Beyond Bean Cafe"}}, {"type": "node", "id": 12648662791, "lat": 12.9267856, "lon": 77.5612233, "tags": {"amenity": "cafe", "name": "Third wave coffee shop"}}, {"type": "node", "id": 12697993702, "lat": 12.9401608, "lon": 77.5839468, "tags": {"addr:floor": "G", "amenity": "cafe", "check_date": "2025-09-28", "cuisine": "coffee_shop", "level": "0", "name": "block two coffee", "opening_hours": "08:00-23:00", "takeaway": "only", "wheelchair": "yes"}}, {"type": "node", "id": 12749935725, "lat": 12.9824009, "lon": 77.6108551, "tags": {"amenity": "cafe", "brand": "Starbucks", "brand:wikidata": "Q37158", "cuisine": "coffee_shop", "name": "Starbucks", "official_name": "Starbucks Coffee", "takeaway": "yes"}}, {"type": "node", "id": 12809319559, "lat": 13.0108881, "lon": 77.5549465, "tags": {"amenity": "cafe", "name": "Magnolia Bakery", "shop": "bakery"}}, {"type": "node", "id": 12901334775, "lat": 12.9859554, "lon": 77.5509443, "tags": {"amenity": "cafe", "brand": "Third Wave Coffee Roasters", "brand:wikidata": "Q7785004", "cuisine": "coffee_shop", "delivery": "yes", "name": "Third Wave Coffee Roasters", "takeaway": "yes"}}, {"type": "node", "id": 12901334776, "lat": 13.0007892, "lon": 77.5527658, "tags": {"addr:city": "Bengaluru", "addr:hamlet": "Rajajinagar 1st Block", "addr:housenumber": "125", "addr:postcode": "560010", "addr:street": "Dr. Rajkumar Road", "addr:suburb": "Rajajinagar", "amenity": "cafe", "name": "Screws and Brews"}}, {"type": "node", "id": 12927909819, "lat": 13.0009541, "lon": 77.5696999, "tags": {"amenity": "cafe", "cuisine": "coffee_shop", "name": "Benji Coffee"}}, {"type": "node", "id": 12988984440, "lat": 12.9693345, "lon": 77.6358435, "tags": {"addr:city": "Bengaluru", "addr:hamlet": "HAL 2nd Stage", "addr:housenumber": "3163", "addr:postcode": "560008", "addr:street": "Indiranagar Double Road", "addr:suburb": "Indiranagar", "amenity": "cafe", "name": "TruBrew Cafe"}}, {"type": "node", "id": 12988984441, "lat": 12.9694713, "lon": 77.6358339, "tags": {"addr:city": "Bengaluru", "addr:hamlet": "HAL 2nd Stage", "addr:housenumber": "3162", "addr:postcode": "560008", "addr:street": "Indiranagar Double Road", "addr:suburb": "Indiranagar", "amenity": "cafe", "contact:instagram": "the.estate.deli", "delivery": "yes", "name": "The Estate Deli", "opening_hours": "11:00-23:00", "phone": "+91 6363721915", "takeaway": "yes"}}, {"type": "node", "id": 12995318314, "lat": 12.9428023, "lon": 77.5854728, "tags": {"amenity": "cafe", "check_date": "2025-07-12", "name": "Mathas Coffee"}}, {"type": "node", "id": 12999130482, "lat": 12.9648993, "lon": 77.6392134, "tags": {"addr:city": "Bengaluru", "addr:hamlet": "HAL 2nd Stage", "addr:housenumber": "3578", "addr:postcode": "560008", "addr:street": "4th Cross Road", "addr:suburb": "Indiranagar", "amenity": "cafe", "delivery": "yes", "name": "Brott", "takeaway": "yes", "website": "https://brottcafe.com"}}, {"type": "node", "id": 13011339074, "lat": 12.9403289, "lon": 77.5798713, "tags": {"amenity": "cafe", "check_date": "2025-07-19", "name": "Cafe Amudham"}}, {"type": "node", "id": 13013584279, "lat": 12.9833134, "lon": 77.611239, "tags": {"addr:city": "Bengaluru", "addr:housenumber": "262", "addr:postcode": "560051", "addr:street": "Kamaraj Road", "addr:suburb": "Shivajinagar", "amenity": "cafe", "name": "The Rogue Elephant Cafe", "outdoor_seating": "yes"}}, {"type": "node", "id": 13013584280, "lat": 12.9921228, "lon": 77.5703135, "tags": {"amenity": "cafe", "name": "Kalmane Koffees"}}, {"type": "node", "id": 13013584281, "lat": 12.9701145, "lon": 77.6093423, "tags": {"amenity": "cafe", "name": "Kalmane Koffees"}}, {"type": "node", "id": 13013584296, "lat": 12.9702451, "lon": 77.6393656, "tags": {"amenity": "cafe", "name": "The Coffee Theatre"}}, {"type": "node", "id": 13013958065, "lat": 12.9685475, "lon": 77.5964624, "tags": {"amenity": "cafe", "name": "Isobel Coffee House"}}, {"type": "node", "id": 13013978947, "lat": 12.9346469, "lon": 77.6139987, "tags": {"amenity": "cafe", "cuisine": "coffee_shop", "name": "La Grace"}}, {"type": "node", "id": 13023088269, "lat": 12.983093, "lon": 77.5967084, "tags": {"addr:floor": "1", "amenity": "cafe", "check_date": "2025-07-25", "level": "1", "name": "The Green Door Coffee House"}}, {"type": "node", "id": 13023090264, "lat": 12.9572298, "lon": 77.5943978, "tags": {"amenity": "cafe", "check_date": "2025-07-25", "name": "The Green Door Coffee House"}}, {"type": "node", "id": 13045205432, "lat": 12.9333407, "lon": 77.6149591, "tags": {"amenity": "cafe", "check_date": "2025-08-03", "name": "Olive Cafe"}}, {"type": "node", "id": 13062869383, "lat": 12.9698603, "lon": 77.6098791, "tags": {"addr:city": "Bengaluru", "addr:country": "IN", "amenity": "cafe", "brand": "Starbucks", "brand:wikidata": "Q37158", "cuisine": "coffee_shop", "name": "Starbucks", "official_name": "Starbucks Coffee", "takeaway": "yes"}}, {"type": "node", "id": 13062869384, "lat": 12.9913578, "lon": 77.5711154, "tags": {"addr:city": "Bengaluru", "addr:country": "IN", "amenity": "cafe", "brand": "Starbucks", "brand:wikidata": "Q37158", "cuisine": "coffee_shop", "name": "Starbucks", "official_name": "Starbucks Coffee", "takeaway": "yes"}}, {"type": "node", "id": 13068296071, "lat": 12.974669, "lon": 77.6058786, "tags": {"amenity": "cafe", "cuisine": "coffee_shop", "name": "Tribal Brew Coffee", "takeaway": "yes", "website": "https://www.tribalbrew.coffee/"}}, {"type": "node", "id": 13084285574, "lat": 12.940859, "lon": 77.6234175, "tags": {"amenity": "cafe", "check_date": "2025-08-20", "contact:instagram": "https://www.instagram.com/cafe.de.verde", "name": "Cafe de Verde"}}, {"type": "node", "id": 13086275910, "lat": 12.9283909, "lon": 77.6361652, "tags": {"amenity": "cafe", "name": "Krust Cafe"}}, {"type": "node", "id": 13086275912, "lat": 12.985053, "lon": 77.5791058, "tags": {"amenity": "cafe", "contact:instagram": "blancthecoffeeplace_", "cuisine": "coffee_shop", "name": "Blanc The Coffee Place"}}, {"type": "node", "id": 13103315636, "lat": 12.9308506, "lon": 77.6065375, "tags": {"amenity": "cafe", "cuisine": "coffee_shop;tea;indian", "name": "Malabar Cafe"}}, {"type": "node", "id": 13114307278, "lat": 12.9826019, "lon": 77.6403629, "tags": {"amenity": "cafe", "check_date": "2025-09-02", "name": "Casa Fresco"}}, {"type": "node", "id": 13140342783, "lat": 12.9309735, "lon": 77.579566, "tags": {"amenity": "cafe", "check_date": "2025-09-13", "name": "Chai Days"}}, {"type": "node", "id": 13154523676, "lat": 12.938528, "lon": 77.5803599, "tags": {"amenity": "cafe", "name": "Lassi Shop", "shop": "beverages", "wheelchair": "no"}}, {"type": "node", "id": 13159616821, "lat": 12.9988048, "lon": 77.640553, "tags": {"addr:floor": "G", "amenity": "cafe", "check_date": "2025-09-21", "level": "0", "name": "Infant Cafe"}}, {"type": "node", "id": 13176265277, "lat": 12.935039, "lon": 77.5859186, "tags": {"amenity": "cafe", "check_date": "2025-09-28", "name": "Edge Cafe"}}, {"type": "node", "id": 13227070703, "lat": 12.9812592, "lon": 77.6362473, "tags": {"addr:city": "Bengaluru", "addr:postcode": "560038", "addr:street": "2nd Main Road", "amenity": "cafe", "cuisine": "kombucha", "internet_access": "yes", "internet_access:fee": "no", "name": "Mountain Bee kombucha Hive", "opening_hours": "Mo-Su 10:00-20:00", "outdoor_seating": "no", "phone": "8792743820"}}, {"type": "node", "id": 13256101495, "lat": 12.9753941, "lon": 77.6024211, "tags": {"addr:city": "Bengaluru", "addr:housename": "1 Sobha", "addr:postcode": "560001", "addr:street": "Church Street", "amenity": "cafe", "check_date": "2025-10-25", "contact:instagram": "maverickandfarmer", "cuisine": "coffee_shop", "delivery": "yes", "internet_access": "yes", "name": "Maverick and Farmer Coffee", "outdoor_seating": "yes", "takeaway": "yes", "toilets": "yes", "website": "https://www.maverickandfarmer.com/"}}, {"type": "node", "id": 13288585225, "lat": 12.9269106, "lon": 77.5842972, "tags": {"amenity": "cafe", "name": "Snuzzles"}}, {"type": "node", "id": 13288585509, "lat": 12.9663636, "lon": 77.6377317, "tags": {"amenity": "cafe", "name": "Shinto"}}, {"type": "node", "id": 13288585566, "lat": 12.968775, "lon": 77.6026099, "tags": {"amenity": "cafe", "name": "Purpose Match and Coffee House"}}, {"type": "way", "id": 197122158, "nodes": [2074188256, 2074188257, 2074188254, 2074188255, 2074188252, 2074188251, 2074188248, 2074188247, 2074188250, 2074188249, 2074188256], "tags": {"amenity": "cafe", "building": "yes", "name": "Cafeteria"}}, {"type": "way", "id": 314209406, "nodes": [3202572738, 3202572739, 3202572740, 3202572741, 3202572738], "tags": {"addr:city": "Bangalore", "addr:housenumber": "89", "addr:postcode": "560038", "addr:street": "11th Cross Road", "amenity": "cafe", "cuisine": "indian", "internet_access": "yes", "name": "Yogi-sthaan (Yoga House)", "opening_hours": "08:00-21:00", "phone": "+91 80 40914888", "smoking": "no", "website": "https://yogisthaan.com/"}}, {"type": "way", "id": 331330192, "nodes": [2201181399, 3383925327, 3383925325, 3383925324, 2201181399], "tags": {"addr:city": "Bangalore", "addr:floor": "G;1", "addr:housenumber": "297", "addr:street": "100 Feet Road", "air_conditioning": "yes", "amenity": "cafe", "bar": "no", "branch": "Indiranagar", "brand": "Glen's Bakehouse", "building": "retail", "capacity": "100", "check_date": "2024-11-09", "cuisine": "pancake;breakfast;ice_cream;cake;coffee_shop", "delivery": "yes", "diet:vegetarian": "yes", "internet_access": "wlan", "level": "0;1", "name": "Glen's Bakehouse", "outdoor_seating": "yes", "shop": "pastry", "smoking": "no", "takeaway": "yes", "toilets": "yes", "wheelchair": "no"}}, {"type": "way", "id": 347237497, "nodes": [3535942396, 3535942175, 3535942128, 3535942149, 3535942396], "tags": {"addr:city": "Bengaluru", "addr:housenumber": "4", "addr:postcode": "560034", "addr:street": "8th Main Road", "amenity": "cafe", "building": "yes", "check_date": "2025-08-08", "cuisine": "american", "dog": "leashed", "internet_access": "wlan", "name": "The Hole In The Wall Cafe", "opening_hours": "Tu-Su 08:00-21:00", "pets": "yes", "website": "https://www.theholeinthewallcafe.org/"}}, {"type": "way", "id": 347482919, "nodes": [3537796533, 3537796530, 3537796511, 3537796514, 3537796533], "tags": {"addr:city": "Bengaluru", "addr:street": "Christ School Road", "amenity": "cafe", "building": "yes", "cuisine": "regional;teax-mex", "internet_access": "wlan", "name": "juice magic"}}, {"type": "way", "id": 347484379, "nodes": [3537798061, 3537798060, 3537798035, 3537798040, 3537798061], "tags": {"addr:city": "Bangalore", "addr:housenumber": "#10, Bhavani Layout", "addr:postcode": "560029", "addr:street": "Bannerghatta Road", "amenity": "cafe", "building": "commercial", "cuisine": "international", "internet_access": "yes", "name": "Savoury - Sea Shell Restaurant", "opening_hours": "24/7", "smoking": "isolated"}}, {"type": "way", "id": 474654132, "nodes": [3458333997, 2189718240, 2189718239, 2189718241, 4685605473, 3458333997], "tags": {"addr:city": "Bangalore", "addr:street": "Lavelle Road", "air_conditioning": "yes", "amenity": "cafe", "brand": "Third Wave Coffee", "building": "commercial", "check_date": "2025-01-31", "cuisine": "coffee_shop", "internet_access": "wlan", "name": "Third Wave Coffee", "outdoor_seating": "yes", "smoking": "outside", "takeaway": "yes", "toilets": "yes"}}, {"type": "way", "id": 961091789, "nodes": [8890701655, 8890701656, 8890701657, 8890701658, 8890701655], "tags": {"amenity": "cafe", "building": "yes", "building:levels": "2", "name": "Sanctuary", "roof:colour": "white"}}, {"type": "way", "id": 1224937916, "nodes": [11359579939, 11359579940, 11359579941, 11359579942, 11359579939], "tags": {"alt_name": "by 2 coffee", "amenity": "cafe", "building": "yes", "internet_access": "no", "name": "by2coffee", "takeaway": "yes"}}, {"type": "way", "id": 1339448451, "nodes": [12390031784, 12390031781, 12390031782, 12390031783, 12390031784], "tags": {"amenity": "cafe", "brand": "Cafe Coffee Day", "brand:wikidata": "Q5017235", "building": "yes", "cuisine": "coffee_shop", "internet_access": "no", "name": "Cafe Coffee Day", "outdoor_seating": "yes", "takeaway": "yes"}}]}