{"version": 0.6, "generator": "Overpass API 0.7.62.8 e802775f", "osm3s": {"timestamp_osm_base": "2025-11-29T19:21:31Z", "copyright": "The data included in this document is from www.openstreetmap.org. The data is made available under ODbL."}, "elements": [{"type": "node", "id": 347145086, "lat": 19.0508641, "lon": 72.8275315, "tags": {"addr:city": "Mumbai", "addr:postcode": "400050", "addr:street": "Chapel Road", "amenity": "pharmacy", "dispensing": "yes", "healthcare": "pharmacy", "name": "Al Medica"}}, {"type": "node", "id": 348136779, "lat": 19.0520576, "lon": 72.8238839, "tags": {"addr:city": "Mumbai", "addr:postcode": "400050", "addr:street": "M Kahn Chowk", "amenity": "pharmacy", "healthcare": "pharmacy", "name": "Noble Plus", "opening_hours": "24/7"}}, {"type": "node", "id": 1766489006, "lat": 19.0350215, "lon": 72.8594597, "tags": {"addr:housename": "Alankar", "addr:housenumber": "251", "addr:postcode": "400022", "addr:street": "Sulochana Shetty Marg", "amenity": "pharmacy", "name": "Utility Chemists"}}, {"type": "node", "id": 2018031052, "lat": 19.0704127, "lon": 72.8964441, "tags": {"amenity": "pharmacy", "name": "Noble Medicals"}}, {"type": "node", "id": 2171447195, "lat": 19.0627103, "lon": 72.8292247, "tags": {"addr:city": "Bandra, Mumbai", "addr:housename": "Dhiraj Pali Arcade", "addr:postcode": "400050", "addr:street": "Dr B.R Ambedkar Road, Bandra West", "amenity": "pharmacy", "healthcare": "pharmacy", "name": "Solanki Medical Shop"}}, {"type": "node", "id": 2187427888, "lat": 19.015229, "lon": 72.824135, "tags": {"amenity": "pharmacy", "healthcare": "pharmacy", "name": "Chemist"}}, {"type": "node", "id": 2238620217, "lat": 19.0610835, "lon": 72.9004589, "tags": {"amenity": "pharmacy", "dispensing": "no", "name": "Balaji Medicals"}}, {"type": "node", "id": 2851477528, "lat": 19.0497286, "lon": 72.8263437, "tags": {"amenity": "pharmacy", "healthcare": "pharmacy", "name": "Mount Medical Store"}}, {"type": "node", "id": 2932969879, "lat": 19.0625309, "lon": 72.9001192, "tags": {"addr:street": "Chembur Station Road", "amenity": "pharmacy", "name": "Anu Medicals"}}, {"type": "node", "id": 3207595705, "lat": 19.0602501, "lon": 72.8434084, "tags": {"amenity": "pharmacy", "healthcare": "pharmacy"}}, {"type": "node", "id": 3207595735, "lat": 19.0603756, "lon": 72.8431935, "tags": {"amenity": "pharmacy", "healthcare": "pharmacy"}}, {"type": "node", "id": 3207595917, "lat": 19.0601293, "lon": 72.8434128, "tags": {"amenity": "pharmacy", "healthcare": "pharmacy", "name": "SuperDoc Medical Store"}}, {"type": "node", "id": 3207680688, "lat": 19.0614075, "lon": 72.8438372, "tags": {"amenity": "pharmacy", "healthcare": "pharmacy", "name": "Gajanand Pharmacy"}}, {"type": "node", "id": 3289519861, "lat": 19.0813056, "lon": 72.8829461, "tags": {"addr:postcode": "400070", "amenity": "pharmacy", "healthcare": "pharmacy", "name": "Ritesh Medical", "opening_hours": "09:00-22:00"}}, {"type": "node", "id": 3289526261, "lat": 19.0811499, "lon": 72.881926, "tags": {"addr:city": "Mumbai", "addr:postcode": "400070", "addr:street": "father peter periera road", "amenity": "pharmacy", "name": "City Medical Centre", "opening_hours": "24/7", "operator": "City hospital"}}, {"type": "node", "id": 3289562513, "lat": 19.0772902, "lon": 72.8833834, "tags": {"amenity": "pharmacy", "opening_hours": "09:00-22:00"}}, {"type": "node", "id": 4159114359, "lat": 19.0874978, "lon": 72.8346602, "tags": {"amenity": "pharmacy", "name": "Deepak Medicals"}}, {"type": "node", "id": 4312874896, "lat": 19.0578593, "lon": 72.8337999, "tags": {"amenity": "pharmacy", "dispensing": "yes", "healthcare": "pharmacy", "name": "Metro Medicals"}}, {"type": "node", "id": 4312909188, "lat": 19.0554863, "lon": 72.8315254, "tags": {"amenity": "pharmacy", "dispensing": "yes", "healthcare": "pharmacy", "name": "Bandra Medical Stores", "name:en": "Bandra Medical Stores"}}, {"type": "node", "id": 4345578517, "lat": 19.0554912, "lon": 72.8355975, "tags": {"addr:city": "Bandra, Mumbai", "addr:postcode": "400050", "addr:street": "Ramdas Naik Road", "amenity": "pharmacy", "healthcare": "pharmacy", "name": "Shifa Plus Medical and General Store"}}, {"type": "node", "id": 4373086604, "lat": 19.0758859, "lon": 72.9115589, "tags": {"addr:postcode": "400077", "amenity": "pharmacy", "name:en": "bhavin medical stores", "opening_hours": "Mo-Su 10:30-23:00"}}, {"type": "node", "id": 5245907849, "lat": 19.0515512, "lon": 72.8283501, "tags": {"addr:city": "Mumbai", "addr:postcode": "400050", "addr:street": "Chapel Road", "amenity": "pharmacy", "healthcare": "pharmacy", "name": "Mamta Medical and General Store", "phone": "02269940010"}}, {"type": "node", "id": 5273193977, "lat": 19.0578665, "lon": 72.8298116, "tags": {"addr:city": "Mumbai", "addr:postcode": "400050", "addr:street": "Manuel Gonsalves Road", "addr:unit": "1", "amenity": "pharmacy", "drive_through": "no", "email": "info@nobleplus.in", "healthcare": "pharmacy", "name": "Noble Plus Pharmacy", "opening_hours": "24/7", "phone": "022 2643 1129", "phone_1": "022 2643 1130", "website": "https://nobleplus.in/"}}, {"type": "node", "id": 5277432568, "lat": 19.0631071, "lon": 72.8247559, "tags": {"addr:city": "Mumbai", "addr:housenumber": "7", "addr:postcode": "400050", "addr:street": "Pali Mala Road", "addr:suburb": "Bandra West", "addr:unit": "Sefa House, A Wing", "amenity": "pharmacy", "drive_through": "no", "healthcare": "pharmacy", "name": "Gems Medical and General Store", "phone": "+91 98190 85930"}}, {"type": "node", "id": 6367147486, "lat": 19.0236369, "lon": 72.8537063, "tags": {"addr:housenumber": "591", "addr:street": "Jam-e-Jamshed Road", "amenity": "pharmacy", "brand": "Shoppers Drug Mart", "brand:wikidata": "Q1820137", "brand:wikipedia": "en:Shoppers Drug Mart", "dispensing": "yes", "healthcare": "pharmacy", "name": "Shoppers Drug Mart", "name:en": "Noble Chemist", "operator": "Noble Chemist"}}, {"type": "node", "id": 9405136895, "lat": 19.0551444, "lon": 72.8266558, "tags": {"amenity": "pharmacy", "dispensing": "yes", "drive_through": "no", "healthcare": "pharmacy", "name": "Shree Ganesh Medical & General Stores", "name:en": "Shree Ganesh Medical & General Stores", "name:mr": "\u0936\u094d\u0930\u0940 \u0917\u0923\u0947\u0936 \u092e\u0947\u0921\u093f\u0915\u0932 \u090f\u0902\u0921 \u091c\u0928\u0930\u0932 \u0938\u094d\u091f\u094b\u0930\u094d\u0938", "phone": "022 2644 1211;+91 93215 16281;+91 88796 61211"}}, {"type": "node", "id": 10052708697, "lat": 19.0602984, "lon": 72.9105212, "tags": {"addr:city": "mumbai", "addr:postcode": "400043", "addr:street": "P.L. Lokhande Marg", "amenity": "pharmacy", "dispensing": "yes", "healthcare": "pharmacy", "name": "Metro medical"}}, {"type": "node", "id": 10608361194, "lat": 19.0578462, "lon": 72.8335819, "tags": {"amenity": "pharmacy", "healthcare": "pharmacy", "name": "Prime Pharma Distributor"}}, {"type": "node", "id": 11055126102, "lat": 19.0453941, "lon": 72.9138673, "tags": {"amenity": "pharmacy", "healthcare": "pharmacy", "name": "Tulsi medicals"}}, {"type": "node", "id": 11098458923, "lat": 19.0456943, "lon": 72.902467, "tags": {"amenity": "pharmacy", "healthcare": "pharmacy", "name": "Orange Pharmacy"}}, {"type": "node", "id": 11098464324, "lat": 19.0456891, "lon": 72.9025701, "tags": {"amenity": "pharmacy", "healthcare": "pharmacy"}}, {"type": "node", "id": 11098474640, "lat": 19.0456907, "lon": 72.9025243, "tags": {"amenity": "pharmacy", "healthcare": "pharmacy"}}, {"type": "node", "id": 11296371069, "lat": 19.0627098, "lon": 72.82934, "tags": {"amenity": "pharmacy", "healthcare": "pharmacy", "name": "Modern Stores", "name:en": "Modern Stores"}}, {"type": "node", "id": 11298617858, "lat": 19.0649138, "lon": 72.8298226, "tags": {"amenity": "pharmacy", "brand": "Wellness Forever", "brand:wikidata": "Q123114721", "healthcare": "pharmacy", "name": "Wellness Forever"}}, {"type": "node", "id": 11298645363, "lat": 19.0656021, "lon": 72.8316198, "tags": {"amenity": "pharmacy", "healthcare": "pharmacy", "name": "Noble Plus", "name:en": "Noble Plus"}}, {"type": "node", "id": 11364270986, "lat": 19.0587399, "lon": 72.8365291, "tags": {"amenity": "pharmacy", "brand": "Apollo Pharmacy", "brand:wikidata": "Q62562612", "healthcare": "pharmacy", "name": "Apollo Pharmacy"}}, {"type": "node", "id": 11385106117, "lat": 19.0551288, "lon": 72.8296136, "tags": {"amenity": "pharmacy", "healthcare": "pharmacy", "name": "Alive United", "name:en": "Alive United"}}, {"type": "node", "id": 11439700669, "lat": 19.0292296, "lon": 72.9035646, "tags": {"amenity": "pharmacy", "name": "\u0930\u093e\u091c\u092a\u0942\u0924 \u092e\u0947\u0921\u093f\u0915\u0932", "name:en": "Rajput madicals"}}, {"type": "node", "id": 11449446312, "lat": 19.0845316, "lon": 72.8893744, "tags": {"amenity": "pharmacy", "name": "Grand Medical"}}, {"type": "node", "id": 11451948928, "lat": 19.022103, "lon": 72.8390664, "tags": {"amenity": "pharmacy", "healthcare": "pharmacy", "name": "Sheetal Ayurveda"}}, {"type": "node", "id": 12026379669, "lat": 19.0621838, "lon": 72.8424938, "tags": {"addr:postcode": "400051", "addr:street": "Daima Marg", "amenity": "pharmacy", "name": "Apple Medical", "opening_hours": "Mo-Sa,PH 08:00-12:00; Su 08:00-13:00"}}, {"type": "node", "id": 12075203456, "lat": 19.0948452, "lon": 72.8722677, "tags": {"amenity": "pharmacy", "brand": "Apollo Pharmacy", "brand:wikidata": "Q62562612", "healthcare": "pharmacy", "level": "1", "name": "Apollo Pharmacy"}}, {"type": "node", "id": 12150771701, "lat": 19.0609317, "lon": 72.8492862, "tags": {"amenity": "pharmacy", "name": "Generic Medicine Pharmacy", "outdoor_seating": "no"}}, {"type": "node", "id": 12192784842, "lat": 19.0625153, "lon": 72.8308698, "tags": {"amenity": "pharmacy", "healthcare": "pharmacy", "name": "New Liberty Drug Corner", "name:en": "New Liberty Drug Corner", "opening_hours": "24/7"}}, {"type": "node", "id": 12346531474, "lat": 19.0562692, "lon": 72.834355, "tags": {"amenity": "pharmacy", "brand": "Wellness Forever", "brand:wikidata": "Q123114721", "healthcare": "pharmacy", "name": "Wellness Forever"}}, {"type": "node", "id": 12353886144, "lat": 19.054766, "lon": 72.836488, "tags": {"amenity": "pharmacy", "healthcare": "pharmacy", "name": "Leelavati Medical", "name:en": "Leelavati Medical", "name:mr": "\u0932\u0940\u0932\u093e\u0935\u0924\u0940 \u092e\u0947\u0921\u0940\u0915\u0932"}}, {"type": "node", "id": 12408808753, "lat": 19.0789383, "lon": 72.8446344, "tags": {"addr:city": "Mumbai", "addr:district": "Mumbai", "addr:housenumber": "Santacruz", "addr:postcode": "400055", "addr:street": "8th", "amenity": "pharmacy", "dispensing": "yes", "healthcare": "pharmacy", "name": "M R Medical", "opening_hours": "24/7"}}, {"type": "node", "id": 12408822896, "lat": 19.079065, "lon": 72.8445767, "tags": {"addr:city": "Mumbai", "addr:district": "Mumbai", "addr:housenumber": "T. P. S. II", "addr:postcode": "400055", "addr:street": "11th Road Sen Nagar", "amenity": "pharmacy", "dispensing": "yes", "healthcare": "pharmacy", "name": "Bhatia Medical", "opening_hours": "Mo-Su 09:00-23:00"}}, {"type": "node", "id": 12770185627, "lat": 19.0271814, "lon": 72.8561352, "tags": {"amenity": "pharmacy", "delivery": "yes", "healthcare": "pharmacy", "level": "0", "mobile": "+91 99303 19900;+91 77770 15522", "name": "Noble Chemist", "opening_hours": "24/7", "phone": "+91 22 2404 2222;+91 22 2404 2230", "wheelchair": "no"}}, {"type": "node", "id": 12770285317, "lat": 19.0269185, "lon": 72.8545815, "tags": {"amenity": "pharmacy", "brand": "Apollo Pharmacy", "brand:wikidata": "Q62562612", "healthcare": "pharmacy", "level": "0", "name": "Apollo Pharmacy", "wheelchair": "no"}}, {"type": "node", "id": 12775789705, "lat": 19.0319597, "lon": 72.8458455, "tags": {"amenity": "pharmacy", "healthcare": "pharmacy", "name": "Phondaghat Pharmacy"}}, {"type": "node", "id": 12784254798, "lat": 19.0592086, "lon": 72.8477247, "tags": {"amenity": "pharmacy", "healthcare": "pharmacy", "name": "Esswell Pharma", "name:en": "Esswell Pharma", "name:mr": "\u090f\u0938\u094d\u0935\u0947\u0932 \u092b\u093e\u0930\u094d\u092e\u093e", "phone": "+91 70457 89598"}}, {"type": "node", "id": 12912776676, "lat": 19.0613817, "lon": 72.8494938, "tags": {"amenity": "pharmacy", "healthcare": "pharmacy", "name": "Bhatia Clinic", "opening_hours": "24/7"}}, {"type": "node", "id": 12921862895, "lat": 19.0617292, "lon": 72.8440527, "tags": {"amenity": "pharmacy", "healthcare": "pharmacy"}}, {"type": "node", "id": 12923020647, "lat": 19.0656019, "lon": 72.8302376, "tags": {"amenity": "pharmacy", "healthcare": "pharmacy", "name": "Guru Nanak Chemist", "name:en": "Guru Nanak Chemist", "name:mr": "\u0917\u0941\u0930\u0941 \u0928\u093e\u0928\u0915 \u091a\u0947\u092e\u093f\u0938\u094d\u091f"}}, {"type": "node", "id": 12926034662, "lat": 19.0620778, "lon": 72.835048, "tags": {"amenity": "pharmacy", "healthcare": "pharmacy", "name": "Forever Yooung", "name:en": "Forever Yooung", "name:mr": "\u092b\u0949\u0930\u0947\u0935\u094d\u0939\u0930 \u092f\u0902\u0917"}}, {"type": "node", "id": 12926508557, "lat": 19.0474509, "lon": 72.8250678, "tags": {"amenity": "pharmacy", "healthcare": "pharmacy", "name": "Shree Maruti Medical & General Store", "name:en": "Shree Maruti Medical & General Store", "name:mr": "\u0936\u094d\u0930\u0940 \u092e\u093e\u0930\u0941\u0924\u0940 \u092e\u0947\u0921\u093f\u0915\u0932 \u0906\u0923\u093f \u091c\u0928\u0930\u0932 \u0938\u094d\u091f\u094b\u0905\u0930", "phone": "+91 98197 11538"}}, {"type": "node", "id": 12927277235, "lat": 19.0478896, "lon": 72.8251204, "tags": {"amenity": "pharmacy", "healthcare": "pharmacy", "name": "National Chemist", "name:en": "National Chemist", "name:mr": "\u0928\u0945\u0936\u0928\u0932 \u0915\u0947\u092e\u093f\u0938\u094d\u091f"}}, {"type": "node", "id": 13020281093, "lat": 19.0159298, "lon": 72.8438895, "tags": {"amenity": "pharmacy", "healthcare": "pharmacy", "name": "Zeno Health Pharmacy"}}, {"type": "node", "id": 13022352226, "lat": 19.0315096, "lon": 72.8543943, "tags": {"amenity": "pharmacy", "healthcare": "pharmacy", "name": "Orange Medicals"}}, {"type": "node", "id": 13086964886, "lat": 19.0633925, "lon": 72.8246256, "tags": {"amenity": "pharmacy", "healthcare": "pharmacy", "name": "Shree Krishna Medical & General Store", "name:en": "Shree Krishna Medical & General Store", "name:mr": "\u0936\u094d\u0930\u0940 \u0915\u0943\u0937\u094d\u0923\u093e \u092e\u0947\u0921\u093f\u0915\u0932 \u0906\u0923\u093f \u091c\u0928\u0930\u0932 \u0938\u094d\u091f\u094b\u0930"}}, {"type": "node", "id": 13331187601, "lat": 19.0758562, "lon": 72.8639506, "tags": {"amenity": "pharmacy", "name": "Laxmi Chemist & General Store"}}]}